{
  "type": "FeatureCollection",
  "features": [
    {
      "type": "Feature",
      "properties": {
        "source_file": "WeatherTech Raceway Laguna Seca_P_2026-09-01T03_33_35Z.duckdb",
        "track_name": "WeatherTech Raceway Laguna Seca",
        "track_layout": "WeatherTech Raceway Laguna Seca",
        "lap": 3
      },
      "geometry": {
        "type": "LineString",
        "coordinates": [
          [
            -0.005425954921549512,
            60.00208543752915
          ],
          [
            -0.005477480399795938,
            60.00204705384968
          ],
          [
            -0.0055287152462037414,
            60.00200533069601
          ],
          [
            -0.005579551451389859,
            60.0019633699308
          ],
          [
            -0.00562997204068957,
            60.0019214091656
          ],
          [
            -0.005679997304308942,
            60.00187944840039
          ],
          [
            -0.005729537384860009,
            60.001837487635186
          ],
          [
            -0.005778462657344403,
            60.001795526869984
          ],
          [
            -0.005826806377534208,
            60.001753566104775
          ],
          [
            -0.005874623258205918,
            60.001708028911814
          ],
          [
            -0.005921865679983577,
            60.0016658298771
          ],
          [
            -0.005968349070459369,
            60.00162029284863
          ],
          [
            -0.006013862730877398,
            60.00157809364942
          ],
          [
            -0.006058362428686379,
            60.00153255678545
          ],
          [
            -0.006101927291115132,
            60.00148678140523
          ],
          [
            -0.006144653528900086,
            60.001441006025
          ],
          [
            -0.006186700850097975,
            60.001395230644775
          ],
          [
            -0.006228464935902576,
            60.00134945526455
          ],
          [
            -0.006270105959590357,
            60.00130367988433
          ],
          [
            -0.0063116416306873415,
            60.00125790450411
          ],
          [
            -0.00635314935039055,
            60.00120855360084
          ],
          [
            -0.006394708451054381,
            60.00116253904639
          ],
          [
            -0.006436373649049717,
            60.00111676366617
          ],
          [
            -0.006478129942454829,
            60.00106741300964
          ],
          [
            -0.00651986612549898,
            60.00102139820846
          ],
          [
            -0.006561490607613933,
            60.000972047716424
          ],
          [
            -0.006602894320165331,
            60.00092603275074
          ],
          [
            -0.006643917595938761,
            60.000876682423204
          ],
          [
            -0.006684335497370423,
            60.00082709242796
          ],
          [
            -0.0067239167520514835,
            60.00077750243272
          ],
          [
            -0.006762478377786345,
            60.000727912437476
          ],
          [
            -0.006800099835681274,
            60.00067832244223
          ],
          [
            -0.00683658737142482,
            60.00062873244699
          ],
          [
            -0.006871861680694028,
            60.00057914245175
          ],
          [
            -0.00690550513875612,
            60.000529552456506
          ],
          [
            -0.006937512671197246,
            60.000476388171926
          ],
          [
            -0.006968013640241038,
            60.00042655776876
          ],
          [
            -0.006997120043325509,
            60.00037339364867
          ],
          [
            -0.0070248479975861715,
            60.00031998903841
          ],
          [
            -0.007051166707752977,
            60.000266584428154
          ],
          [
            -0.007075753841337998,
            60.00021317981789
          ],
          [
            -0.0070985350489972425,
            60.00015977520763
          ],
          [
            -0.007119896341117152,
            60.000106370597365
          ],
          [
            -0.007139970410271603,
            60.00005296598711
          ],
          [
            -0.007158486120670595,
            59.999999561376846
          ],
          [
            -0.0071752598153257425,
            59.99994258329972
          ],
          [
            -0.007190324427456638,
            59.999888937459055
          ],
          [
            -0.0072038626421879574,
            59.99983195954643
          ],
          [
            -0.007215757917403797,
            59.99977474032114
          ],
          [
            -0.007226022063437412,
            59.99972109423374
          ],
          [
            -0.007234827877703817,
            59.99966411656785
          ],
          [
            -0.007242105820098711,
            59.999606897342574
          ],
          [
            -0.007247913646868369,
            59.99954967811729
          ],
          [
            -0.007252530399472598,
            59.999492458892014
          ],
          [
            -0.007255989495727562,
            59.99943523966673
          ],
          [
            -0.007258151074459904,
            59.999378020441455
          ],
          [
            -0.007259118985305187,
            59.99932080121617
          ],
          [
            -0.007259150353613322,
            59.99926715447079
          ],
          [
            -0.007258402499487563,
            59.99921374986054
          ],
          [
            -0.007256860956394629,
            59.999160345250274
          ],
          [
            -0.0072546073862704615,
            59.99911051287317
          ],
          [
            -0.007251915611385408,
            59.99906092287794
          ],
          [
            -0.007248988710591623,
            59.99901490495136
          ],
          [
            -0.007245764671572369,
            59.99896912957114
          ],
          [
            -0.007242091927527279,
            59.998923354190914
          ],
          [
            -0.0072378755042761195,
            59.99888115063262
          ],
          [
            -0.007233148864704251,
            59.99883918986741
          ],
          [
            -0.007227879796749106,
            59.99879722910221
          ],
          [
            -0.0072220545930154235,
            59.99875883991219
          ],
          [
            -0.007215650683734638,
            59.998720693762
          ],
          [
            -0.007208592471762033,
            59.998682547611814
          ],
          [
            -0.00720091632739169,
            59.998647972790074
          ],
          [
            -0.007192587579876274,
            59.998613641254906
          ],
          [
            -0.007183414916149775,
            59.998582880883696
          ],
          [
            -0.007173213282992934,
            59.99854879288184
          ],
          [
            -0.007161946966521273,
            59.99852160334559
          ],
          [
            -0.007149625229258996,
            59.998491330123244
          ],
          [
            -0.007136332070213322,
            59.99846438403806
          ],
          [
            -0.007122024352418513,
            59.99843768173293
          ],
          [
            -0.007106608517262126,
            59.9984109794278
          ],
          [
            -0.00709016644698591,
            59.998387847710895
          ],
          [
            -0.007072756895010545,
            59.99836496002078
          ],
          [
            -0.007054356879328538,
            59.9983456427544
          ],
          [
            -0.0070350260346441545,
            59.99832299933782
          ],
          [
            -0.0070147445937105675,
            59.99830368190695
          ],
          [
            -0.006993492612377597,
            59.998288179008846
          ],
          [
            -0.006971110205705245,
            59.99827292054877
          ],
          [
            -0.006947501532887902,
            59.99825766208869
          ],
          [
            -0.006922576231630365,
            59.998242403628616
          ],
          [
            -0.006896232203629745,
            59.99823071501655
          ],
          [
            -0.006868431037236268,
            59.998215701405734
          ],
          [
            -0.006839229813622394,
            59.99820758231267
          ],
          [
            -0.006808773342444763,
            59.99819638348138
          ],
          [
            -0.006777203307924391,
            59.998188509155334
          ],
          [
            -0.006744474742899493,
            59.99818087992529
          ],
          [
            -0.006710591780240699,
            59.99817325069526
          ],
          [
            -0.0066756416634039155,
            59.99816919073749
          ],
          [
            -0.006639762800666384,
            59.99816537612247
          ],
          [
            -0.006603050561600216,
            59.99816156150746
          ],
          [
            -0.006565600190881082,
            59.99816131591797
          ],
          [
            -0.006527515420476651,
            59.998157746974684
          ],
          [
            -0.006488873105693663,
            59.99816107008174
          ],
          [
            -0.006449710747943102,
            59.99816131591797
          ],
          [
            -0.006410069804040962,
            59.99816488461451
          ],
          [
            -0.0063699943589017585,
            59.99816869922953
          ],
          [
            -0.006329528647486287,
            59.99817251384455
          ],
          [
            -0.006288708628321678,
            59.99817989690937
          ],
          [
            -0.006247582757128972,
            59.99818395777185
          ],
          [
            -0.006206238722001674,
            59.99819134067218
          ],
          [
            -0.006164870085870419,
            59.998202538105275
          ],
          [
            -0.006124003771423839,
            59.99821041382952
          ],
          [
            -0.006084316404501953,
            59.998221611098124
          ],
          [
            -0.006046276494494972,
            59.99823305494318
          ],
          [
            -0.00601022694115828,
            59.998248066662306
          ],
          [
            -0.005976308756360061,
            59.99826332512238
          ],
          [
            -0.00594445180085397,
            59.998278583582454
          ],
          [
            -0.005914883209017618,
            59.99829384204253
          ],
          [
            -0.005887738835636512,
            59.99830910050261
          ],
          [
            -0.005863289567149258,
            59.99832792642552
          ],
          [
            -0.005841671167219157,
            59.99834699950061
          ],
          [
            -0.005822996292424714,
            59.998366072575706
          ],
          [
            -0.005807259557877735,
            59.9983851456508
          ],
          [
            -0.0057942898305803,
            59.998404218725895
          ],
          [
            -0.005784028711179388,
            59.99842329180098
          ],
          [
            -0.005776446841930089,
            59.99844236487608
          ],
          [
            -0.005771647779091614,
            59.99846500483828
          ],
          [
            -0.005769665833229368,
            59.99848432572353
          ],
          [
            -0.005770459775533713,
            59.99850696552124
          ],
          [
            -0.005773958691807516,
            59.998526286570986
          ],
          [
            -0.005780028120925884,
            59.998548926204194
          ],
          [
            -0.005788296386759778,
            59.99857181389431
          ],
          [
            -0.0057981283393009645,
            59.99859113519079
          ],
          [
            -0.005808847250201974,
            59.998613774577265
          ],
          [
            -0.0058203314828230825,
            59.99863666226738
          ],
          [
            -0.005832687954626319,
            59.998663116104375
          ],
          [
            -0.005845808695685472,
            59.99868625234487
          ],
          [
            -0.005859561577398825,
            59.99870914003498
          ],
          [
            -0.005873923588101001,
            59.998735593625234
          ],
          [
            -0.005888819728534278,
            59.99876229593037
          ],
          [
            -0.005904185640595949,
            59.9987889982355
          ],
          [
            -0.0059199862903749215,
            59.99881570054063
          ],
          [
            -0.0059361133197415854,
            59.99884240284576
          ],
          [
            -0.0059524465860858605,
            59.99886910515089
          ],
          [
            -0.005968718383092086,
            59.99889937286268
          ],
          [
            -0.005984985413337525,
            59.99892632445842
          ],
          [
            -0.006001279892258188,
            59.99895659200572
          ],
          [
            -0.006017560186556318,
            59.998983543765945
          ],
          [
            -0.006033648305691095,
            59.99901381114875
          ],
          [
            -0.006049259585589417,
            59.9990443280689
          ],
          [
            -0.006064200889575313,
            59.99907840990223
          ],
          [
            -0.0060784478447115375,
            59.99910917660646
          ],
          [
            -0.006092063564572967,
            59.99913969352661
          ],
          [
            -0.006105086472284941,
            59.9991737751132
          ],
          [
            -0.006117410599599143,
            59.99920810664837
          ],
          [
            -0.006128983096735466,
            59.999242438183536
          ],
          [
            -0.006139678523613188,
            59.999276769718705
          ],
          [
            -0.0061494339134409454,
            59.99931110125387
          ],
          [
            -0.006158201939566458,
            59.99934543278904
          ],
          [
            -0.006165879478511084,
            59.99937976432421
          ],
          [
            -0.006172517365395384,
            59.99941765995009
          ],
          [
            -0.006178157081362191,
            59.999452242091806
          ],
          [
            -0.006182789945138138,
            59.999490137553195
          ],
          [
            -0.006186437783397558,
            59.999528283703384
          ],
          [
            -0.006189028232410544,
            59.999566429853566
          ],
          [
            -0.006190427322425708,
            59.999604576003755
          ],
          [
            -0.006190496356598603,
            59.99964272215394
          ],
          [
            -0.0061891635667469785,
            59.999680868304125
          ],
          [
            -0.006186451944777675,
            59.999719014454314
          ],
          [
            -0.0061824003949990155,
            59.99976072395499
          ],
          [
            -0.006176908000986736,
            59.99979912145195
          ],
          [
            -0.006170198426169217,
            59.99983726760214
          ],
          [
            -0.006162528489578584,
            59.99987541375233
          ],
          [
            -0.006153894286822493,
            59.99991355990251
          ],
          [
            -0.006144146468305303,
            59.9999517060527
          ],
          [
            -0.006133098014771564,
            59.99998628934588
          ],
          [
            -0.006120603370870046,
            60.000020620881045
          ],
          [
            -0.0061066179057359,
            60.000054952416214
          ],
          [
            -0.00609101127189852,
            60.00008928395138
          ],
          [
            -0.006073497410328955,
            60.00012005295853
          ],
          [
            -0.006053969751669126,
            60.00015056987868
          ],
          [
            -0.006032278638037751,
            60.00018464916235
          ],
          [
            -0.006008503055251584,
            60.00021541841624
          ],
          [
            -0.005982589308009101,
            60.00024237313736
          ],
          [
            -0.005954482270612041,
            60.00027263755928
          ],
          [
            -0.005924266171369257,
            60.00029959244489
          ],
          [
            -0.005892048112035476,
            60.00032629475002
          ],
          [
            -0.005857781765542392,
            60.000352997055145
          ],
          [
            -0.005821502034428869,
            60.00037613757248
          ],
          [
            -0.00578335948927461,
            60.00040258696814
          ],
          [
            -0.005743433316815226,
            60.00042216602667
          ],
          [
            -0.005701735351078133,
            60.00044480064282
          ],
          [
            -0.0056583030398009125,
            60.00046412687412
          ],
          [
            -0.005613232042879986,
            60.000483199949215
          ],
          [
            -0.005566638090332557,
            60.00050227302431
          ],
          [
            -0.005518675006634746,
            60.000517784887336
          ],
          [
            -0.005469494027360029,
            60.00053304334741
          ],
          [
            -0.005419258188556062,
            60.000548301807484
          ],
          [
            -0.00536808835826694,
            60.00055999930223
          ],
          [
            -0.005316127117830279,
            60.00057144314729
          ],
          [
            -0.005263518378240066,
            60.00058288699234
          ],
          [
            -0.005210405584868971,
            60.00059077011881
          ],
          [
            -0.005156942149020404,
            60.00059839934885
          ],
          [
            -0.005103264374454917,
            60.000602468024795
          ],
          [
            -0.005049427322675414,
            60.000606282639815
          ],
          [
            -0.004995243483846115,
            60.000610097254835
          ],
          [
            -0.004940499753727876,
            60.0006103515625
          ],
          [
            -0.0048851327784504035,
            60.0006103515625
          ],
          [
            -0.0048291633870217576,
            60.0006103515625
          ],
          [
            -0.004772642425716793,
            60.00060679150189
          ],
          [
            -0.004715589049146792,
            60.000602976886874
          ],
          [
            -0.004658010894323529,
            60.000599162271854
          ],
          [
            -0.004599894521977748,
            60.000595347656834
          ],
          [
            -0.004541209823097794,
            60.000587973310196
          ],
          [
            -0.004481881278589126,
            60.000580344080156
          ],
          [
            -0.004421803256701305,
            60.00057271485012
          ],
          [
            -0.00436089209454338,
            60.00056508562008
          ],
          [
            -0.0042990884348941645,
            60.00055745639005
          ],
          [
            -0.004236367126040378,
            60.00054982716001
          ],
          [
            -0.004172718386374002,
            60.00054219792997
          ],
          [
            -0.004108157264602944,
            60.00053456869993
          ],
          [
            -0.00404267445601532,
            60.00052338039625
          ],
          [
            -0.0039762822456114455,
            60.000515495542594
          ],
          [
            -0.003908983958616126,
            60.00050786631255
          ],
          [
            -0.0038407954060276283,
            60.00050023708252
          ],
          [
            -0.003771750292833959,
            60.00049260785248
          ],
          [
            -0.0037018620382244737,
            60.00048141996003
          ],
          [
            -0.0036311611948646513,
            60.00047353469514
          ],
          [
            -0.0035599090148006243,
            60.000465905465106
          ],
          [
            -0.0034883613109895507,
            60.000458276235065
          ],
          [
            -0.0034160934026266896,
            60.00045064700503
          ],
          [
            -0.0033430511143368205,
            60.00044301777499
          ],
          [
            -0.003269232834974719,
            60.00043538854496
          ],
          [
            -0.0031946494229591945,
            60.000424201228235
          ],
          [
            -0.003119309695945745,
            60.00041631538761
          ],
          [
            -0.003043217707785945,
            60.00040868615758
          ],
          [
            -0.0029663899955748247,
            60.00040105692754
          ],
          [
            -0.0028888292543970203,
            60.0003934276975
          ],
          [
            -0.002810540588254021,
            60.000382240792014
          ],
          [
            -0.0027315378202962147,
            60.00037435454016
          ],
          [
            -0.0026518280025597885,
            60.00036672531012
          ],
          [
            -0.00257158050004384,
            60.00035909608009
          ],
          [
            -0.0024916302012185794,
            60.00035146685005
          ],
          [
            -0.0024128965886574946,
            60.000343837620015
          ],
          [
            -0.0023358954090578216,
            60.00033265120801
          ],
          [
            -0.002260815358918146,
            60.000324764462675
          ],
          [
            -0.0021876757526048817,
            60.000317135232635
          ],
          [
            -0.002116360807084851,
            60.0003095060026
          ],
          [
            -0.00204673596401679,
            60.00030187677256
          ],
          [
            -0.001978673338540281,
            60.00029069077179
          ],
          [
            -0.0019120866092252281,
            60.00027924692674
          ],
          [
            -0.001846942356036537,
            60.000267803081684
          ],
          [
            -0.00178326895414281,
            60.00025280271264
          ],
          [
            -0.001721112673008435,
            60.00023754425256
          ],
          [
            -0.0016604917962919229,
            60.00022228579249
          ],
          [
            -0.0016014374816741652,
            60.000207027332415
          ],
          [
            -0.0015439375867918768,
            60.00018821267734
          ],
          [
            -0.0014879207474589025,
            60.00016913960224
          ],
          [
            -0.0014332508679417962,
            60.00015006652715
          ],
          [
            -0.0013798810958712817,
            60.00013099345205
          ],
          [
            -0.0013279496794432778,
            60.00010836451095
          ],
          [
            -0.001277743474765495,
            60.000085476820836
          ],
          [
            -0.0012293814636280772,
            60.00006258913073
          ],
          [
            -0.0011829471236805215,
            60.00003614582134
          ],
          [
            -0.0011385455099655686,
            60.00000944351621
          ],
          [
            -0.0010960365221265463,
            59.99998274121108
          ],
          [
            -0.0010554916672576753,
            59.99995603890595
          ],
          [
            -0.001017176686582185,
            59.99992933660082
          ],
          [
            -0.0009811467578954732,
            59.99989907908765
          ],
          [
            -0.0009473285245338197,
            59.9998685621675
          ],
          [
            -0.0009156324687270733,
            59.99983804524735
          ],
          [
            -0.0008860239286257669,
            59.99980397336591
          ],
          [
            -0.0008584693056074181,
            59.99977319670979
          ],
          [
            -0.0008327426041759877,
            59.999739124992836
          ],
          [
            -0.0008088340972202651,
            59.99970479345767
          ],
          [
            -0.0007867392241478953,
            59.9996704619225
          ],
          [
            -0.0007664698197217481,
            59.99963613038733
          ],
          [
            -0.0007479469940790664,
            59.99960179885216
          ],
          [
            -0.0007311351345302344,
            59.99956391293143
          ],
          [
            -0.0007158604100384326,
            59.99952576678124
          ],
          [
            -0.0007019219014752563,
            59.99948762063106
          ],
          [
            -0.0006892212122480546,
            59.99944947448087
          ],
          [
            -0.0006776116867614745,
            59.99941132833068
          ],
          [
            -0.0006670065133224178,
            59.9993731821805
          ],
          [
            -0.0006573858743087344,
            59.99933503603031
          ],
          [
            -0.0006485974348615812,
            59.99929333607029
          ],
          [
            -0.0006405546676972781,
            59.99925492903267
          ],
          [
            -0.0006332479704079066,
            59.99921322923714
          ],
          [
            -0.000626642395889948,
            59.99917482203503
          ],
          [
            -0.0006206623085872195,
            59.999133122404
          ],
          [
            -0.0006151641849762944,
            59.99909116163879
          ],
          [
            -0.0006100759538728021,
            59.999049200873586
          ],
          [
            -0.0006054142626978797,
            59.999007240108384
          ],
          [
            -0.0006011920559349911,
            59.998965279343174
          ],
          [
            -0.0005974161348482994,
            59.998919765508354
          ],
          [
            -0.0005941027688661972,
            59.9988775431155
          ],
          [
            -0.0005912715557517318,
            59.998835582350296
          ],
          [
            -0.0005888989154096601,
            59.99879006876221
          ],
          [
            -0.0005869668019415407,
            59.99874784612262
          ],
          [
            -0.0005854845375500566,
            59.99870233269903
          ],
          [
            -0.0005844866690272563,
            59.99865655731881
          ],
          [
            -0.0005840540695595738,
            59.998614334432474
          ],
          [
            -0.0005843616961928536,
            59.998568821255624
          ],
          [
            -0.0005856636201575217,
            59.9985230458754
          ],
          [
            -0.0005881372470940813,
            59.99847727049518
          ],
          [
            -0.000591854360685151,
            59.99843149511496
          ],
          [
            -0.0005969547855111194,
            59.998385719734735
          ],
          [
            -0.0006035493357985528,
            59.998339944354505
          ],
          [
            -0.0006116786317274063,
            59.99829061705613
          ],
          [
            -0.0006213046407463769,
            59.998244578896795
          ],
          [
            -0.0006324186780304844,
            59.99819880351657
          ],
          [
            -0.0006450185883476285,
            59.99815302813635
          ],
          [
            -0.0006591040807686857,
            59.998103701166954
          ],
          [
            -0.0006746554716717482,
            59.99805766267863
          ],
          [
            -0.0006916426374295875,
            59.998008335873735
          ],
          [
            -0.0007101180769585988,
            59.99796229722092
          ],
          [
            -0.0007301034494296766,
            59.997912970580515
          ],
          [
            -0.0007515337901360447,
            59.997866931763205
          ],
          [
            -0.0007742049446921429,
            59.997817605287295
          ],
          [
            -0.0007979915426666448,
            59.997771566305495
          ],
          [
            -0.0008228486412143471,
            59.997722239994076
          ],
          [
            -0.0008486194206288782,
            59.997676200847785
          ],
          [
            -0.0008750707318908356,
            59.997626874700856
          ],
          [
            -0.0009021060289433335,
            59.99757728470561
          ],
          [
            -0.0009297681756287934,
            59.99753124531258
          ],
          [
            -0.0009580668682922853,
            59.997481919412394
          ],
          [
            -0.0009870002285862576,
            59.99743232941715
          ],
          [
            -0.0010165724171605996,
            59.99738273942191
          ],
          [
            -0.0010467724343674754,
            59.997336699699886
          ],
          [
            -0.001077547757739363,
            59.997287374128696
          ],
          [
            -0.001108842969100234,
            59.99723778413345
          ],
          [
            -0.0011405372220620554,
            59.99718819413821
          ],
          [
            -0.0011723757683904333,
            59.99713860414297
          ],
          [
            -0.0012040606627009142,
            59.997089014147726
          ],
          [
            -0.0012354749686553494,
            59.99703942415248
          ],
          [
            -0.00126663275195092,
            59.99698983415724
          ],
          [
            -0.0012975246557937008,
            59.996936694546754
          ],
          [
            -0.0013280065521067688,
            59.99688683946949
          ],
          [
            -0.001357689702553371,
            59.99683724947425
          ],
          [
            -0.0013863630332111559,
            59.996787659479004
          ],
          [
            -0.0014140545860088132,
            59.99674161877002
          ],
          [
            -0.0014408339816485457,
            59.996695843389794
          ],
          [
            -0.0014666303743853882,
            59.99665006800957
          ],
          [
            -0.001491290037268528,
            59.99660429262934
          ],
          [
            -0.0015147495829797868,
            59.99656206620639
          ],
          [
            -0.001536778635217991,
            59.996520105441185
          ],
          [
            -0.0015570480112462389,
            59.996478144675976
          ],
          [
            -0.0015754046979140198,
            59.996436183910774
          ],
          [
            -0.0015916656036959848,
            59.99639777177385
          ],
          [
            -0.0016056669929607663,
            59.99635962562366
          ],
          [
            -0.001617311367212412,
            59.99632147947347
          ],
          [
            -0.0016264770446616987,
            59.996286881704826
          ],
          [
            -0.001633138382367304,
            59.99625255016966
          ],
          [
            -0.0016372728812692622,
            59.99621821863449
          ],
          [
            -0.0016387749991529732,
            59.99618388709932
          ],
          [
            -0.0016375121951678056,
            59.99614955556415
          ],
          [
            -0.0016334670884843735,
            59.99611522402899
          ],
          [
            -0.0016265662094284658,
            59.99608089249382
          ],
          [
            -0.0016167238531661554,
            59.996050108764464
          ],
          [
            -0.0016038766060570803,
            59.99601604412075
          ],
          [
            -0.001587933215511608,
            59.995985260226895
          ],
          [
            -0.0015687679437253752,
            59.99595474330675
          ],
          [
            -0.001546556079623629,
            59.9959242263866
          ],
          [
            -0.001521547171766463,
            59.99589725686103
          ],
          [
            -0.0014938364788049834,
            59.99586700724357
          ],
          [
            -0.0014634755223741263,
            59.9958400375535
          ],
          [
            -0.0014306510127710796,
            59.995813335248364
          ],
          [
            -0.0013954064246866882,
            59.995790180008825
          ],
          [
            -0.0013577497316355689,
            59.995763745335374
          ],
          [
            -0.0013177735892527776,
            59.99574058993134
          ],
          [
            -0.001275434083272396,
            59.99571770224122
          ],
          [
            -0.0012307887446424517,
            59.99569836128771
          ],
          [
            -0.0011838560612837054,
            59.995679288212614
          ],
          [
            -0.0011347706388607393,
            59.99566021513753
          ],
          [
            -0.0010836685484689227,
            59.99564114206243
          ],
          [
            -0.0010306317160313373,
            59.99562561539495
          ],
          [
            -0.0009757310378313306,
            59.995610356934876
          ],
          [
            -0.0009190092855775159,
            59.9955950984748
          ],
          [
            -0.0008604978909625933,
            59.995583386175596
          ],
          [
            -0.0008003338554557408,
            59.995571942330535
          ],
          [
            -0.0007386341954233614,
            59.99556049848548
          ],
          [
            -0.0006754371907563471,
            59.99554905464043
          ],
          [
            -0.0006108147077419989,
            59.995541156627255
          ],
          [
            -0.0005448734096517827,
            59.995533527397214
          ],
          [
            -0.000477716229942565,
            59.99552589816718
          ],
          [
            -0.0004094815057589159,
            59.995521814522284
          ],
          [
            -0.00034027945719651933,
            59.995517999907264
          ],
          [
            -0.000270228054607576,
            59.995514185292244
          ],
          [
            -0.00019953832439561955,
            59.995513916015625
          ],
          [
            -0.00012843272072851815,
            59.995513916015625
          ],
          [
            -5.695980352103737e-05,
            59.995513916015625
          ],
          [
            1.4672807256842045e-05,
            59.99551746110728
          ],
          [
            8.628326611068886e-05,
            59.995521275722304
          ],
          [
            0.00015784213241710188,
            59.995525090337324
          ],
          [
            0.00022923830368145064,
            59.99553244979726
          ],
          [
            0.00030034536226111914,
            59.99554007902729
          ],
          [
            0.00037120746415936825,
            59.995547708257334
          ],
          [
            0.00044230166646372566,
            59.99555533748737
          ],
          [
            0.0005139965055043967,
            59.995566511233335
          ],
          [
            0.000586390081547921,
            59.99557441064471
          ],
          [
            0.0006594309910336357,
            59.995585584226184
          ],
          [
            0.0007331201387036181,
            59.99559702807124
          ],
          [
            0.0008075485626571834,
            59.99560492772935
          ],
          [
            0.0008826781831290834,
            59.99561610106409
          ],
          [
            0.0009584965900869339,
            59.99562400088669
          ],
          [
            0.0010349929320067708,
            59.99563517405693
          ],
          [
            0.0011121474523342516,
            59.99564307404403
          ],
          [
            0.001189945453316824,
            59.99565424704978
          ],
          [
            0.0012683775955948683,
            59.99566214720137
          ],
          [
            0.0013474476765754904,
            59.99567332004263
          ],
          [
            0.0014271503038253133,
            59.99568122035871
          ],
          [
            0.001507475414784644,
            59.99569239303547
          ],
          [
            0.0015884153525325346,
            59.99570029351605
          ],
          [
            0.0016699450413902837,
            59.99571146602832
          ],
          [
            0.0017520580608175525,
            59.99571936667339
          ],
          [
            0.0018347469266299405,
            59.99572699590343
          ],
          [
            0.0019180074159088868,
            59.995738168168955
          ],
          [
            0.0020018312458953548,
            59.99574606906077
          ],
          [
            0.002086208613094329,
            59.99575369829081
          ],
          [
            0.00217113610988375,
            59.99576487030959
          ],
          [
            0.002256584121707462,
            59.99577277144815
          ],
          [
            0.0023423542764606097,
            59.995780400678186
          ],
          [
            0.002428677579500196,
            59.995788029908226
          ],
          [
            0.0025155603823171584,
            59.99579920159802
          ],
          [
            0.0026030032352295815,
            59.995807103065566
          ],
          [
            0.0026910319828553912,
            59.9958147322956
          ],
          [
            0.0027796713034556955,
            59.99582236152564
          ],
          [
            0.0028689248879944277,
            59.995829990755674
          ],
          [
            0.002958774726189644,
            59.99583407793719
          ],
          [
            0.0030491973702120394,
            59.99584143451848
          ],
          [
            0.0031401764229731476,
            59.99584906374852
          ],
          [
            0.0032316923780479935,
            59.99585315117678
          ],
          [
            0.0033237209065545533,
            59.99586050751133
          ],
          [
            0.003416232358259983,
            59.99586459510408
          ],
          [
            0.003509201887778844,
            59.99587195127414
          ],
          [
            0.0036026033202399763,
            59.99587603903139
          ],
          [
            0.0036964146704689584,
            59.99588339503695
          ],
          [
            0.0037906244453989124,
            59.995887482958686
          ],
          [
            0.0038852152351950284,
            59.99589483879976
          ],
          [
            0.003979997502450752,
            59.9959024680298
          ],
          [
            0.004074172164204439,
            59.99590655619828
          ],
          [
            0.004166696130096433,
            59.995913911792606
          ],
          [
            0.0042570141459932435,
            59.99592154102264
          ],
          [
            0.004344882995260609,
            59.99592917025268
          ],
          [
            0.004430215856169324,
            59.99593325875015
          ],
          [
            0.004513092824609293,
            59.99594061401549
          ],
          [
            0.004593654501755842,
            59.99594824324552
          ],
          [
            0.004671946262170465,
            59.99595587247556
          ],
          [
            0.0047481034942445256,
            59.99596704210918
          ],
          [
            0.004822230251614716,
            59.9959749456329
          ],
          [
            0.0048945308620281505,
            59.99598611510203
          ],
          [
            0.004965295439946663,
            59.99599755894708
          ],
          [
            0.00503484475865948,
            59.99600900279214
          ],
          [
            0.005103222345895719,
            59.99602398662954
          ],
          [
            0.005170365823323768,
            59.99603924508961
          ],
          [
            0.005236166091496653,
            59.99605450354969
          ],
          [
            0.005300479390159869,
            59.99606976200977
          ],
          [
            0.005363118894872429,
            59.996088560133195
          ],
          [
            0.005423625011587926,
            59.99610763320829
          ],
          [
            0.0054813832679445375,
            59.99613024578225
          ],
          [
            0.005536358113607872,
            59.996149594055744
          ],
          [
            0.005588554175844214,
            59.996175745799576
          ],
          [
            0.005639036729710887,
            59.996198908852584
          ],
          [
            0.005688012599982309,
            59.99622533571257
          ],
          [
            0.005735171308779896,
            59.9962520380177
          ],
          [
            0.005780336306330643,
            59.996278740322836
          ],
          [
            0.00582361113052072,
            59.9963089815511
          ],
          [
            0.005865067402407517,
            59.99633949847125
          ],
          [
            0.00590487415319299,
            59.9963700153914
          ],
          [
            0.005943275277657522,
            59.99640053231155
          ],
          [
            0.0059809868343098805,
            59.996434587825846
          ],
          [
            0.006018178154324663,
            59.99646538084911
          ],
          [
            0.006054531223822986,
            59.99649943619891
          ],
          [
            0.006089840415249984,
            59.99653376773408
          ],
          [
            0.006124004854509766,
            59.99656809926925
          ],
          [
            0.006156991848637807,
            59.99660596898733
          ],
          [
            0.006188836948630977,
            59.99664057703685
          ],
          [
            0.00621955345551901,
            59.99667844659044
          ],
          [
            0.006249106333613664,
            59.996716592740626
          ],
          [
            0.006277471187136894,
            59.99675473889081
          ],
          [
            0.006304684330781711,
            59.996792885040996
          ],
          [
            0.006330761692973308,
            59.996831031191185
          ],
          [
            0.006355618783853012,
            59.99686917734137
          ],
          [
            0.006379173340465472,
            59.996910861016495
          ],
          [
            0.006401335672838433,
            59.99694928433901
          ],
          [
            0.006422133331752985,
            59.996990967849634
          ],
          [
            0.006441584966611899,
            59.99703292861484
          ],
          [
            0.006459766960534582,
            59.9970713521841
          ],
          [
            0.006476774150194613,
            59.99711303544799
          ],
          [
            0.006492524999566622,
            59.99715499621319
          ],
          [
            0.006506966798154261,
            59.9971969569784
          ],
          [
            0.00652005709699705,
            59.997242454610564
          ],
          [
            0.0065317064982842255,
            59.99728469320607
          ],
          [
            0.006541999747048926,
            59.99732665397128
          ],
          [
            0.006550964755619675,
            59.99736861473648
          ],
          [
            0.006558599698739944,
            59.99741411203966
          ],
          [
            0.006564968627672539,
            59.99745635096416
          ],
          [
            0.006570071419980694,
            59.99750184810284
          ],
          [
            0.0065739301153656445,
            59.997544087191834
          ],
          [
            0.006576801594695349,
            59.99758958416602
          ],
          [
            0.006578913132163176,
            59.997635359546244
          ],
          [
            0.006580390678720895,
            59.99767759888198
          ],
          [
            0.006581362000677422,
            59.99772309560943
          ],
          [
            0.00658192410353874,
            59.99776887098965
          ],
          [
            0.006582220283032668,
            59.997814646369875
          ],
          [
            0.00658238257240178,
            59.9978604217501
          ],
          [
            0.006582453336853587,
            59.99790619713033
          ],
          [
            0.006582489975233468,
            59.99795197251055
          ],
          [
            0.006582486454757431,
            59.99799774789077
          ],
          [
            0.006582378949257574,
            59.998043523270994
          ],
          [
            0.006582037764118791,
            59.998089298651216
          ],
          [
            0.006581383138232079,
            59.998135074031445
          ],
          [
            0.006580423788793605,
            59.99818438455144
          ],
          [
            0.006579215645036143,
            59.998230439489156
          ],
          [
            0.0065778515003298696,
            59.99827621486938
          ],
          [
            0.006576426377558639,
            59.99832552514264
          ],
          [
            0.006575103010267433,
            59.998371580327095
          ],
          [
            0.0065739666461076,
            59.99842089043585
          ],
          [
            0.006573036433144367,
            59.998466945784806
          ],
          [
            0.006572390231348548,
            59.99851625572907
          ],
          [
            0.006572194193940421,
            59.998562311242516
          ],
          [
            0.006572573611104799,
            59.99861162102229
          ],
          [
            0.006573410997465736,
            59.998661211017534
          ],
          [
            0.006574396058744439,
            59.99871080101278
          ],
          [
            0.0065749635545861405,
            59.99876039100802
          ],
          [
            0.006574676658419093,
            59.9988064469327
          ],
          [
            0.00657342214761437,
            59.99885575630124
          ],
          [
            0.006571360892790686,
            59.99890534629648
          ],
          [
            0.006568500577474742,
            59.998954936291724
          ],
          [
            0.0065648178938638195,
            59.999008060028544
          ],
          [
            0.006560536192572683,
            59.999057930979475
          ],
          [
            0.006556062444117069,
            59.99910752097472
          ],
          [
            0.00655173857620794,
            59.99915711096996
          ],
          [
            0.006547864508960469,
            59.9992067009652
          ],
          [
            0.006544851182150615,
            59.999256290960446
          ],
          [
            0.006542919763625317,
            59.99930941420378
          ],
          [
            0.006542593029598507,
            59.9993592856482
          ],
          [
            0.006544291798991773,
            59.99941240872704
          ],
          [
            0.006548068800594169,
            59.99946228033595
          ],
          [
            0.006553532076946015,
            59.99951187033119
          ],
          [
            0.006560284538333769,
            59.99956499316329
          ],
          [
            0.006568366886431394,
            59.99961133226433
          ],
          [
            0.006577828248188443,
            59.99966064031692
          ],
          [
            0.0065885112519968834,
            59.99970669772204
          ],
          [
            0.006600038253048565,
            59.99975247310226
          ],
          [
            0.00661227922440717,
            59.99979471605686
          ],
          [
            0.006625168758999754,
            59.99983667682207
          ],
          [
            0.006638643203144148,
            59.99987863758727
          ],
          [
            0.006652396014307012,
            59.999917066173595
          ],
          [
            0.006666372884079372,
            59.99995521232378
          ],
          [
            0.00668070160760475,
            59.999993358473965
          ],
          [
            0.006695259807618964,
            60.000031504624154
          ],
          [
            0.006709940284980136,
            60.000066118924444
          ],
          [
            0.006724580536569349,
            60.00010045045961
          ],
          [
            0.006738900448945038,
            60.00013125030938
          ],
          [
            0.006752531542034422,
            60.00016176722953
          ],
          [
            0.006765091223058109,
            60.000192284149676
          ],
          [
            0.006776316118867392,
            60.000222801069825
          ],
          [
            0.006786166704145047,
            60.00024978663356
          ],
          [
            0.0067947150315543275,
            60.000276488938695
          ],
          [
            0.006802095467844903,
            60.00029966005191
          ],
          [
            0.006808304957740187,
            60.00032607885169
          ],
          [
            0.006813141998082375,
            60.000349250129396
          ],
          [
            0.00681635214030339,
            60.000372137819504
          ],
          [
            0.0068177300430060815,
            60.00039502550962
          ],
          [
            0.006817049124319473,
            60.000414382419045
          ],
          [
            0.006814211350359149,
            60.00043345549414
          ],
          [
            0.006809099013626091,
            60.000456059185424
          ],
          [
            0.006801640681271209,
            60.000475416341594
          ],
          [
            0.006791667560389863,
            60.00049448941668
          ],
          [
            0.006779175092459165,
            60.00051003212233
          ],
          [
            0.006764225596123687,
            60.000528820869604
          ],
          [
            0.006746954605955915,
            60.00054436373974
          ],
          [
            0.006727474336346431,
            60.00056315232253
          ],
          [
            0.006705478414155325,
            60.000578695357156
          ],
          [
            0.006681125052616644,
            60.000590423859016
          ],
          [
            0.006654884504130125,
            60.00060539758004
          ],
          [
            0.006627183015737426,
            60.0006171262464
          ],
          [
            0.0065981394760532535,
            60.00062857009145
          ],
          [
            0.0065677613738901516,
            60.000640013936504
          ],
          [
            0.006536125866696043,
            60.000647928234585
          ],
          [
            0.00650331673329276,
            60.00065908692935
          ],
          [
            0.006469492752201614,
            60.000667001391925
          ],
          [
            0.006434811002045918,
            60.0006781599222
          ],
          [
            0.0063994348279017566,
            60.000686074549265
          ],
          [
            0.0063633532260427015,
            60.000693703779305
          ],
          [
            0.0063267504176200305,
            60.00070133300934
          ],
          [
            0.006290134703308548,
            60.00071249121063
          ],
          [
            0.006253913445200844,
            60.00072393505568
          ],
          [
            0.006218334782842672,
            60.000735378900735
          ],
          [
            0.006184230521948572,
            60.000746822745796
          ],
          [
            0.006151825115395477,
            60.00076179523311
          ],
          [
            0.006120175179940242,
            60.00077705369319
          ],
          [
            0.0060891347332240765,
            60.00079584063103
          ],
          [
            0.0060588498338990365,
            60.00081491370612
          ],
          [
            0.006029468017448614,
            60.00083398678122
          ],
          [
            0.006001029541762466,
            60.00085305985631
          ],
          [
            0.005973673740315964,
            60.00087566108019
          ],
          [
            0.005947323442268073,
            60.000898548770294
          ],
          [
            0.005922076560532233,
            60.00092143646041
          ],
          [
            0.005898188393655717,
            60.00094785205256
          ],
          [
            0.00587574057220979,
            60.00097455435769
          ],
          [
            0.005855057630034151,
            60.001001256662825
          ],
          [
            0.005836320998478974,
            60.00102795896795
          ],
          [
            0.005819560543961439,
            60.00105466127308
          ],
          [
            0.005804789293903497,
            60.00108489106902
          ],
          [
            0.005792298843875193,
            60.00111188058061
          ],
          [
            0.005782139117674022,
            60.00114211021205
          ],
          [
            0.005774187388104625,
            60.0011726271322
          ],
          [
            0.00576835038661769,
            60.00120667121416
          ],
          [
            0.005764570968327484,
            60.00123747566976
          ],
          [
            0.0057629152060537205,
            60.001271519587235
          ],
          [
            0.005763518841572655,
            60.00130232420733
          ],
          [
            0.0057662336155129635,
            60.001336367960306
          ],
          [
            0.00577084681137698,
            60.001370699495475
          ],
          [
            0.005777426507296751,
            60.00140503103064
          ],
          [
            0.005786179338693962,
            60.00143936256581
          ],
          [
            0.005796833622974795,
            60.00147722060482
          ],
          [
            0.00580841837072477,
            60.00151184033341
          ],
          [
            0.00581947740547531,
            60.001549698207924
          ],
          [
            0.005828833109598891,
            60.00158431810101
          ],
          [
            0.00583612724528197,
            60.00162217581103
          ],
          [
            0.005841233041773588,
            60.00166032196122
          ],
          [
            0.0058443373542669584,
            60.00169846811141
          ],
          [
            0.005845429917571709,
            60.00173661426159
          ],
          [
            0.005844382475129878,
            60.00177476041178
          ],
          [
            0.005841115408630177,
            60.001812906561966
          ],
          [
            0.005835646283375382,
            60.00185105271215
          ],
          [
            0.005827903840347493,
            60.00188919886234
          ],
          [
            0.005817899298046864,
            60.001927345012525
          ],
          [
            0.005805482153813754,
            60.00196549116271
          ],
          [
            0.005790494925299882,
            60.002003637312896
          ],
          [
            0.005773039753959734,
            60.00203825819295
          ],
          [
            0.0057531186815907446,
            60.002076114916
          ],
          [
            0.005730568019972459,
            60.00211073596055
          ],
          [
            0.005705146319485579,
            60.00214506749572
          ],
          [
            0.005676733301067565,
            60.00217939903089
          ],
          [
            0.005645435506918537,
            60.002213730566055
          ],
          [
            0.005611360049736763,
            60.002248062101216
          ],
          [
            0.005574419871071824,
            60.00227886894198
          ],
          [
            0.005534502600924533,
            60.00230938586213
          ],
          [
            0.005491650407730138,
            60.002339902782275
          ],
          [
            0.005446069246846609,
            60.00237041970243
          ],
          [
            0.005397888443671238,
            60.00239741225715
          ],
          [
            0.005347206762211097,
            60.00242411456229
          ],
          [
            0.0052940186660756375,
            60.002450816867416
          ],
          [
            0.005238351054405382,
            60.00247399505387
          ],
          [
            0.005180344749544882,
            60.00249688274398
          ],
          [
            0.005120246042852398,
            60.00251977043409
          ],
          [
            0.005058393050174338,
            60.00253913425227
          ],
          [
            0.0049949239020035995,
            60.00255820732736
          ],
          [
            0.004930048271297961,
            60.00257375669501
          ],
          [
            0.004864023144274123,
            60.00258901515508
          ],
          [
            0.004796977622158186,
            60.00260075007221
          ],
          [
            0.0047289830932821485,
            60.002612193917265
          ],
          [
            0.004660169438652279,
            60.00262363776232
          ],
          [
            0.004590739215416584,
            60.002631558311165
          ],
          [
            0.004520990877471073,
            60.002639187541206
          ],
          [
            0.004451091001881145,
            60.00264329363953
          ],
          [
            0.004381115942891323,
            60.00264710825454
          ],
          [
            0.004310967395740438,
            60.002647399902344
          ],
          [
            0.004240583457958399,
            60.002647399902344
          ],
          [
            0.004169968745576727,
            60.002647399902344
          ],
          [
            0.004099147227496419,
            60.00264387718186
          ],
          [
            0.004028149207915036,
            60.00264006256685
          ],
          [
            0.003957041968448139,
            60.00263624795183
          ],
          [
            0.0038858373408340364,
            60.002628910863066
          ],
          [
            0.0038144917869571025,
            60.00262128163303
          ],
          [
            0.0037431108637104886,
            60.00261365240299
          ],
          [
            0.0036718536875488175,
            60.00260250094596
          ],
          [
            0.00360069681067298,
            60.0025910571009
          ],
          [
            0.0035295403015040113,
            60.00257961325585
          ],
          [
            0.0034582795901427653,
            60.00256816941079
          ],
          [
            0.0033868395918568803,
            60.00255320366772
          ],
          [
            0.0033151968927817594,
            60.00253794520765
          ],
          [
            0.003243368925598069,
            60.002522686747575
          ],
          [
            0.003171237538851811,
            60.0025074282875
          ],
          [
            0.0030986565039200402,
            60.00248864825841
          ],
          [
            0.0030254984195653032,
            60.00247309667009
          ],
          [
            0.002951748254052251,
            60.00245431680548
          ],
          [
            0.002877361715513695,
            60.00243524373039
          ],
          [
            0.0028022668087549895,
            60.002419691895334
          ],
          [
            0.002726389283505879,
            60.00240091227747
          ],
          [
            0.0026496499286792286,
            60.00238183920238
          ],
          [
            0.0025719510693777005,
            60.00236628712057
          ],
          [
            0.002493467737740721,
            60.002347507749455
          ],
          [
            0.0024140688237862824,
            60.00233195550316
          ],
          [
            0.002333723209466095,
            60.00231317629653
          ],
          [
            0.0022526983519655015,
            60.002297623885745
          ],
          [
            0.0021718106864666493,
            60.00228236542567
          ],
          [
            0.00209209387007631,
            60.0022671069656
          ],
          [
            0.0020140870133323534,
            60.00225184850552
          ],
          [
            0.0019379221947321828,
            60.00223659004545
          ],
          [
            0.0018635670735693746,
            60.00222485183844
          ],
          [
            0.0017909521159743124,
            60.00221340799339
          ],
          [
            0.0017199441678886476,
            60.002201964148334
          ],
          [
            0.0016503684133523724,
            60.002194040309604
          ],
          [
            0.0015821668614863981,
            60.002182891155485
          ],
          [
            0.0015151925137620306,
            60.002174967152264
          ],
          [
            0.001449250016562082,
            60.00217085768182
          ],
          [
            0.0013840216492585352,
            60.002163523389456
          ],
          [
            0.0013192263396481837,
            60.00215941375451
          ],
          [
            0.001254714198083288,
            60.002159118652344
          ],
          [
            0.001190405717745883,
            60.002155599221744
          ],
          [
            0.0011262463744188818,
            60.00215530395508
          ],
          [
            0.0010621223160611943,
            60.00215882322119
          ],
          [
            0.0009979248840184163,
            60.002159118652344
          ],
          [
            0.000933654162408637,
            60.00216615685557
          ],
          [
            0.0008694504685086898,
            60.00217026706624
          ],
          [
            0.000805491765028567,
            60.00217760061838
          ],
          [
            0.0007419053094745096,
            60.002185229848415
          ],
          [
            0.0006789306389298989,
            60.00219637785108
          ],
          [
            0.0006168346558268347,
            60.00220782169613
          ],
          [
            0.0005557631647462965,
            60.00222278414932
          ],
          [
            0.0004961835126319471,
            60.00223804260939
          ],
          [
            0.0004380229459718434,
            60.00225681951311
          ],
          [
            0.0003813483152511165,
            60.0022758925882
          ],
          [
            0.0003262846786389844,
            60.002294965663296
          ],
          [
            0.00027249649301728233,
            60.00231755693528
          ],
          [
            0.00021956143240214128,
            60.002340444625396
          ],
          [
            0.00016751878150683523,
            60.00236685034791
          ],
          [
            0.0001165043000337404,
            60.002390034702884
          ],
          [
            6.659407090532688e-05,
            60.0024164402609
          ],
          [
            1.8329744344200866e-05,
            60.00244314256604
          ],
          [
            -2.8483998407858637e-05,
            60.00247336257458
          ],
          [
            -7.382427550247362e-05,
            60.002503879494725
          ],
          [
            -0.0001177099129824995,
            60.00253087887596
          ],
          [
            -0.00016011015531863798,
            60.00256461609443
          ],
          [
            -0.00020088424349801079,
            60.00259543025518
          ],
          [
            -0.00024033665294675795,
            60.0026294644675
          ],
          [
            -0.00027877733443957626,
            60.00266379600267
          ],
          [
            -0.0003162055842471096,
            60.00269812753784
          ],
          [
            -0.0003525617079791206,
            60.00273245907301
          ],
          [
            -0.00038791727792274536,
            60.00276679060818
          ],
          [
            -0.0004224143961967666,
            60.00280463902428
          ],
          [
            -0.00045615144797090176,
            60.00283926837577
          ],
          [
            -0.0004892379877924507,
            60.002877116627396
          ],
          [
            -0.0005217117538041847,
            60.00291526277758
          ],
          [
            -0.0005538670841620534,
            60.002953408927766
          ],
          [
            -0.000585967377973656,
            60.002995071547666
          ],
          [
            -0.0006181201094594276,
            60.0030335159254
          ],
          [
            -0.0006504304881024369,
            60.00307166207559
          ],
          [
            -0.0006830041367252753,
            60.00311332444875
          ],
          [
            -0.000715984783802403,
            60.00315176907323
          ],
          [
            -0.000749517570044121,
            60.00319343128189
          ],
          [
            -0.0007836532191140746,
            60.00323187607087
          ],
          [
            -0.0008183672313712938,
            60.00327353811504
          ],
          [
            -0.0008536309011106572,
            60.00331198306851
          ],
          [
            -0.000889451217367744,
            60.00335364494818
          ],
          [
            -0.0009259277239160388,
            60.003395605713386
          ],
          [
            -0.0009631963805610451,
            60.00343756647859
          ],
          [
            -0.0010012976994996901,
            60.0034795272438
          ],
          [
            -0.0010401953682427545,
            60.0035179726085
          ],
          [
            -0.0010798326035860533,
            60.00355963407694
          ],
          [
            -0.0011198762656883835,
            60.003601594842145
          ],
          [
            -0.0011596968924794354,
            60.00364355560735
          ],
          [
            -0.0011988987006394268,
            60.003682001301044
          ],
          [
            -0.0012373580468232836,
            60.00372014745123
          ],
          [
            -0.0012749971725987614,
            60.003758293601415
          ],
          [
            -0.0013117856782837206,
            60.003792924926834
          ],
          [
            -0.0013477049602473215,
            60.003827256462
          ],
          [
            -0.0013828024123716132,
            60.00386158799717
          ],
          [
            -0.0014171290695865755,
            60.00389591953234
          ],
          [
            -0.0014506631912072018,
            60.00392673657172
          ],
          [
            -0.001483429607047166,
            60.003957253491876
          ],
          [
            -0.001515560503545576,
            60.003987770412024
          ],
          [
            -0.0015472917635755052,
            60.00401477308313
          ],
          [
            -0.0015788911860057223,
            60.00404147538826
          ],
          [
            -0.0016105579320482833,
            60.00406817769339
          ],
          [
            -0.0016424159531783623,
            60.004091365996224
          ],
          [
            -0.0016745601238496964,
            60.00411425368633
          ],
          [
            -0.001706998301061124,
            60.00413714137645
          ],
          [
            -0.001739772994293767,
            60.004156515310996
          ],
          [
            -0.001772968903401107,
            60.00417558838609
          ],
          [
            -0.0018065573704705196,
            60.00419114787012
          ],
          [
            -0.0018404332693715724,
            60.00420991983901
          ],
          [
            -0.001874549147656859,
            60.00422196606096
          ],
          [
            -0.0019089253834318018,
            60.004236923250346
          ],
          [
            -0.0019435523214558984,
            60.00424866844834
          ],
          [
            -0.001978437643890478,
            60.004260112293395
          ],
          [
            -0.0020136561786168825,
            60.00426804304087
          ],
          [
            -0.0020492236093524736,
            60.004279185286244
          ],
          [
            -0.002085142666346682,
            60.00428360326512
          ],
          [
            -0.002121385856718516,
            60.00429093073098
          ],
          [
            -0.002157845104791339,
            60.00429504719242
          ],
          [
            -0.002194351604347613,
            60.004295349121094
          ],
          [
            -0.0022307102541510274,
            60.004298861725196
          ],
          [
            -0.0022667337396471516,
            60.00429916381836
          ],
          [
            -0.0023022132797941098,
            60.004295651378754
          ],
          [
            -0.002336975478135409,
            60.004295349121094
          ],
          [
            -0.0023708278517641564,
            60.004288324570865
          ],
          [
            -0.0024036278765400968,
            60.00428420753369
          ],
          [
            -0.002435180258109236,
            60.00427688080806
          ],
          [
            -0.0024653537980879854,
            60.00426925157802
          ],
          [
            -0.0024941115547907327,
            60.00426162234798
          ],
          [
            -0.002521619678064283,
            60.00425399311795
          ],
          [
            -0.002547878541453687,
            60.00424285210628
          ],
          [
            -0.002572795189092819,
            60.00423140826122
          ],
          [
            -0.0025964118637623883,
            60.004219964416166
          ],
          [
            -0.002618950433759115,
            60.00420500903622
          ],
          [
            -0.002640769584797185,
            60.004193262028785
          ],
          [
            -0.0026620821109526647,
            60.00417830681334
          ],
          [
            -0.0026830377962885356,
            60.00416304835326
          ],
          [
            -0.0027037343600833873,
            60.00414778989319
          ],
          [
            -0.002724269465939601,
            60.004129020309456
          ],
          [
            -0.002744773059465093,
            60.004113458275775
          ],
          [
            -0.0027653154865877687,
            60.00409468885653
          ],
          [
            -0.0027859117740029523,
            60.004075615781446
          ],
          [
            -0.0028066782722046876,
            60.00405654270635
          ],
          [
            -0.002827768539064095,
            60.00403395891883
          ],
          [
            -0.0028492432100440685,
            60.0040145818589
          ],
          [
            -0.00287126137353788,
            60.003991998235875
          ],
          [
            -0.002894087344508557,
            60.00396911054577
          ],
          [
            -0.002917854268827028,
            60.00394622285565
          ],
          [
            -0.0029425555165351956,
            60.00392333516554
          ],
          [
            -0.002968190533389592,
            60.00390044747543
          ],
          [
            -0.0029947311137757003,
            60.003877559785316
          ],
          [
            -0.003022175233757171,
            60.00385467209521
          ],
          [
            -0.0030505359986355307,
            60.0038282744329
          ],
          [
            -0.003079591746584997,
            60.00380157212776
          ],
          [
            -0.0031095613544142417,
            60.00377837963034
          ],
          [
            -0.0031404243745516815,
            60.00375198221477
          ],
          [
            -0.0031721386769447244,
            60.00372527990964
          ],
          [
            -0.0032046081605180124,
            60.00369857760451
          ],
          [
            -0.0032374008604783852,
            60.00367538477809
          ],
          [
            -0.0032703715463210407,
            60.00364898769151
          ],
          [
            -0.0033034840203380648,
            60.003622285386385
          ],
          [
            -0.0033366809079606176,
            60.00359558308125
          ],
          [
            -0.0033699614896781672,
            60.00356888077612
          ],
          [
            -0.0034033725959302964,
            60.00354568753847
          ],
          [
            -0.0034371420816691847,
            60.003519290863125
          ],
          [
            -0.003471568708288412,
            60.003492588558
          ],
          [
            -0.003506717277323604,
            60.00346588625287
          ],
          [
            -0.0035425953843316333,
            60.00344269268623
          ],
          [
            -0.0035791956744826796,
            60.00341278768362
          ],
          [
            -0.0036165161908065244,
            60.00338577933748
          ],
          [
            -0.00365451185157579,
            60.00335907703234
          ],
          [
            -0.0036931843016900934,
            60.003332374727215
          ],
          [
            -0.003732531457364988,
            60.003302164094826
          ],
          [
            -0.003772537034857793,
            60.003275155419686
          ],
          [
            -0.003813183144757102,
            60.003244944951796
          ],
          [
            -0.0038544340886148675,
            60.00321793611216
          ],
          [
            -0.0038962950099598027,
            60.00318772580876
          ],
          [
            -0.003938714163728645,
            60.00315720888861
          ],
          [
            -0.003981617167907703,
            60.00312669196846
          ],
          [
            -0.004025136226086706,
            60.00309968279984
          ],
          [
            -0.004069249179671736,
            60.00306947282543
          ],
          [
            -0.004113939758609469,
            60.00303895590528
          ],
          [
            -0.004159190103036016,
            60.003008438985134
          ],
          [
            -0.00420499917942252,
            60.00297441464244
          ],
          [
            -0.004251337483451319,
            60.002943590447565
          ],
          [
            -0.004298162183269678,
            60.00291307352742
          ],
          [
            -0.004345415381520383,
            60.00287904943147
          ],
          [
            -0.004393071763893576,
            60.002848224989854
          ],
          [
            -0.0044411483654741265,
            60.0028142010584
          ],
          [
            -0.00448963271095511,
            60.00278337645229
          ],
          [
            -0.004538507722180404,
            60.00274935268533
          ],
          [
            -0.004587797265694114,
            60.00271502115016
          ],
          [
            -0.004637513403510037,
            60.00268068961499
          ],
          [
            -0.004687658284109754,
            60.002649864679896
          ],
          [
            -0.0047381823674212675,
            60.00261584124192
          ],
          [
            -0.004789025219753813,
            60.00258150970676
          ],
          [
            -0.004840145532420248,
            60.00254367181826
          ],
          [
            -0.0048915490960016045,
            60.002509031939155
          ],
          [
            -0.004943249540766588,
            60.00247470040399
          ],
          [
            -0.004995143565971702,
            60.00244036886882
          ],
          [
            -0.005047198446113178,
            60.00240253130931
          ],
          [
            -0.005099469458080365,
            60.002367891101215
          ],
          [
            -0.005151912434059233,
            60.00233355956605
          ],
          [
            -0.005204434454939798,
            60.00229572225328
          ],
          [
            -0.005256926724771767,
            60.00225757610309
          ],
          [
            -0.0053093195801406454,
            60.00222293556602
          ],
          [
            -0.005361534919625798,
            60.002185098499986
          ],
          [
            -0.0054134456598733845,
            60.0021469523498
          ]
        ]
      }
    }
  ]
}