{
  "type": "FeatureCollection",
  "features": [
    {
      "type": "Feature",
      "properties": {
        "source_file": "Autodromo Enzo e Dino Ferrari_P_2026-08-13T23_25_02Z.duckdb",
        "track_name": "Autodromo Enzo e Dino Ferrari",
        "track_layout": "Autodromo Enzo e Dino Ferrari",
        "lap": 2
      },
      "geometry": {
        "type": "LineString",
        "coordinates": [
          [
            3.4629441075023832e-06,
            60.00007498888505
          ],
          [
            -0.0001282547954303661,
            60.00007880296961
          ],
          [
            -0.00026011574888531346,
            60.00008512546577
          ],
          [
            -0.0003920904558361599,
            60.000092753634895
          ],
          [
            -0.0005241681763230585,
            60.00010038180402
          ],
          [
            -0.0006563690762669238,
            60.00010800997314
          ],
          [
            -0.0007886528928274053,
            60.00011814410304
          ],
          [
            -0.0009210388378701647,
            60.00012708100865
          ],
          [
            -0.0010535474066530946,
            60.00013721391314
          ],
          [
            -0.0011861654343812997,
            60.00014865616683
          ],
          [
            -0.0013189019131289589,
            60.00015759491055
          ],
          [
            -0.0014517928106306005,
            60.00016772597693
          ],
          [
            -0.0015848476125284556,
            60.000179168230616
          ],
          [
            -0.0017180854325132648,
            60.000190610484296
          ],
          [
            -0.0018514870368515305,
            60.00020205273798
          ],
          [
            -0.001985033882934927,
            60.000215995438104
          ],
          [
            -0.0021187001234952967,
            60.000228751942615
          ],
          [
            -0.002252560026665112,
            60.0002401941963
          ],
          [
            -0.0023866280199977535,
            60.00025163644998
          ],
          [
            -0.002520946423098906,
            60.00026307870367
          ],
          [
            -0.0026555419600351486,
            60.000274520957355
          ],
          [
            -0.002790418782042928,
            60.000285963211034
          ],
          [
            -0.0029255712756074597,
            60.00029740546472
          ],
          [
            -0.0030609622536812825,
            60.0003088477184
          ],
          [
            -0.003196598185747446,
            60.00031779503998
          ],
          [
            -0.0033325218417781786,
            60.0003279175285
          ],
          [
            -0.003468749244193977,
            60.00033686607549
          ],
          [
            -0.0036052134397870036,
            60.000344494244615
          ],
          [
            -0.00374186558184034,
            60.00035212241374
          ],
          [
            -0.003878711807157668,
            60.00035975058287
          ],
          [
            -0.004015781941658822,
            60.00036737875199
          ],
          [
            -0.004153118189917965,
            60.00037500692111
          ],
          [
            -0.00429067179504417,
            60.00038263509023
          ],
          [
            -0.004428417462789185,
            60.000390263259355
          ],
          [
            -0.004566328749635011,
            60.00039540262342
          ],
          [
            -0.00470446128901691,
            60.000401704900334
          ],
          [
            -0.004842812893538276,
            60.000406845489806
          ],
          [
            -0.004981346695779295,
            60.00041314654131
          ],
          [
            -0.005120072506489063,
            60.000418288356194
          ],
          [
            -0.005258987442920293,
            60.00042210244076
          ],
          [
            -0.005398084859938479,
            60.000425916525316
          ],
          [
            -0.005537382348111856,
            60.00042973060988
          ],
          [
            -0.005676882342700737,
            60.00043354469444
          ],
          [
            -0.00581660081463104,
            60.000437358779
          ],
          [
            -0.00595653771117346,
            60.00043869018555
          ],
          [
            -0.006096657653887638,
            60.00043869018555
          ],
          [
            -0.006236919876543505,
            60.00043869018555
          ],
          [
            -0.006377337695587926,
            60.000436209345644
          ],
          [
            -0.0065178781955144635,
            60.00043487548828
          ],
          [
            -0.006658483902530912,
            60.00043239587379
          ],
          [
            -0.00679916539760484,
            60.00042858178923
          ],
          [
            -0.006939923750724941,
            60.000424767704665
          ],
          [
            -0.007080780199067443,
            60.00042095362011
          ],
          [
            -0.00722171485285229,
            60.00041466237187
          ],
          [
            -0.00736273311400455,
            60.00040951075372
          ],
          [
            -0.0075038312762315115,
            60.00040322073089
          ],
          [
            -0.007645014095770257,
            60.000395592561766
          ],
          [
            -0.007786270357109514,
            60.000387964392644
          ],
          [
            -0.007927577243444763,
            60.00038033622352
          ],
          [
            -0.008068933322788775,
            60.0003727080544
          ],
          [
            -0.008210359047589775,
            60.00036507988528
          ],
          [
            -0.008351854252106394,
            60.000357451716155
          ],
          [
            -0.008493417317817742,
            60.00034982354703
          ],
          [
            -0.008635087010390534,
            60.00033972434127
          ],
          [
            -0.008776854974996437,
            60.000330752511516
          ],
          [
            -0.008918725096085454,
            60.00032065453117
          ],
          [
            -0.0090607060625111,
            60.000311681476006
          ],
          [
            -0.009202758318044808,
            60.000304053306884
          ],
          [
            -0.009344840362737493,
            60.00029395716465
          ],
          [
            -0.009486886813436025,
            60.000284982271374
          ],
          [
            -0.009628838583063548,
            60.00027488735455
          ],
          [
            -0.009770625373369604,
            60.00026344510087
          ],
          [
            -0.009911984631266977,
            60.00024953732489
          ],
          [
            -0.010051416328617871,
            60.00023674589623
          ],
          [
            -0.010187026365174557,
            60.00022283934567
          ],
          [
            -0.010317885152812498,
            60.0002100466916
          ],
          [
            -0.010443844314912343,
            60.00019614136644
          ],
          [
            -0.010565013539014914,
            60.00018334748697
          ],
          [
            -0.0106815371325511,
            60.00017190523328
          ],
          [
            -0.010793517742496246,
            60.000158001746236
          ],
          [
            -0.010901004575322185,
            60.00014520602865
          ],
          [
            -0.011004090811004223,
            60.00013130376701
          ],
          [
            -0.01110283793104284,
            60.000118506824016
          ],
          [
            -0.01119730948750858,
            60.00010706457033
          ],
          [
            -0.011287643602300381,
            60.00009562231665
          ],
          [
            -0.011373959833542517,
            60.000081722505826
          ],
          [
            -0.01145636746429516,
            60.00006892311202
          ],
          [
            -0.011534906156095426,
            60.00005748085833
          ],
          [
            -0.01160963873447443,
            60.000043582885624
          ],
          [
            -0.011680730136570281,
            60.0000307816537
          ],
          [
            -0.01174847011888503,
            60.0000168849064
          ],
          [
            -0.011813083092912161,
            60.00000408244907
          ],
          [
            -0.011874706741067007,
            59.99999018692718
          ],
          [
            -0.01193358675659619,
            59.999972477933426
          ],
          [
            -0.011989918579022825,
            59.99995585955342
          ],
          [
            -0.012043699066591754,
            59.99993815178508
          ],
          [
            -0.01209481744950718,
            59.99991908136227
          ],
          [
            -0.012143193388257829,
            59.99989756073479
          ],
          [
            -0.012188791764383734,
            59.999877125819395
          ],
          [
            -0.012231738113915171,
            59.99985560641731
          ],
          [
            -0.012272121138820462,
            59.999830273543374
          ],
          [
            -0.012309750700157085,
            59.999806022705314
          ],
          [
            -0.012344750632563945,
            59.999780691056785
          ],
          [
            -0.012377374144040658,
            59.99975399246485
          ],
          [
            -0.012407703980040001,
            59.99972729387292
          ],
          [
            -0.012435788152439647,
            59.999698149977945
          ],
          [
            -0.012461758861028046,
            59.9996700819918
          ],
          [
            -0.012485796337067083,
            59.999640939322234
          ],
          [
            -0.012508079262406659,
            59.999610426645745
          ],
          [
            -0.012529207874146913,
            59.99957747111702
          ],
          [
            -0.0125506886894675,
            59.999545586595495
          ],
          [
            -0.012574077533588541,
            59.99951507391901
          ],
          [
            -0.012600258169854292,
            59.99948212022839
          ],
          [
            -0.012629560554813547,
            59.99945023386876
          ],
          [
            -0.012661748022736171,
            59.99941972119227
          ],
          [
            -0.012696721295174246,
            59.99938920851578
          ],
          [
            -0.012735062253975896,
            59.99936113440259
          ],
          [
            -0.012776660984379037,
            59.99933199786006
          ],
          [
            -0.01282133273223888,
            59.99930392252147
          ],
          [
            -0.012869228269196406,
            59.99927722392954
          ],
          [
            -0.012920183692351258,
            59.99925052533761
          ],
          [
            -0.012973986317903544,
            59.99922626224546
          ],
          [
            -0.013030570775863998,
            59.99920094285102
          ],
          [
            -0.013089870094775522,
            59.99917667853346
          ],
          [
            -0.013151788454319727,
            59.999156227687756
          ],
          [
            -0.013216195619819791,
            59.999137157264954
          ],
          [
            -0.013282929072943407,
            59.999118086842145
          ],
          [
            -0.0133519338994651,
            59.999099016419336
          ],
          [
            -0.013423198714691983,
            59.99908237720738
          ],
          [
            -0.013496372941642059,
            59.999067120869135
          ],
          [
            -0.013570963704843095,
            59.99905186453089
          ],
          [
            -0.013646607161875067,
            59.99903417881991
          ],
          [
            -0.0137229520732395,
            59.99901753715714
          ],
          [
            -0.013799691048486384,
            59.99899985267157
          ],
          [
            -0.01387653262777762,
            59.99898078224876
          ],
          [
            -0.013953228957994163,
            59.99896171182595
          ],
          [
            -0.014029570338530197,
            59.99894021509393
          ],
          [
            -0.014105297408613871,
            59.998917330586565
          ],
          [
            -0.01417998863677918,
            59.99889444607919
          ],
          [
            -0.01425309070477838,
            59.998869137100726
          ],
          [
            -0.014324284386017832,
            59.998842438508795
          ],
          [
            -0.014393903558443768,
            59.998813316671175
          ],
          [
            -0.014462062822450786,
            59.998782803994686
          ],
          [
            -0.014528440188441811,
            59.99875229131819
          ],
          [
            -0.014592775221766862,
            59.99871935723412
          ],
          [
            -0.014655080181000531,
            59.99868503047307
          ],
          [
            -0.01471524682420123,
            59.998648283529846
          ],
          [
            -0.014773215154060836,
            59.998610142684235
          ],
          [
            -0.014829058449929591,
            59.998572001838625
          ],
          [
            -0.014882906564441639,
            59.998531442648954
          ],
          [
            -0.014934781121752417,
            59.99848948771878
          ],
          [
            -0.014984600985805095,
            59.9984475327886
          ],
          [
            -0.015032297074184454,
            59.99840557785843
          ],
          [
            -0.015077938419344005,
            59.99836120703502
          ],
          [
            -0.015121554384421507,
            59.99831543802028
          ],
          [
            -0.015163270286603013,
            59.998269669005545
          ],
          [
            -0.015203285090555893,
            59.99822389999081
          ],
          [
            -0.015241786832791067,
            59.99817571753365
          ],
          [
            -0.015279008319120966,
            59.99812613443435
          ],
          [
            -0.015315277825046535,
            59.99807896355207
          ],
          [
            -0.01535098222848729,
            59.99803078293303
          ],
          [
            -0.01538638304111241,
            59.99798119983373
          ],
          [
            -0.015421583859020774,
            59.997931616734434
          ],
          [
            -0.01545665533946923,
            59.99787962386894
          ],
          [
            -0.015491741551149135,
            59.99782863583857
          ],
          [
            -0.015527047878212056,
            59.997779052739276
          ],
          [
            -0.015562749573397873,
            59.9977270617119
          ],
          [
            -0.015598928919190663,
            59.997676071843415
          ],
          [
            -0.01563560405768242,
            59.99762408204145
          ],
          [
            -0.015672788698581623,
            59.997570684857585
          ],
          [
            -0.015710410775381614,
            59.997519693151
          ],
          [
            -0.015748422707760425,
            59.997467705187134
          ],
          [
            -0.015786951768591666,
            59.99741430800328
          ],
          [
            -0.01582611403812455,
            59.997360910819424
          ],
          [
            -0.01586578811443755,
            59.99730751363556
          ],
          [
            -0.015905927310237312,
            59.99725411645171
          ],
          [
            -0.01594659189044129,
            59.997200719267845
          ],
          [
            -0.015987857845347106,
            59.99714732208399
          ],
          [
            -0.016029815503970216,
            59.997093924900135
          ],
          [
            -0.016072538032124953,
            59.99703812775335
          ],
          [
            -0.016115886531112067,
            59.99698331583515
          ],
          [
            -0.016159046560686265,
            59.99692991865129
          ],
          [
            -0.01620098507798276,
            59.996876521467435
          ],
          [
            -0.016241239699443223,
            59.99682072677147
          ],
          [
            -0.01628032423031701,
            59.99676351550305
          ],
          [
            -0.01631914459825894,
            59.99670870052133
          ],
          [
            -0.016357979575370135,
            59.996652907663474
          ],
          [
            -0.016396959656906348,
            59.996595696395055
          ],
          [
            -0.0164362040186499,
            59.996538485126635
          ],
          [
            -0.016475767904513806,
            59.996481273858215
          ],
          [
            -0.01651588661091775,
            59.996424062589796
          ],
          [
            -0.016556762070016624,
            59.996366851321376
          ],
          [
            -0.016598338458101887,
            59.99630964005296
          ],
          [
            -0.01664051685722799,
            59.99625242878454
          ],
          [
            -0.0166830794022344,
            59.996195217516124
          ],
          [
            -0.01672581671636912,
            59.996138006247705
          ],
          [
            -0.016768668534415485,
            59.996080794979285
          ],
          [
            -0.016811633241741925,
            59.996023583710866
          ],
          [
            -0.016854718530959278,
            59.9959639841209
          ],
          [
            -0.016897893601108827,
            59.99590534647676
          ],
          [
            -0.01694107812270165,
            59.99584813520834
          ],
          [
            -0.016983955744336837,
            59.99578853745649
          ],
          [
            -0.017025838964766823,
            59.995729897974236
          ],
          [
            -0.017066167649557804,
            59.99567507196384
          ],
          [
            -0.017104709890712656,
            59.99562167477998
          ],
          [
            -0.017141238049718593,
            59.99556827759613
          ],
          [
            -0.017175448658719672,
            59.99551726383218
          ],
          [
            -0.017206857214274025,
            59.99546768073288
          ],
          [
            -0.01723491216130457,
            59.99541809763358
          ],
          [
            -0.017259278265867647,
            59.99536851453429
          ],
          [
            -0.017279862099824673,
            59.995318931434994
          ],
          [
            -0.017296404453036953,
            59.9952693483357
          ],
          [
            -0.017308939394319395,
            59.99522214498008
          ],
          [
            -0.017317484837196532,
            59.99517399683437
          ],
          [
            -0.017321855138533758,
            59.995126792253345
          ],
          [
            -0.017322130432759895,
            59.99507864533304
          ],
          [
            -0.01731841417596132,
            59.99502906223374
          ],
          [
            -0.017311084954205087,
            59.99498185581461
          ],
          [
            -0.017300274693986012,
            59.994936086799875
          ],
          [
            -0.017286131845370124,
            59.99489031778514
          ],
          [
            -0.01726948224256994,
            59.9948445487704
          ],
          [
            -0.017250967658984376,
            59.994801153985016
          ],
          [
            -0.017230982601120857,
            59.99476157267148
          ],
          [
            -0.017210019207291767,
            59.99472105882193
          ],
          [
            -0.01718888865527121,
            59.99468147628299
          ],
          [
            -0.0171687393061819,
            59.994643335437374
          ],
          [
            -0.0171507944673338,
            59.99460756575759
          ],
          [
            -0.01713584732489258,
            59.99457086844342
          ],
          [
            -0.017124211679518202,
            59.99453509753822
          ],
          [
            -0.0171160625354882,
            59.994500770777165
          ],
          [
            -0.017111452297572917,
            59.99446644401612
          ],
          [
            -0.017110314685402576,
            59.994432117255066
          ],
          [
            -0.017112735791716436,
            59.99440015798361
          ],
          [
            -0.01711876548161336,
            59.994367278430225
          ],
          [
            -0.017128265293783557,
            59.99433531793336
          ],
          [
            -0.017141211596926408,
            59.99430243960539
          ],
          [
            -0.017157528806720716,
            59.99427047788312
          ],
          [
            -0.01717720772033522,
            59.994239965206624
          ],
          [
            -0.017200346488638444,
            59.99421181634351
          ],
          [
            -0.01722683980456654,
            59.99418275455091
          ],
          [
            -0.017256599150590874,
            59.994152241874424
          ],
          [
            -0.017289572627841,
            59.99412409117319
          ],
          [
            -0.017325586522966764,
            59.99409739258126
          ],
          [
            -0.01736452711199809,
            59.99406833323948
          ],
          [
            -0.01740636079402509,
            59.994042540837285
          ],
          [
            -0.017451076924506495,
            59.994017296805474
          ],
          [
            -0.017498631734572143,
            59.99399059821354
          ],
          [
            -0.017548978659589105,
            59.99396389962162
          ],
          [
            -0.01760196286994681,
            59.993939558716015
          ],
          [
            -0.017656965650632416,
            59.99391667420865
          ],
          [
            -0.017713264508637777,
            59.993891433240364
          ],
          [
            -0.01777060276960643,
            59.99386709049665
          ],
          [
            -0.01782894615410628,
            59.99384185075377
          ],
          [
            -0.017888256440814546,
            59.993815152161844
          ],
          [
            -0.01794850285420205,
            59.99379080758001
          ],
          [
            -0.018009640231257073,
            59.99376556967525
          ],
          [
            -0.018071632249501614,
            59.993738871083316
          ],
          [
            -0.01813447308256011,
            59.99371217249139
          ],
          [
            -0.01819817979789859,
            59.99368312234018
          ],
          [
            -0.018262760527312294,
            59.993654960610264
          ],
          [
            -0.018328205375685948,
            59.99362826201834
          ],
          [
            -0.018394496007064075,
            59.99359921370524
          ],
          [
            -0.018461580972530967,
            59.99357105013721
          ],
          [
            -0.018529228983974105,
            59.99354200304952
          ],
          [
            -0.018597477799897153,
            59.99351383825609
          ],
          [
            -0.01866646026884328,
            59.99348479239381
          ],
          [
            -0.018736176671435782,
            59.99345427971732
          ],
          [
            -0.018806628149015948,
            59.99342376704083
          ],
          [
            -0.01887786953772548,
            59.993393254364335
          ],
          [
            -0.018949958850314575,
            59.99336508650738
          ],
          [
            -0.019022886543494304,
            59.993336043708624
          ],
          [
            -0.019096610223987565,
            59.993305531032135
          ],
          [
            -0.019171108381922625,
            59.99327267537422
          ],
          [
            -0.019246360271214166,
            59.993240690981885
          ],
          [
            -0.019322331105034278,
            59.9932101783054
          ],
          [
            -0.019398989788637452,
            59.99317966562891
          ],
          [
            -0.019476266829742735,
            59.99314915295241
          ],
          [
            -0.019553946593517238,
            59.993116300358025
          ],
          [
            -0.019631787763601572,
            59.99308431290217
          ],
          [
            -0.019709108341419448,
            59.993051461533184
          ],
          [
            -0.01978448609119343,
            59.99301947285192
          ],
          [
            -0.01985684026528118,
            59.99298896017543
          ],
          [
            -0.019925795803657283,
            59.99296078435332
          ],
          [
            -0.01999132071465847,
            59.99293174951972
          ],
          [
            -0.020053522472849913,
            59.9929035724722
          ],
          [
            -0.020112472719166156,
            59.99287687388027
          ],
          [
            -0.02016818186419595,
            59.99285017528834
          ],
          [
            -0.02022055232430094,
            59.99282581048727
          ],
          [
            -0.02026952496543408,
            59.99280059280175
          ],
          [
            -0.020315085287922977,
            59.99277389420982
          ],
          [
            -0.02035722430703286,
            59.99274952757064
          ],
          [
            -0.020395934777714297,
            59.99272664306327
          ],
          [
            -0.020431216186288848,
            59.992701427828564
          ],
          [
            -0.020463090770513812,
            59.992677059351266
          ],
          [
            -0.02049148439705237,
            59.992651845341975
          ],
          [
            -0.02051632948802564,
            59.99262747563927
          ],
          [
            -0.020537629438138767,
            59.99260226285538
          ],
          [
            -0.020555393772431305,
            59.99257789192727
          ],
          [
            -0.02056965007576248,
            59.992555007419895
          ],
          [
            -0.02058033893226505,
            59.99252979647412
          ],
          [
            -0.02058749459683895,
            59.9925054237079
          ],
          [
            -0.020591213239534584,
            59.992480213987534
          ],
          [
            -0.020591581497584322,
            59.9924558399959
          ],
          [
            -0.020588727955132904,
            59.99243295548853
          ],
          [
            -0.02058275730803566,
            59.992412394356045
          ],
          [
            -0.020573796925200474,
            59.99239100117106
          ],
          [
            -0.020562000113751505,
            59.99237043881317
          ],
          [
            -0.020547464803169962,
            59.99234904685359
          ],
          [
            -0.02053016322699919,
            59.99232848327029
          ],
          [
            -0.020510141572915322,
            59.99231173315884
          ],
          [
            -0.020487488983716568,
            59.99229415712194
          ],
          [
            -0.020462377868961306,
            59.99227740578509
          ],
          [
            -0.02043489476027421,
            59.992262149446844
          ],
          [
            -0.02040508814267347,
            59.9922468931086
          ],
          [
            -0.020373066615012928,
            59.9922339540182
          ],
          [
            -0.020338981732465206,
            59.99222251176451
          ],
          [
            -0.020302996859720295,
            59.99221106951083
          ],
          [
            -0.02026524876447505,
            59.99219962725714
          ],
          [
            -0.02022589196968874,
            59.992190499800486
          ],
          [
            -0.020185043851025528,
            59.99218518581568
          ],
          [
            -0.020142774296570836,
            59.99217905815951
          ],
          [
            -0.02009916128761229,
            59.99217374294929
          ],
          [
            -0.020054256195879208,
            59.99216992886473
          ],
          [
            -0.020007945850570506,
            59.99216842651367
          ],
          [
            -0.01996009316806372,
            59.99216611539288
          ],
          [
            -0.01991069418702176,
            59.992164611816406
          ],
          [
            -0.019859804026004645,
            59.992164611816406
          ],
          [
            -0.019807439072161127,
            59.99216692109909
          ],
          [
            -0.019753602416835853,
            59.99216842651367
          ],
          [
            -0.019698310865420194,
            59.99217073457095
          ],
          [
            -0.01964158377045609,
            59.99217454865551
          ],
          [
            -0.01958344763409914,
            59.99217836274007
          ],
          [
            -0.01952391946697269,
            59.992182176824635
          ],
          [
            -0.019462992080869934,
            59.99218829651565
          ],
          [
            -0.01940065547297364,
            59.99219361969102
          ],
          [
            -0.01933692543657596,
            59.99219973815663
          ],
          [
            -0.019271823885430854,
            59.99220506255741
          ],
          [
            -0.019205530640485788,
            59.99221117979761
          ],
          [
            -0.019138240219215598,
            59.99221880796673
          ],
          [
            -0.019069902333193115,
            59.99222643613586
          ],
          [
            -0.0190004457100637,
            59.99223176298745
          ],
          [
            -0.018929855777456282,
            59.99223787777684
          ],
          [
            -0.01885813114870852,
            59.99224550594596
          ],
          [
            -0.018785276257549968,
            59.99225313411508
          ],
          [
            -0.01871129222647424,
            59.992260762284204
          ],
          [
            -0.018636174184062847,
            59.992268390453326
          ],
          [
            -0.018559929650005216,
            59.99227601862245
          ],
          [
            -0.018482577241777695,
            59.99228364679157
          ],
          [
            -0.018404129970372364,
            59.99229127496069
          ],
          [
            -0.01832460499151111,
            59.992298903129814
          ],
          [
            -0.018244016801276037,
            59.99230653129894
          ],
          [
            -0.01816237134720744,
            59.99231415946806
          ],
          [
            -0.018079680193501604,
            59.99232178763718
          ],
          [
            -0.017995986971110222,
            59.9923294158063
          ],
          [
            -0.01791154679151506,
            59.992337043975425
          ],
          [
            -0.01782632011613861,
            59.99234467214455
          ],
          [
            -0.017740171343456707,
            59.99235230031368
          ],
          [
            -0.017653085204027426,
            59.9923599284828
          ],
          [
            -0.017565068426529086,
            59.99236755665192
          ],
          [
            -0.017476137761903803,
            59.99237518482104
          ],
          [
            -0.017386302889264578,
            59.9923851020536
          ],
          [
            -0.017295571255601994,
            59.99239425585655
          ],
          [
            -0.01720395924477402,
            59.992401884025675
          ],
          [
            -0.017111482496896598,
            59.9924095121948
          ],
          [
            -0.01701814883292545,
            59.99241714036392
          ],
          [
            -0.01692396383810338,
            59.99242476853304
          ],
          [
            -0.016828934213585105,
            59.99243468208938
          ],
          [
            -0.016733074100036514,
            59.99244383956855
          ],
          [
            -0.016636403230247176,
            59.99245146773767
          ],
          [
            -0.016538927588256456,
            59.992459095906796
          ],
          [
            -0.01644066463015467,
            59.99246672407592
          ],
          [
            -0.01634182654102194,
            59.99247435224504
          ],
          [
            -0.016242367774008802,
            59.99248426212515
          ],
          [
            -0.016142193530170115,
            59.99249342328056
          ],
          [
            -0.016041334380999743,
            59.99250105144968
          ],
          [
            -0.01593981823356509,
            59.9925086796188
          ],
          [
            -0.015837655592095847,
            59.99251630778792
          ],
          [
            -0.01573485608454681,
            59.99252621460451
          ],
          [
            -0.015631447783128277,
            59.99253537882343
          ],
          [
            -0.01552744455775561,
            59.992543006992555
          ],
          [
            -0.015422857525661792,
            59.99255063516168
          ],
          [
            -0.015317695857217987,
            59.992560539527446
          ],
          [
            -0.015211953456045991,
            59.99256970619719
          ],
          [
            -0.015105617109960163,
            59.99257733436631
          ],
          [
            -0.014998672855853405,
            59.99258723689397
          ],
          [
            -0.014891112281755636,
            59.99259640540182
          ],
          [
            -0.014782927958477184,
            59.99260403357094
          ],
          [
            -0.014674120563941925,
            59.992611661740064
          ],
          [
            -0.014564669257226735,
            59.992619289909186
          ],
          [
            -0.014454533456242263,
            59.99262691807831
          ],
          [
            -0.014343687170416982,
            59.99263227556512
          ],
          [
            -0.014232275851813955,
            59.992638359719294
          ],
          [
            -0.014120357866206634,
            59.99264371843151
          ],
          [
            -0.014007877753829098,
            59.992645263671875
          ],
          [
            -0.013894857862384476,
            59.992647531903366
          ],
          [
            -0.013781336049402368,
            59.99264907836914
          ],
          [
            -0.013667342555193071,
            59.99264907836914
          ],
          [
            -0.013552915545583131,
            59.99264681197576
          ],
          [
            -0.013438075484987325,
            59.992645263671875
          ],
          [
            -0.013322847894875476,
            59.992642998503904
          ],
          [
            -0.013207256741321522,
            59.99263918441934
          ],
          [
            -0.013091304758458891,
            59.99263537033478
          ],
          [
            -0.01297498967646934,
            59.99262929292036
          ],
          [
            -0.01285828276945128,
            59.992623927468394
          ],
          [
            -0.012741145020583567,
            59.992617851279384
          ],
          [
            -0.012623574215992951,
            59.992612484602006
          ],
          [
            -0.012505623195445976,
            59.992606409638405
          ],
          [
            -0.012387344562213715,
            59.992598781469276
          ],
          [
            -0.012268765793602874,
            59.992591153300154
          ],
          [
            -0.012149893408572438,
            59.992581266090106
          ],
          [
            -0.012030758420193887,
            59.992572082264644
          ],
          [
            -0.011911374959410104,
            59.992562196280005
          ],
          [
            -0.011792244318151094,
            59.99255075402632
          ],
          [
            -0.011674967751360465,
            59.99253931177264
          ],
          [
            -0.011560957965288764,
            59.99253012549636
          ],
          [
            -0.011450635914448738,
            59.99252024196254
          ],
          [
            -0.011343913808000648,
            59.99250879970885
          ],
          [
            -0.011240581092848019,
            59.99249961159446
          ],
          [
            -0.011140425235076065,
            59.99249198342534
          ],
          [
            -0.011043326654272507,
            59.99248435525622
          ],
          [
            -0.010949103532665929,
            59.992476727087094
          ],
          [
            -0.010857439233894211,
            59.99246909891797
          ],
          [
            -0.01076798941347711,
            59.99246372182462
          ],
          [
            -0.010680442872803328,
            59.992459907740056
          ],
          [
            -0.010594528571723775,
            59.9924560936555
          ],
          [
            -0.010509944560381401,
            59.992452279570934
          ],
          [
            -0.010426392171734121,
            59.99245071411133
          ],
          [
            -0.01034376967980754,
            59.99245296212358
          ],
          [
            -0.01026216373858757,
            59.99245677620814
          ],
          [
            -0.010181665608412287,
            59.9924605902927
          ],
          [
            -0.010102375113718497,
            59.9924666505514
          ],
          [
            -0.010024494509467812,
            59.992476524281955
          ],
          [
            -0.009948293105248869,
            59.992487966535634
          ],
          [
            -0.00987400194504971,
            59.99249940878932
          ],
          [
            -0.009801714842940977,
            59.99251309476632
          ],
          [
            -0.009731311371703737,
            59.99253059421518
          ],
          [
            -0.009662610169056111,
            59.99254966463799
          ],
          [
            -0.009595526768857358,
            59.9925687350608
          ],
          [
            -0.009530024156345325,
            59.992590046756106
          ],
          [
            -0.009466068541982292,
            59.99261293126347
          ],
          [
            -0.00940377467874061,
            59.992638055817935
          ],
          [
            -0.009343417961069009,
            59.992664754409866
          ],
          [
            -0.009285061269546216,
            59.992693691823476
          ],
          [
            -0.009228752014265191,
            59.992724204499964
          ],
          [
            -0.009174661454168695,
            59.99275471717646
          ],
          [
            -0.009122752207560212,
            59.99278746683652
          ],
          [
            -0.009072909561556361,
            59.99282179359757
          ],
          [
            -0.009025266012275594,
            59.992858356116784
          ],
          [
            -0.008979969278607391,
            59.992896496962395
          ],
          [
            -0.008936917681696934,
            59.99293463780801
          ],
          [
            -0.008895717075987894,
            59.99297277865362
          ],
          [
            -0.008856171907074994,
            59.99301315280658
          ],
          [
            -0.008818380552300045,
            59.99305510773676
          ],
          [
            -0.008782384303089375,
            59.99309706266693
          ],
          [
            -0.008748064342966376,
            59.99314124906633
          ],
          [
            -0.008715541269827645,
            59.99318478722454
          ],
          [
            -0.008684975029574557,
            59.99322897239854
          ],
          [
            -0.008656217393827634,
            59.99327474141328
          ],
          [
            -0.008629304732932289,
            59.99332051042801
          ],
          [
            -0.008604354063845344,
            59.99336850784846
          ],
          [
            -0.008581564660877266,
            59.99341586315475
          ],
          [
            -0.008561126697973643,
            59.99346385934979
          ],
          [
            -0.008543108726070506,
            59.993513442449085
          ],
          [
            -0.008527510003819511,
            59.993563025548376
          ],
          [
            -0.008514332725049265,
            59.99361260864767
          ],
          [
            -0.00850351131618396,
            59.993664416476456
          ],
          [
            -0.008495076957681992,
            59.993715589543534
          ],
          [
            -0.008489083979037073,
            59.99376739614691
          ],
          [
            -0.008485414761806986,
            59.993818570439394
          ],
          [
            -0.008484012640562713,
            59.99387037581736
          ],
          [
            -0.0084850451066238,
            59.993923773001214
          ],
          [
            -0.008488618570849317,
            59.993977170185076
          ],
          [
            -0.008494750840408107,
            59.99403056736893
          ],
          [
            -0.008503465824681219,
            59.994083964552786
          ],
          [
            -0.008514761163649976,
            59.99413736173665
          ],
          [
            -0.008528729515084972,
            59.99419297752294
          ],
          [
            -0.008545099211622779,
            59.99424797080163
          ],
          [
            -0.008564030934230497,
            59.994301367985486
          ],
          [
            -0.008585401921100152,
            59.99435698193367
          ],
          [
            -0.008608593178689826,
            59.99441197705047
          ],
          [
            -0.008633463332352345,
            59.99446537423432
          ],
          [
            -0.008660026612505204,
            59.9945209863444
          ],
          [
            -0.008688075202279365,
            59.994575983299306
          ],
          [
            -0.008717609252756744,
            59.99463159418397
          ],
          [
            -0.008748822873640778,
            59.99468880545239
          ],
          [
            -0.008781833605738499,
            59.99474380424541
          ],
          [
            -0.008816572575756047,
            59.994799413291965
          ],
          [
            -0.008852843669537237,
            59.994856624560384
          ],
          [
            -0.008890131090244432,
            59.99491162519152
          ],
          [
            -0.008927214237775491,
            59.99496723239996
          ],
          [
            -0.008962902914489783,
            59.99502444366838
          ],
          [
            -0.00899696325012082,
            59.99508165493679
          ],
          [
            -0.009029668044398208,
            59.99513886620521
          ],
          [
            -0.009060923012055485,
            59.99519607747363
          ],
          [
            -0.009090335280662897,
            59.99525328874205
          ],
          [
            -0.009117822917019716,
            59.99531050001047
          ],
          [
            -0.009143374146761392,
            59.99536550554324
          ],
          [
            -0.009166781852931894,
            59.99541669760415
          ],
          [
            -0.009187546279849811,
            59.99546848521369
          ],
          [
            -0.00920510715097453,
            59.99552188239755
          ],
          [
            -0.009219030891818861,
            59.99557307629657
          ],
          [
            -0.009228986349445075,
            59.995624862068
          ],
          [
            -0.009234756624719221,
            59.995678259251854
          ],
          [
            -0.00923628975355138,
            59.995729454989
          ],
          [
            -0.009233517407739117,
            59.995781238922305
          ],
          [
            -0.009226506407059416,
            59.99583243588485
          ],
          [
            -0.009215482595591169,
            59.99588421859276
          ],
          [
            -0.009200188569297345,
            59.99593541678071
          ],
          [
            -0.009180508022652228,
            59.99598499988001
          ],
          [
            -0.009156391563099204,
            59.9960367807498
          ],
          [
            -0.009128132867939466,
            59.99608798077587
          ],
          [
            -0.009096064551416592,
            59.996135367330076
          ],
          [
            -0.009060852424954533,
            59.99618333227719
          ],
          [
            -0.009023836922466529,
            59.996230720056815
          ],
          [
            -0.008986128088167003,
            59.99627429436458
          ],
          [
            -0.008948242184106186,
            59.99631624929475
          ],
          [
            -0.008910268263031507,
            59.99635601074336
          ],
          [
            -0.008872135925871688,
            59.99639415158898
          ],
          [
            -0.008833903180889427,
            59.996430100178436
          ],
          [
            -0.008795711828752915,
            59.99646442693949
          ],
          [
            -0.008757525296876404,
            59.99649656266979
          ],
          [
            -0.00871915192353166,
            59.996527075346286
          ],
          [
            -0.008680465423860736,
            59.99655539821744
          ],
          [
            -0.00864126258734655,
            59.99658209680936
          ],
          [
            -0.008601198564356835,
            59.996606606821366
          ],
          [
            -0.008559990074566906,
            59.99662949132873
          ],
          [
            -0.008517664409647322,
            59.99665018848158
          ],
          [
            -0.008474404322581206,
            59.99666925890439
          ],
          [
            -0.008430368446502941,
            59.99668832932719
          ],
          [
            -0.00838556176965766,
            59.99670521423359
          ],
          [
            -0.00833994018555961,
            59.99671828566814
          ],
          [
            -0.008293484089315073,
            59.996729727921824
          ],
          [
            -0.008246141183107777,
            59.996741170175504
          ],
          [
            -0.008197907462819011,
            59.9967504293636
          ],
          [
            -0.008148846798389417,
            59.996755875079835
          ],
          [
            -0.008099033783731158,
            59.9967596891644
          ],
          [
            -0.008048623438578704,
            59.996763503248964
          ],
          [
            -0.007997736560974784,
            59.99676513671875
          ],
          [
            -0.007946494605046352,
            59.99676513671875
          ],
          [
            -0.007895032934775054,
            59.99676513671875
          ],
          [
            -0.007843411126085168,
            59.99676295794209
          ],
          [
            -0.00779168050291318,
            59.99675696569358
          ],
          [
            -0.007739932611381227,
            59.9967515150757
          ],
          [
            -0.007688092670071032,
            59.9967455240526
          ],
          [
            -0.007635702633942434,
            59.99673789588348
          ],
          [
            -0.007582262422188795,
            59.99672809200121
          ],
          [
            -0.007527614121408745,
            59.996720999948394
          ],
          [
            -0.007471775287317118,
            59.996715011376104
          ],
          [
            -0.007414739058103784,
            59.99670738320698
          ],
          [
            -0.007356500397132643,
            59.99669975503786
          ],
          [
            -0.007297073056819046,
            59.99669212686874
          ],
          [
            -0.007236470080914482,
            59.99668667073653
          ],
          [
            -0.007174706215160359,
            59.99668068522776
          ],
          [
            -0.007111803321478954,
            59.99667522787014
          ],
          [
            -0.007047769643182024,
            59.99667141378558
          ],
          [
            -0.006982589073445072,
            59.99666759970101
          ],
          [
            -0.006916219268803117,
            59.996663785616455
          ],
          [
            -0.006848668633148551,
            59.99666213989258
          ],
          [
            -0.006779978601959028,
            59.9966599721446
          ],
          [
            -0.006710164942424082,
            59.99665832519531
          ],
          [
            -0.006639246791158388,
            59.99665832519531
          ],
          [
            -0.006567229876334192,
            59.99665832519531
          ],
          [
            -0.006494105067295593,
            59.99665832519531
          ],
          [
            -0.006419877210405197,
            59.99665832519531
          ],
          [
            -0.006344550293252451,
            59.996660489267065
          ],
          [
            -0.006268121321873169,
            59.99666213989258
          ],
          [
            -0.006190596480303049,
            59.99666213989258
          ],
          [
            -0.00611199883066797,
            59.99666430212622
          ],
          [
            -0.00603233560739658,
            59.996665954589844
          ],
          [
            -0.005951606129648221,
            59.996665954589844
          ],
          [
            -0.005869821862219191,
            59.99666811498537
          ],
          [
            -0.005786997962735826,
            59.99666976928711
          ],
          [
            -0.005703150054186798,
            59.99667192845723
          ],
          [
            -0.005618293697931095,
            59.99667574254179
          ],
          [
            -0.005532436614178165,
            59.99667739868164
          ],
          [
            -0.005445685213113995,
            59.996679556013646
          ],
          [
            -0.0053581563680179176,
            59.996681213378906
          ],
          [
            -0.005269790728691083,
            59.9966833694855
          ],
          [
            -0.005180523109882854,
            59.99668718357007
          ],
          [
            -0.0050903515693684,
            59.996690997654625
          ],
          [
            -0.004999274466488299,
            59.9966926574707
          ],
          [
            -0.00490729635232236,
            59.99669481112648
          ],
          [
            -0.00481442657382811,
            59.996698625211046
          ],
          [
            -0.004720673674012695,
            59.996700286865234
          ],
          [
            -0.004626040228897078,
            59.9967024386829
          ],
          [
            -0.004530548356494983,
            59.99670625276746
          ],
          [
            -0.004434224492770029,
            59.996707916259766
          ],
          [
            -0.004337071280682959,
            59.99671006623932
          ],
          [
            -0.004239090778013746,
            59.99671173095703
          ],
          [
            -0.004140353874625569,
            59.99671387971118
          ],
          [
            -0.004041017600689094,
            59.99671769379574
          ],
          [
            -0.003941042302520354,
            59.99671936035156
          ],
          [
            -0.003840341554626147,
            59.996721507267594
          ],
          [
            -0.0037389167733989804,
            59.99672317504883
          ],
          [
            -0.003636771469361079,
            59.99672532073945
          ],
          [
            -0.0035339176856083615,
            59.996729134824015
          ],
          [
            -0.0034303749113295855,
            59.99673080444336
          ],
          [
            -0.0033261572307220024,
            59.99673294829587
          ],
          [
            -0.003221263484568581,
            59.996734619140625
          ],
          [
            -0.0031157107694672666,
            59.99673676176773
          ],
          [
            -0.0030094993188097305,
            59.996740575852286
          ],
          [
            -0.002902635204554245,
            59.996742248535156
          ],
          [
            -0.002795138549424042,
            59.99674438932414
          ],
          [
            -0.002687015196772504,
            59.99674820340871
          ],
          [
            -0.0025782654412841786,
            59.99674987792969
          ],
          [
            -0.0024688960546062123,
            59.99675201688056
          ],
          [
            -0.002358913180049406,
            59.99675583096513
          ],
          [
            -0.0022483197056338204,
            59.99675750732422
          ],
          [
            -0.0021371139223763857,
            59.996759644436985
          ],
          [
            -0.002025289966168602,
            59.996761322021484
          ],
          [
            -0.001912849198243278,
            59.99676345790884
          ],
          [
            -0.0017999941322895353,
            59.9967672719934
          ],
          [
            -0.0016867252910546038,
            59.996768951416016
          ],
          [
            -0.0015729055824828917,
            59.996771085465255
          ],
          [
            -0.001458541203455909,
            59.99677276611328
          ],
          [
            -0.0013439222884047493,
            59.99677489893711
          ],
          [
            -0.001230548136235402,
            59.996778713021676
          ],
          [
            -0.0011202532894273181,
            59.99678039550781
          ],
          [
            -0.0010138633987069267,
            59.99678252649353
          ],
          [
            -0.0009115021844856852,
            59.99678421020508
          ],
          [
            -0.0008130887673028968,
            59.99678633996539
          ],
          [
            -0.0007185311929844011,
            59.996788024902344
          ],
          [
            -0.0006277538235265016,
            59.996790153437246
          ],
          [
            -0.0005406256453483326,
            59.99679396752181
          ],
          [
            -0.0004570522346387417,
            59.996795654296875
          ],
          [
            -0.0003769682067491343,
            59.99679778099367
          ],
          [
            -0.000300328172203667,
            59.99679946899414
          ],
          [
            -0.00022709616226038453,
            59.99679946899414
          ],
          [
            -0.00015720640092310882,
            59.996801593852815
          ],
          [
            -9.06032774226145e-05,
            59.996803283691406
          ],
          [
            -2.7150606477971456e-05,
            59.996803283691406
          ],
          [
            3.34136069682392e-05,
            59.996803283691406
          ],
          [
            9.141443792304288e-05,
            59.996803283691406
          ],
          [
            0.00014726202724253082,
            59.996803283691406
          ],
          [
            0.00020133768438278883,
            59.996803283691406
          ],
          [
            0.00025391495280577183,
            59.996803283691406
          ],
          [
            0.00030520960950255945,
            59.99680116373437
          ],
          [
            0.00035538990503986495,
            59.9967973496498
          ],
          [
            0.0004045456497296093,
            59.996793535565246
          ],
          [
            0.0004526013341931368,
            59.99678760336175
          ],
          [
            0.0004992840702767777,
            59.99677997519263
          ],
          [
            0.0005443641950546831,
            59.99677234702351
          ],
          [
            0.0005877401808099021,
            59.99676260257357
          ],
          [
            0.0006292908722977604,
            59.99675116031989
          ],
          [
            0.00066887146374168,
            59.9967397180662
          ],
          [
            0.0007066768222271474,
            59.996726161369814
          ],
          [
            0.000743259294449947,
            59.99671301886157
          ],
          [
            0.0007788564807535964,
            59.99669946339059
          ],
          [
            0.000813472366072373,
            59.99668420705235
          ],
          [
            0.0008477610109880074,
            59.9966689507141
          ],
          [
            0.0008830227523008863,
            59.99665158299668
          ],
          [
            0.0009199963614937645,
            59.99663673410682
          ],
          [
            0.0009585872317088088,
            59.99662318169936
          ],
          [
            0.0009986319684698358,
            59.99661003490219
          ],
          [
            0.0010400470044048865,
            59.9965985926485
          ],
          [
            0.0010827029444353056,
            59.99658925871048
          ],
          [
            0.0011263848812305434,
            59.99658163054136
          ],
          [
            0.0011707595103570485,
            59.996574002372235
          ],
          [
            0.0012156413367330641,
            59.99656848068066
          ],
          [
            0.0012610514081589693,
            59.99656466659609
          ],
          [
            0.001307196225333743,
            59.99656295776367
          ],
          [
            0.0013541974200552427,
            59.99656085312424
          ],
          [
            0.0014019913120952624,
            59.99656124709313
          ],
          [
            0.001450398927817768,
            59.99656295776367
          ],
          [
            0.001499205951532872,
            59.99656506056499
          ],
          [
            0.0015482873087391477,
            59.996568874649554
          ],
          [
            0.0015976995857533793,
            59.99657479031003
          ],
          [
            0.0016477483609032178,
            59.99658241847915
          ],
          [
            0.0016988347122718628,
            59.99659004664827
          ],
          [
            0.001751147161234622,
            59.996597674817394
          ],
          [
            0.0018047005159288678,
            59.99660740211161
          ],
          [
            0.001859505862866587,
            59.996618844365294
          ],
          [
            0.0019155810293919513,
            59.996630286618974
          ],
          [
            0.0019729192639212634,
            59.99664172887266
          ],
          [
            0.002031501743465656,
            59.99665317112635
          ],
          [
            0.0020913116221707912,
            59.99666461338003
          ],
          [
            0.0021523265129178674,
            59.99667815108258
          ],
          [
            0.002214332844188735,
            59.99669340742082
          ],
          [
            0.0022771488743515292,
            59.99670656953561
          ],
          [
            0.0023408842318605842,
            59.99672010540005
          ],
          [
            0.0024056508126700017,
            59.996735361738295
          ],
          [
            0.0024714713039683304,
            59.99675061807654
          ],
          [
            0.0025383783800547017,
            59.996765874414784
          ],
          [
            0.002606401985395718,
            59.99678322191296
          ],
          [
            0.0026755467924229124,
            59.99680020178854
          ],
          [
            0.00274579443567495,
            59.99681545812678
          ],
          [
            0.0028171170430501746,
            59.99683280378685
          ],
          [
            0.0028894989551357655,
            59.996849785500544
          ],
          [
            0.0029629331791592287,
            59.996867129935204
          ],
          [
            0.0030374132094000365,
            59.996886200358006
          ],
          [
            0.0031129283609285983,
            59.99690318390981
          ],
          [
            0.0031894503520018985,
            59.99692052650636
          ],
          [
            0.0032669496949142233,
            59.99693959692916
          ],
          [
            0.00334540911730431,
            59.99695866735197
          ],
          [
            0.003424726679850574,
            59.99697773777477
          ],
          [
            0.0035047201720062493,
            59.99699680819758
          ],
          [
            0.0035853987424151594,
            59.99701587862039
          ],
          [
            0.003666830456045595,
            59.99703494904319
          ],
          [
            0.0037489873134234444,
            59.99705610143537
          ],
          [
            0.0038317926760199233,
            59.99707690458607
          ],
          [
            0.003915160661563277,
            59.99709805575284
          ],
          [
            0.0039990297907594365,
            59.99712094026021
          ],
          [
            0.0040833284512073464,
            59.997141745249024
          ],
          [
            0.004167969333061207,
            59.99716497348353
          ],
          [
            0.004252873134487922,
            59.99718959378231
          ],
          [
            0.004337967715533987,
            59.99721247828968
          ],
          [
            0.004423112176637568,
            59.99723743986478
          ],
          [
            0.004508195270524225,
            59.997264138456714
          ],
          [
            0.00459324158629398,
            59.997290837048645
          ],
          [
            0.00467826797174568,
            59.99731753564057
          ],
          [
            0.0047632134344501795,
            59.9973442342325
          ],
          [
            0.004847992088545816,
            59.997373006828646
          ],
          [
            0.004932559793441056,
            59.997403519505134
          ],
          [
            0.005016907290359603,
            59.99743403218162
          ],
          [
            0.005101044403662574,
            59.99746454485811
          ],
          [
            0.005184999605628183,
            59.997497129088
          ],
          [
            0.005268805757987099,
            59.99753145584906
          ],
          [
            0.005352471657743559,
            59.997563712282115
          ],
          [
            0.005435998500837888,
            59.99759629467389
          ],
          [
            0.005519409343113258,
            59.99763269053752
          ],
          [
            0.00560272101583926,
            59.99766876289326
          ],
          [
            0.005685945454335119,
            59.99770308965431
          ],
          [
            0.005769101102258116,
            59.99773948367983
          ],
          [
            0.005852176769302421,
            59.99777762452544
          ],
          [
            0.0059350585121299435,
            59.99781576537106
          ],
          [
            0.006017666223536459,
            59.99785390621667
          ],
          [
            0.00610008377969566,
            59.99789204706228
          ],
          [
            0.006182332136636836,
            59.9979301879079
          ],
          [
            0.006264372601317722,
            59.99797039234175
          ],
          [
            0.006346179356911056,
            59.998010284296384
          ],
          [
            0.006427765944018281,
            59.998050487504834
          ],
          [
            0.0065091738143473726,
            59.998092442435
          ],
          [
            0.006590366018729618,
            59.99813439736518
          ],
          [
            0.006671316881696733,
            59.99817635229535
          ],
          [
            0.006752066485047702,
            59.99821830722553
          ],
          [
            0.006832623822567265,
            59.99826232145501
          ],
          [
            0.006912942483023171,
            59.998306031783144
          ],
          [
            0.006993045907367691,
            59.998350044787216
          ],
          [
            0.007073061657998313,
            59.998393756340754
          ],
          [
            0.0071531392016424234,
            59.99843776811942
          ],
          [
            0.007233363047895564,
            59.998483537134156
          ],
          [
            0.007313815676097124,
            59.998529306148896
          ],
          [
            0.007394662712827204,
            59.99857507516363
          ],
          [
            0.007476035545846679,
            59.99862084417836
          ],
          [
            0.007557966706300876,
            59.9986666131931
          ],
          [
            0.007640490136903626,
            59.998712382207835
          ],
          [
            0.00772378632620489,
            59.99875815122257
          ],
          [
            0.007808223135851328,
            59.99880392023731
          ],
          [
            0.007894107189964075,
            59.99884968925204
          ],
          [
            0.007981487735328117,
            59.99889545826677
          ],
          [
            0.008070317334550842,
            59.998939177172765
          ],
          [
            0.008160640544521654,
            59.99898318159898
          ],
          [
            0.008252511962642718,
            59.99902690173038
          ],
          [
            0.008345787308109767,
            59.99906885666055
          ],
          [
            0.008440481631669905,
            59.999110811590725
          ],
          [
            0.008536777133735374,
            59.9991527665209
          ],
          [
            0.00863472876787291,
            59.999194721451076
          ],
          [
            0.008734394858719595,
            59.99923667638125
          ],
          [
            0.00883599321264867,
            59.999276586104315
          ],
          [
            0.008939454334537075,
            59.999314726949926
          ],
          [
            0.009044607334171633,
            59.99935286779554
          ],
          [
            0.009151548714282181,
            59.99938896527215
          ],
          [
            0.00926039223803025,
            59.9994253347895
          ],
          [
            0.009371112263679232,
            59.99946143349152
          ],
          [
            0.009483647324238275,
            59.99949371872169
          ],
          [
            0.00959803720420408,
            59.99952627231636
          ],
          [
            0.009714202167645227,
            59.99955855877194
          ],
          [
            0.009831275425191958,
            59.99958703175565
          ],
          [
            0.009947254399954806,
            59.99961373034758
          ],
          [
            0.010060326806414745,
            59.99964042893951
          ],
          [
            0.010169843714678281,
            59.99966712753144
          ],
          [
            0.010275713651995437,
            59.999691788881414
          ],
          [
            0.010377951707706504,
            59.99971467338878
          ],
          [
            0.010476632125991644,
            59.99973755789615
          ],
          [
            0.01057181041687732,
            59.99976044240352
          ],
          [
            0.0106635474817695,
            59.99978129211975
          ],
          [
            0.010751899720133408,
            59.99980036254255
          ],
          [
            0.01083694489201883,
            59.99981943296536
          ],
          [
            0.01091878297997518,
            59.99983850338817
          ],
          [
            0.010997504024167189,
            59.99985757381097
          ],
          [
            0.011073157529340974,
            59.99987461250616
          ],
          [
            0.011145763957069435,
            59.99988986884441
          ],
          [
            0.011215367229099521,
            59.99990512518266
          ],
          [
            0.011282042706270999,
            59.9999203815209
          ],
          [
            0.011345908622871647,
            59.999935637859146
          ],
          [
            0.011407204220802008,
            59.99995089419739
          ],
          [
            0.011466210625450656,
            59.999966150535634
          ],
          [
            0.011523058116669356,
            59.99998140687388
          ],
          [
            0.011577642643019454,
            59.99999463638614
          ],
          [
            0.011629663246848037,
            60.0000081048531
          ],
          [
            0.011678886745535516,
            60.00002336119135
          ],
          [
            0.01172528960785438,
            60.00004064251746
          ],
          [
            0.01176894492677054,
            60.00005768856511
          ],
          [
            0.01180991747662178,
            60.00007294490335
          ],
          [
            0.011848219833703278,
            60.00009022439135
          ],
          [
            0.011883812471554088,
            60.00010929481416
          ],
          [
            0.011916624023430973,
            60.00012836523696
          ],
          [
            0.01194660804721198,
            60.000149456971414
          ],
          [
            0.011973686064535166,
            60.00017234147878
          ],
          [
            0.011997819707483317,
            60.00019320589991
          ],
          [
            0.012019151168639951,
            60.00021429579625
          ],
          [
            0.012037835126982664,
            60.00023919916444
          ],
          [
            0.01205369235048417,
            60.000263879508246
          ],
          [
            0.012066427585206646,
            60.00028878165103
          ],
          [
            0.012076010212536764,
            60.00031346322025
          ],
          [
            0.012082462117208752,
            60.000338364137626
          ],
          [
            0.012085654011425235,
            60.00036506272955
          ],
          [
            0.012085540521258074,
            60.00039176132148
          ],
          [
            0.012082298066068548,
            60.00041845991341
          ],
          [
            0.01207605293520223,
            60.00044717246453
          ],
          [
            0.012066736617512999,
            60.00047567179453
          ],
          [
            0.012054336312476155,
            60.000502370386464
          ],
          [
            0.012038948572932754,
            60.00053108109947
          ],
          [
            0.012020658189026947,
            60.000559582267584
          ],
          [
            0.011999555627692457,
            60.000586280859515
          ],
          [
            0.011976037810802212,
            60.00061498973441
          ],
          [
            0.011950821541560887,
            60.00064349274064
          ],
          [
            0.011924377652594196,
            60.00067220039012
          ],
          [
            0.011896856948601688,
            60.000702713066616
          ],
          [
            0.011868367757536918,
            60.000733225743105
          ],
          [
            0.01183895401057086,
            60.00076373841959
          ],
          [
            0.01180859175030532,
            60.00079425109608
          ],
          [
            0.01177727753775769,
            60.00082476377258
          ],
          [
            0.011745164139448172,
            60.000855276449066
          ],
          [
            0.0117126975170825,
            60.000885789125554
          ],
          [
            0.011680108618165926,
            60.00091630180204
          ],
          [
            0.011647066662678587,
            60.00094481093532
          ],
          [
            0.011613130332663334,
            60.00097150952725
          ],
          [
            0.01157798069785625,
            60.00099820811918
          ],
          [
            0.011541184393340188,
            60.001022905006
          ],
          [
            0.01150234453164704,
            60.00104578951337
          ],
          [
            0.011461428166006591,
            60.00106667354105
          ],
          [
            0.01141855160119667,
            60.001087743830844
          ],
          [
            0.01137377980661509,
            60.00110862908392
          ],
          [
            0.011327197603819112,
            60.00112570086515
          ],
          [
            0.011278972172690211,
            60.0011409572034
          ],
          [
            0.011229263440581071,
            60.00115621354164
          ],
          [
            0.011178130063013216,
            60.001169473076416
          ],
          [
            0.011125633363823497,
            60.0011809153301
          ],
          [
            0.011071872641803605,
            60.00119036200573
          ],
          [
            0.011016967772200124,
            60.00119799017485
          ],
          [
            0.010961031391791847,
            60.001205618343974
          ],
          [
            0.010904110772753613,
            60.001211252773146
          ],
          [
            0.010846233016482505,
            60.00121506685771
          ],
          [
            0.010787457164282394,
            60.00121888094227
          ],
          [
            0.010727846375859523,
            60.001220703125
          ],
          [
            0.010667425152207534,
            60.001220703125
          ],
          [
            0.01060620220028011,
            60.001218712448576
          ],
          [
            0.010544201604473852,
            60.001216888427734
          ],
          [
            0.010481478814083494,
            60.001212909525705
          ],
          [
            0.01041812905721627,
            60.00120727019489
          ],
          [
            0.010354262097103509,
            60.00120146788473
          ],
          [
            0.010289984944593926,
            60.001193839715604
          ],
          [
            0.010225347446835974,
            60.00118422454628
          ],
          [
            0.010160255115126178,
            60.0011727822926
          ],
          [
            0.010094523927543298,
            60.00116134003891
          ],
          [
            0.010028036607748286,
            60.00114989778523
          ],
          [
            0.009960740542298369,
            60.00113647098217
          ],
          [
            0.009892568140599701,
            60.00112319858059
          ],
          [
            0.009823472795537042,
            60.00110977300294
          ],
          [
            0.009753448810276398,
            60.00109451666469
          ],
          [
            0.009682484460115616,
            60.00107926032645
          ],
          [
            0.009610562351640891,
            60.001064003988205
          ],
          [
            0.009537686753588433,
            60.00104874764996
          ],
          [
            0.009463851179459627,
            60.001031511051266
          ],
          [
            0.009389038371664746,
            60.001014420276206
          ],
          [
            0.009313240364598378,
            60.00099718490292
          ],
          [
            0.009236457992801045,
            60.000980092902445
          ],
          [
            0.00915869039001998,
            60.00096285875457
          ],
          [
            0.00907992155862854,
            60.00094576552869
          ],
          [
            0.009000236701029993,
            60.000928532606224
          ],
          [
            0.008919761791990393,
            60.000909462183415
          ],
          [
            0.008838442603884257,
            60.00089039176061
          ],
          [
            0.008756203348205361,
            60.00087329608392
          ],
          [
            0.008673062807722638,
            60.00085606561226
          ],
          [
            0.008589033654316834,
            60.00083699518946
          ],
          [
            0.00850411434560636,
            60.00081792476665
          ],
          [
            0.008418312297318414,
            60.00079885434384
          ],
          [
            0.008331647539170836,
            60.00077978392104
          ],
          [
            0.008244139106732945,
            60.00076071349823
          ],
          [
            0.008155796508440314,
            60.00074164307542
          ],
          [
            0.008066623048797591,
            60.00072257265262
          ],
          [
            0.007976627709099317,
            60.00070350222981
          ],
          [
            0.00788585332001194,
            60.000682463187935
          ],
          [
            0.007794451827426844,
            60.000661546686935
          ],
          [
            0.0077023815953463125,
            60.000642476264126
          ],
          [
            0.00760948749192097,
            60.000623405841324
          ],
          [
            0.0075157628352181,
            60.000604335418515
          ],
          [
            0.007421220278644426,
            60.000583299440166
          ],
          [
            0.007325869424949495,
            60.00056237987564
          ],
          [
            0.007229710386696842,
            60.00054330945283
          ],
          [
            0.007132736803563458,
            60.00052423903002
          ],
          [
            0.0070349369566065295,
            60.00050516860722
          ],
          [
            0.006936296896405848,
            60.00048413569239
          ],
          [
            0.006836802885803878,
            60.000463213064336
          ],
          [
            0.006736434018733028,
            60.000444142641534
          ],
          [
            0.0066351621164025985,
            60.000425072218725
          ],
          [
            0.006532969327815218,
            60.00040600179592
          ],
          [
            0.006429854664057597,
            60.00038889080162
          ],
          [
            0.00632580865902711,
            60.00037167564757
          ],
          [
            0.006220814972993872,
            60.00035260522477
          ],
          [
            0.006114890356750035,
            60.00033549239235
          ],
          [
            0.006008062127396027,
            60.00031827907642
          ],
          [
            0.00590037482843302,
            60.00030116501859
          ],
          [
            0.00579193899144107,
            60.00028590868035
          ],
          [
            0.005682697206576433,
            60.0002706523421
          ],
          [
            0.005572522885096962,
            60.00025539600386
          ],
          [
            0.005461421744704104,
            60.000240139665614
          ],
          [
            0.005349401638738695,
            60.000226836628826
          ],
          [
            0.005236448832361819,
            60.00021539437514
          ],
          [
            0.005122555542612802,
            60.00020395212146
          ],
          [
            0.005007774012035793,
            60.00019250986777
          ],
          [
            0.004892178222511916,
            60.00018301846473
          ],
          [
            0.00477580860564696,
            60.00017344005767
          ],
          [
            0.004658715934826156,
            60.00016394742922
          ],
          [
            0.004540961874045211,
            60.0001563192601
          ],
          [
            0.004422579545388836,
            60.0001506394908
          ],
          [
            0.004303585249246085,
            60.00014487761912
          ],
          [
            0.0041839950282689786,
            60.00013919662441
          ],
          [
            0.004063830657545233,
            60.00013343597814
          ],
          [
            0.003943115431208675,
            60.00012775375802
          ],
          [
            0.0038218788855053187,
            60.000123939673465
          ],
          [
            0.003700145622137955,
            60.0001201255889
          ],
          [
            0.0035779417856391885,
            60.00011631150434
          ],
          [
            0.0034552974076842136,
            60.00011249741978
          ],
          [
            0.0033322405880448465,
            60.00010868333522
          ],
          [
            0.0032087858050398187,
            60.000104869250656
          ],
          [
            0.003084934021554496,
            60.0001010551661
          ],
          [
            0.0029606791534016606,
            60.000099182128906
          ],
          [
            0.002836030803779634,
            60.00009724169424
          ],
          [
            0.0027110003725644496,
            60.00009342760968
          ],
          [
            0.0025855565137431896,
            60.000091552734375
          ],
          [
            0.00245969493655321,
            60.00008961413782
          ],
          [
            0.002333439746295662,
            60.00008773803711
          ],
          [
            0.0022068666729511636,
            60.000085800665964
          ],
          [
            0.0020800692714700573,
            60.000083923339844
          ],
          [
            0.0019529960584942383,
            60.000083923339844
          ],
          [
            0.001825578861185215,
            60.00008198780681
          ],
          [
            0.0016978391193521794,
            60.00008010864258
          ],
          [
            0.0015697825178437354,
            60.00008010864258
          ],
          [
            0.001441405315120873,
            60.00008010864258
          ],
          [
            0.001312732723626954,
            60.00008010864258
          ],
          [
            0.0011838211211184922,
            60.00008010864258
          ],
          [
            0.0010546759560233075,
            60.00008010864258
          ],
          [
            0.0009252841083195628,
            60.00008010864258
          ],
          [
            0.0007956572352461554,
            60.00008010864258
          ],
          [
            0.0006657860869642326,
            60.00008203866127
          ],
          [
            0.0005356550972485444,
            60.000083923339844
          ],
          [
            0.00040525232252008176,
            60.000085852133125
          ],
          [
            0.0002745934269641659,
            60.00008966621769
          ],
          [
            0.00014370142840825777,
            60.000093480302255
          ]
        ]
      }
    }
  ]
}