{
  "type": "FeatureCollection",
  "features": [
    {
      "type": "Feature",
      "properties": {
        "source_file": "Autodromo Enzo e Dino Ferrari_P_2026-08-13T23_34_47Z.duckdb",
        "track_name": "Autodromo Enzo e Dino Ferrari",
        "track_layout": "Autodromo Enzo e Dino Ferrari",
        "lap": 5
      },
      "geometry": {
        "type": "LineString",
        "coordinates": [
          [
            -5.1789853503224505e-06,
            60.00009344609996
          ],
          [
            -0.00013674463160493318,
            60.0000972604111
          ],
          [
            -0.00026853461706321114,
            60.00010107472225
          ],
          [
            -0.00040052558212498417,
            60.000104889033395
          ],
          [
            -0.0005327064778811257,
            60.000108703344544
          ],
          [
            -0.0006650729836660069,
            60.00011440909067
          ],
          [
            -0.0007975892531441517,
            60.00012203771296
          ],
          [
            -0.0009302561802980647,
            60.00012777567251
          ],
          [
            -0.0010630795353151867,
            60.00013348026028
          ],
          [
            -0.0011960347480967568,
            60.00014110888257
          ],
          [
            -0.0013291014020086157,
            60.000150627009255
          ],
          [
            -0.0014622752341391769,
            60.00016018082442
          ],
          [
            -0.0015955479267056496,
            60.000169698178865
          ],
          [
            -0.0017289107422078537,
            60.00017925276627
          ],
          [
            -0.0018623486906692616,
            60.00018876934847
          ],
          [
            -0.0019958596846707767,
            60.00020021228191
          ],
          [
            -0.002129498484424557,
            60.000211655215345
          ],
          [
            -0.0022633357977659484,
            60.00022309814879
          ],
          [
            -0.0023973819886231977,
            60.00023454108222
          ],
          [
            -0.0025316501428883547,
            60.00024598401566
          ],
          [
            -0.002666173301797647,
            60.0002574269491
          ],
          [
            -0.0028009468774725676,
            60.00026698462547
          ],
          [
            -0.0029359622442340924,
            60.00027649811871
          ],
          [
            -0.0030711915859091524,
            60.00028794105214
          ],
          [
            -0.0032066357231365365,
            60.00029749988688
          ],
          [
            -0.003342326406539466,
            60.000307012221754
          ],
          [
            -0.00347829025660214,
            60.000316571828726
          ],
          [
            -0.0036145300460281044,
            60.000326083391364
          ],
          [
            -0.0037510439829202876,
            60.00033564377057
          ],
          [
            -0.003887836921442244,
            60.00034327239286
          ],
          [
            -0.004024913434436928,
            60.00035278279715
          ],
          [
            -0.004162283198477387,
            60.00036234433471
          ],
          [
            -0.004299914180602547,
            60.000369972957
          ],
          [
            -0.004437773003125774,
            60.000377601579295
          ],
          [
            -0.004575860923770538,
            60.00038523020159
          ],
          [
            -0.0047142040237169265,
            60.00039097897249
          ],
          [
            -0.004852800389765441,
            60.000396672748906
          ],
          [
            -0.004991604589313529,
            60.0004043013712
          ],
          [
            -0.005130623577148878,
            60.000410051300456
          ],
          [
            -0.005269864843336433,
            60.000413865611606
          ],
          [
            -0.005409324999275956,
            60.00041955784354
          ],
          [
            -0.005549014450565039,
            60.000425308931156
          ],
          [
            -0.005688932502539482,
            60.000429123242306
          ],
          [
            -0.00582908761713577,
            60.00043293755345
          ],
          [
            -0.0059694839775891,
            60.00043487548828
          ],
          [
            -0.006110101037339933,
            60.000436751478475
          ],
          [
            -0.006250908980289356,
            60.00043869018555
          ],
          [
            -0.006391898866941653,
            60.00043869018555
          ],
          [
            -0.006533040903600309,
            60.00043869018555
          ],
          [
            -0.0066742773499759035,
            60.00043681573983
          ],
          [
            -0.006815600608363113,
            60.00043487548828
          ],
          [
            -0.006957026961399908,
            60.000433001814805
          ],
          [
            -0.007098557380997676,
            60.000429187503656
          ],
          [
            -0.0072401698942896105,
            60.00042537319251
          ],
          [
            -0.007381856637594454,
            60.00041968636625
          ],
          [
            -0.007523611279313858,
            60.000413929872956
          ],
          [
            -0.0076654090418730465,
            60.00040824381893
          ],
          [
            -0.0078072267407305815,
            60.00040061519664
          ],
          [
            -0.007949063378381692,
            60.00039298657435
          ],
          [
            -0.008090947581228854,
            60.000385357952055
          ],
          [
            -0.008232898610312154,
            60.00037772932976
          ],
          [
            -0.008374922376689027,
            60.00036823089519
          ],
          [
            -0.008516998579824788,
            60.00035865738791
          ],
          [
            -0.008659151270862149,
            60.00035102876562
          ],
          [
            -0.008801393455714056,
            60.000341531489404
          ],
          [
            -0.008943714865201369,
            60.00033195682377
          ],
          [
            -0.00908612722245817,
            60.00032246031979
          ],
          [
            -0.009228573665970293,
            60.00031101738636
          ],
          [
            -0.009371008819116984,
            60.000301441562364
          ],
          [
            -0.009513414686823573,
            60.00029194621675
          ],
          [
            -0.009655489058678496,
            60.000280503283314
          ],
          [
            -0.009796010299695953,
            60.00026719439879
          ],
          [
            -0.009933152752576412,
            60.00025380271917
          ],
          [
            -0.01006582605024264,
            60.00024235978573
          ],
          [
            -0.010193859118041873,
            60.000230916852296
          ],
          [
            -0.01031734288759694,
            60.000219473918854
          ],
          [
            -0.010436401679893315,
            60.00020803098542
          ],
          [
            -0.010551220300104115,
            60.00019472441762
          ],
          [
            -0.010661996353785431,
            60.00018133042128
          ],
          [
            -0.010768886036649009,
            60.00016988748784
          ],
          [
            -0.010871953198515225,
            60.0001584445544
          ],
          [
            -0.010971167787845163,
            60.00014700162097
          ],
          [
            -0.011066453430531661,
            60.000135558687525
          ],
          [
            -0.01115771376341986,
            60.00012411575409
          ],
          [
            -0.011244954674794885,
            60.00011267282065
          ],
          [
            -0.01132819883968221,
            60.000099369341804
          ],
          [
            -0.011407477273074767,
            60.000085972256514
          ],
          [
            -0.011482963564763223,
            60.00007452932307
          ],
          [
            -0.0115549685775563,
            60.00006122700259
          ],
          [
            -0.011623875202045022,
            60.00004782875893
          ],
          [
            -0.011690042264749801,
            60.00003452721069
          ],
          [
            -0.01175384099316236,
            60.0000192699661
          ],
          [
            -0.011815510715314318,
            60.00000401272152
          ],
          [
            -0.01187501015644699,
            59.999988755476934
          ],
          [
            -0.011932226378430128,
            59.99997164116202
          ],
          [
            -0.011987056585240062,
            59.99995256960629
          ],
          [
            -0.012039322071969545,
            59.99993164175247
          ],
          [
            -0.012088804093937616,
            59.99990875588559
          ],
          [
            -0.012135518012533026,
            59.999885870018716
          ],
          [
            -0.012179885857461827,
            59.99986298415185
          ],
          [
            -0.012222283672948798,
            59.99984009828497
          ],
          [
            -0.012262758185943015,
            59.9998153580506
          ],
          [
            -0.012300904775307552,
            59.99978865787258
          ],
          [
            -0.012336438747567355,
            59.99976195769456
          ],
          [
            -0.012369459104115303,
            59.999735257516534
          ],
          [
            -0.012400240430121638,
            59.9997067045155
          ],
          [
            -0.012429091940895125,
            59.999676190026335
          ],
          [
            -0.012456131730567628,
            59.99964567553717
          ],
          [
            -0.012481714380241609,
            59.999615161048
          ],
          [
            -0.012506574179395349,
            59.99958464655883
          ],
          [
            -0.012531903358460635,
            59.99955228117725
          ],
          [
            -0.012558898513949686,
            59.99951980288323
          ],
          [
            -0.012588397260083931,
            59.99948928839407
          ],
          [
            -0.012620928172446925,
            59.99945692417084
          ],
          [
            -0.012656465131788192,
            59.999424444718464
          ],
          [
            -0.012694714942888506,
            59.999393930229296
          ],
          [
            -0.012736063817329368,
            59.99936341574013
          ],
          [
            -0.012780625495780538,
            59.999334749440536
          ],
          [
            -0.012828110608802387,
            59.999306201459056
          ],
          [
            -0.012878741910407599,
            59.99927753438723
          ],
          [
            -0.01293240038839302,
            59.99925083420921
          ],
          [
            -0.01298881126008449,
            59.99922413403119
          ],
          [
            -0.013047985838808297,
            59.99919743385317
          ],
          [
            -0.01310989965185776,
            59.999172579548
          ],
          [
            -0.013174396548729133,
            59.999149693681126
          ],
          [
            -0.013241237314848378,
            59.99912680781425
          ],
          [
            -0.013310255953793764,
            59.99910392194737
          ],
          [
            -0.013381509233027384,
            59.999082880408885
          ],
          [
            -0.01345502993076233,
            59.999061964910894
          ],
          [
            -0.01353065296503905,
            59.99904092260016
          ],
          [
            -0.013608167346658604,
            59.99902369421445
          ],
          [
            -0.013687318664316814,
            59.999006594185964
          ],
          [
            -0.01376759510829693,
            59.99898752263023
          ],
          [
            -0.013848170379023776,
            59.998968451074504
          ],
          [
            -0.013928595615511389,
            59.99894937951878
          ],
          [
            -0.014008876525738016,
            59.99892846672362
          ],
          [
            -0.014088850797471596,
            59.99890558085675
          ],
          [
            -0.014168136703274369,
            59.998882694989874
          ],
          [
            -0.014246189611436252,
            59.998857969041936
          ],
          [
            -0.014322540600576316,
            59.99882942916897
          ],
          [
            -0.014397076590597517,
            59.998800753988625
          ],
          [
            -0.014469795470284704,
            59.998770375965194
          ],
          [
            -0.014540304310109388,
            59.998737885701466
          ],
          [
            -0.014608287568766703,
            59.99870553306184
          ],
          [
            -0.014673564299762356,
            59.998669366497175
          ],
          [
            -0.014735785673321879,
            59.998631223385715
          ],
          [
            -0.014794882421882658,
            59.998593080274254
          ],
          [
            -0.014851455498112256,
            59.9985549371628
          ],
          [
            -0.014906491143528865,
            59.998514957831475
          ],
          [
            -0.014960114101275023,
            59.99847300040887
          ],
          [
            -0.015011715183500588,
            59.998429207538635
          ],
          [
            -0.015060933157870616,
            59.99838527086639
          ],
          [
            -0.015107790867045121,
            59.9983414787684
          ],
          [
            -0.01515246428979578,
            59.99829570703465
          ],
          [
            -0.015195081435122505,
            59.9982499353009
          ],
          [
            -0.015235793492378179,
            59.99820233005012
          ],
          [
            -0.015274859015210172,
            59.998152744005225
          ],
          [
            -0.015312516195255308,
            59.998104990705116
          ],
          [
            -0.015348906673187475,
            59.99805738661269
          ],
          [
            -0.01538419457611728,
            59.9980078005678
          ],
          [
            -0.015418623292447184,
            59.99795638293647
          ],
          [
            -0.015452425269798434,
            59.997904813780735
          ],
          [
            -0.015485848621355316,
            59.99785522773584
          ],
          [
            -0.015519242224807057,
            59.99780381126288
          ],
          [
            -0.015552964985616466,
            59.997752240948785
          ],
          [
            -0.015587191225709495,
            59.99770082524805
          ],
          [
            -0.015621867882983408,
            59.99764742489201
          ],
          [
            -0.015656963517608445,
            59.99759402453597
          ],
          [
            -0.015692480103169128,
            59.9975424526774
          ],
          [
            -0.01572834193275683,
            59.99749103852115
          ],
          [
            -0.01576458316977814,
            59.9974376381651
          ],
          [
            -0.015801370121293127,
            59.997384237809065
          ],
          [
            -0.015838766314417576,
            59.99733083745302
          ],
          [
            -0.01587673097037436,
            59.997277437096976
          ],
          [
            -0.0159152622530749,
            59.99722221056018
          ],
          [
            -0.01595435835786199,
            59.99716682168763
          ],
          [
            -0.015993980737243473,
            59.99711342133158
          ],
          [
            -0.01603405051926565,
            59.99706002097554
          ],
          [
            -0.016074449012086763,
            59.99700479598322
          ],
          [
            -0.016115078827783194,
            59.99694940556619
          ],
          [
            -0.016155930170129378,
            59.996894181346114
          ],
          [
            -0.01619704335852338,
            59.996838790156836
          ],
          [
            -0.016238421644224586,
            59.996783566709
          ],
          [
            -0.016280041463911304,
            59.99672817474749
          ],
          [
            -0.01632187627101857,
            59.99667295207189
          ],
          [
            -0.016363892382419185,
            59.996615737404696
          ],
          [
            -0.016406106255065275,
            59.99655852273751
          ],
          [
            -0.01644853245872733,
            59.99650130807032
          ],
          [
            -0.016491090825461907,
            59.996444093403134
          ],
          [
            -0.016533735873351402,
            59.99638687873595
          ],
          [
            -0.016576551943669457,
            59.99632966406875
          ],
          [
            -0.016619608331868353,
            59.996272449401566
          ],
          [
            -0.016662837356463244,
            59.99621523473438
          ],
          [
            -0.016706153621919528,
            59.99615802006719
          ],
          [
            -0.01674958868762525,
            59.9961008054
          ],
          [
            -0.016793201209301455,
            59.996041772660575
          ],
          [
            -0.016836983982028642,
            59.99598256136836
          ],
          [
            -0.01688091324926371,
            59.99592352940117
          ],
          [
            -0.01692490500325135,
            59.99586431733672
          ],
          [
            -0.016968635813358224,
            59.995807102669524
          ],
          [
            -0.017011464667697006,
            59.99574988800234
          ],
          [
            -0.01705269309763421,
            59.99569267333515
          ],
          [
            -0.017091837103997386,
            59.995637274037364
          ],
          [
            -0.01712851665341664,
            59.9955856886646
          ],
          [
            -0.01716256549172952,
            59.99553428802254
          ],
          [
            -0.0171938983968536,
            59.99548270187754
          ],
          [
            -0.01722224598061323,
            59.99543492965757
          ],
          [
            -0.017247423610991276,
            59.99538915792382
          ],
          [
            -0.017269460963318283,
            59.995343386190065
          ],
          [
            -0.017288291259407684,
            59.99529761445631
          ],
          [
            -0.017303802597210007,
            59.995253655003005
          ],
          [
            -0.01731618273605351,
            59.9952116975804
          ],
          [
            -0.01732538418008944,
            59.9951697401578
          ],
          [
            -0.01733125080234051,
            59.99512959385728
          ],
          [
            -0.017333857045884415,
            59.99509145074582
          ],
          [
            -0.017333131482883964,
            59.995051497284514
          ],
          [
            -0.017329027985285,
            59.99501315978936
          ],
          [
            -0.0173216445857471,
            59.994977021411444
          ],
          [
            -0.01731091072598353,
            59.99493887829998
          ],
          [
            -0.017296739735478166,
            59.99490254399389
          ],
          [
            -0.017279320428035618,
            59.99486640677433
          ],
          [
            -0.017258939904507685,
            59.99483007169599
          ],
          [
            -0.017236238220585877,
            59.99479574289568
          ],
          [
            -0.0172127633654211,
            59.994759606834485
          ],
          [
            -0.017190543924064116,
            59.99472327059779
          ],
          [
            -0.017171054739035692,
            59.99468894179748
          ],
          [
            -0.01715481744974306,
            59.99465461299717
          ],
          [
            -0.017141848465412047,
            59.99462028419685
          ],
          [
            -0.017131979941883518,
            59.99458595539654
          ],
          [
            -0.0171250388501238,
            59.99455162659623
          ],
          [
            -0.01712101881913074,
            59.99451549323786
          ],
          [
            -0.01712008471006247,
            59.99447915429833
          ],
          [
            -0.017122366435691483,
            59.99444482549802
          ],
          [
            -0.017128031909288455,
            59.99440869329801
          ],
          [
            -0.01713733395496208,
            59.99437235320013
          ],
          [
            -0.017150092551723,
            59.994338024399816
          ],
          [
            -0.017166115564291363,
            59.99430189335817
          ],
          [
            -0.017185557877037103,
            59.99426555210192
          ],
          [
            -0.01720852237262919,
            59.99423122330161
          ],
          [
            -0.017235068009737602,
            59.99419869558427
          ],
          [
            -0.01726503124851145,
            59.99416638039825
          ],
          [
            -0.017298225730706954,
            59.99413385190867
          ],
          [
            -0.017334601822272828,
            59.994101537494885
          ],
          [
            -0.017374102235713455,
            59.99406900823307
          ],
          [
            -0.01741668846019341,
            59.9940384937439
          ],
          [
            -0.017462295217456715,
            59.99400977802099
          ],
          [
            -0.017510875880989527,
            59.99398127946283
          ],
          [
            -0.01756244202630317,
            59.99395256296768
          ],
          [
            -0.017616844125038035,
            59.99392586278966
          ],
          [
            -0.017673648782435904,
            59.99389916261163
          ],
          [
            -0.017732447651449997,
            59.993872462433615
          ],
          [
            -0.01779280422137673,
            59.993845762255596
          ],
          [
            -0.017854357093754925,
            59.99381906207757
          ],
          [
            -0.017917015921258557,
            59.99379236189955
          ],
          [
            -0.017980680134543462,
            59.99376566172153
          ],
          [
            -0.018045136679454038,
            59.99373896154351
          ],
          [
            -0.0181101769994453,
            59.99371226136549
          ],
          [
            -0.018175781460157532,
            59.99368376705465
          ],
          [
            -0.01824203211060181,
            59.99365325256548
          ],
          [
            -0.018308933591971735,
            59.99362453143689
          ],
          [
            -0.01837646560300529,
            59.99359603828441
          ],
          [
            -0.018444803011652803,
            59.99356552379524
          ],
          [
            -0.018514091543333926,
            59.9935368015083
          ],
          [
            -0.018584259227338328,
            59.993508309514176
          ],
          [
            -0.01865528189016447,
            59.99347779502501
          ],
          [
            -0.0187271575028522,
            59.99344728053584
          ],
          [
            -0.01879984304356945,
            59.99341676604667
          ],
          [
            -0.018873309748767955,
            59.9933862515575
          ],
          [
            -0.018947553362754457,
            59.99335573706834
          ],
          [
            -0.01902253999479809,
            59.99332522257917
          ],
          [
            -0.019098213552715074,
            59.993294708090005
          ],
          [
            -0.019174557707757067,
            59.99326419360084
          ],
          [
            -0.01925158356875735,
            59.99323367911167
          ],
          [
            -0.019329274316183916,
            59.9932013766676
          ],
          [
            -0.019407535450469787,
            59.993168835436066
          ],
          [
            -0.01948618990211411,
            59.993138320946905
          ],
          [
            -0.019564893313716195,
            59.99310601966119
          ],
          [
            -0.01964258361269886,
            59.9930734772713
          ],
          [
            -0.019717808934677176,
            59.993042962782134
          ],
          [
            -0.01978970688795623,
            59.993012448292966
          ],
          [
            -0.019857991208914173,
            59.9929819338038
          ],
          [
            -0.019922696315749226,
            59.99295320418057
          ],
          [
            -0.0199839594892901,
            59.992926504002554
          ],
          [
            -0.02004184486850242,
            59.99289801973083
          ],
          [
            -0.020096369151340127,
            59.992869288949244
          ],
          [
            -0.02014758336415859,
            59.99284437209269
          ],
          [
            -0.020195571106777124,
            59.99281970329047
          ],
          [
            -0.02024048711677775,
            59.992793003112446
          ],
          [
            -0.020282417389397886,
            59.99276808509753
          ],
          [
            -0.02032121220785092,
            59.992743417453674
          ],
          [
            -0.02035664046761199,
            59.99271671727565
          ],
          [
            -0.02038855968792206,
            59.99269179810238
          ],
          [
            -0.02041687564897293,
            59.99266713161687
          ],
          [
            -0.020441533617541377,
            59.99264221167136
          ],
          [
            -0.020462520559070666,
            59.9926175459581
          ],
          [
            -0.020479850374193552,
            59.99259084578007
          ],
          [
            -0.02049355211642521,
            59.9925659246762
          ],
          [
            -0.020503628273242758,
            59.9925412601213
          ],
          [
            -0.02051008702593465,
            59.99251633824518
          ],
          [
            -0.020513006530991165,
            59.99249345237831
          ],
          [
            -0.0205125089594792,
            59.992470566511436
          ],
          [
            -0.020508700323344974,
            59.99244768064456
          ],
          [
            -0.020501697298775448,
            59.99242479477768
          ],
          [
            -0.02049165166087496,
            59.99240368528212
          ],
          [
            -0.020478706742607686,
            59.9923828377412
          ],
          [
            -0.020462911943756712,
            59.992361727473394
          ],
          [
            -0.020444320363754678,
            59.99234443113062
          ],
          [
            -0.0204230428960964,
            59.9923273990592
          ],
          [
            -0.020399175373264782,
            59.99230832750347
          ],
          [
            -0.020372823285772015,
            59.992291030002335
          ],
          [
            -0.020344081297372446,
            59.99227577275775
          ],
          [
            -0.020313034020857157,
            59.992262288795516
          ],
          [
            -0.020279811441369148,
            59.99224907296585
          ],
          [
            -0.02024459732802776,
            59.99223558823138
          ],
          [
            -0.02020754645396721,
            59.99222414529794
          ],
          [
            -0.020168762436308125,
            59.992214474102376
          ],
          [
            -0.02012835107764208,
            59.992206845480084
          ],
          [
            -0.02008638153476731,
            59.99219921685779
          ],
          [
            -0.020042882403866934,
            59.992193358815015
          ],
          [
            -0.019997827359419643,
            59.99218954450387
          ],
          [
            -0.019951139922412035,
            59.99218573019272
          ],
          [
            -0.01990278967239622,
            59.99218191588158
          ],
          [
            -0.019852818686913177,
            59.99217810157043
          ],
          [
            -0.019801289682836017,
            59.9921760559082
          ],
          [
            -0.019748261248040022,
            59.9921760559082
          ],
          [
            -0.01969379642195483,
            59.9921760559082
          ],
          [
            -0.01963789664897413,
            59.99217782339876
          ],
          [
            -0.019580564239028955,
            59.99217987060547
          ],
          [
            -0.019521884395429012,
            59.99218163732379
          ],
          [
            -0.01946187150296485,
            59.99218721796713
          ],
          [
            -0.019400490118885196,
            59.99219308064335
          ],
          [
            -0.019337757795476765,
            59.99219689495449
          ],
          [
            -0.01927370988001144,
            59.99220247443947
          ],
          [
            -0.019208373887720318,
            59.99220833827405
          ],
          [
            -0.01914193668734592,
            59.99221391698679
          ],
          [
            -0.01907463490746216,
            59.992221545609084
          ],
          [
            -0.019006398475879423,
            59.992229174231376
          ],
          [
            -0.018937089518233953,
            59.99223680285367
          ],
          [
            -0.0188667008672864,
            59.99224443147596
          ],
          [
            -0.01879522479288546,
            59.99225206009825
          ],
          [
            -0.01872265154812111,
            59.992259688720544
          ],
          [
            -0.01864897125591328,
            59.99226731734284
          ],
          [
            -0.018574186354262088,
            59.99227494596513
          ],
          [
            -0.018498302571830976,
            59.99228257458742
          ],
          [
            -0.01842132793097317,
            59.99229020320971
          ],
          [
            -0.01834328148239789,
            59.992297831832005
          ],
          [
            -0.0182641807026009,
            59.99230722022246
          ],
          [
            -0.018184026167314196,
            59.992316903773855
          ],
          [
            -0.01810282159372115,
            59.99232453239615
          ],
          [
            -0.01802058116444886,
            59.99233216101844
          ],
          [
            -0.017937318627497683,
            59.99233978964073
          ],
          [
            -0.017853046449987975,
            59.99234917610058
          ],
          [
            -0.017767773796498975,
            59.99235886158258
          ],
          [
            -0.0176816285196274,
            59.99236649020487
          ],
          [
            -0.017594718065774395,
            59.99237411882716
          ],
          [
            -0.017506954083768993,
            59.99238350374254
          ],
          [
            -0.017418289888705488,
            59.99239319076901
          ],
          [
            -0.017328744958567115,
            59.9924008193913
          ],
          [
            -0.017238338919229688,
            59.99241020314832
          ],
          [
            -0.0171470852506233,
            59.99241989133315
          ],
          [
            -0.017054996540800095,
            59.99242751995544
          ],
          [
            -0.016962080276916553,
            59.992436902554104
          ],
          [
            -0.01686833857894106,
            59.99244659189729
          ],
          [
            -0.016773783475407793,
            59.99245422051958
          ],
          [
            -0.016678425433268758,
            59.992463601959884
          ],
          [
            -0.01658226847812368,
            59.99247329246143
          ],
          [
            -0.01648531945390152,
            59.992482673129494
          ],
          [
            -0.016387604376171847,
            59.99249236440328
          ],
          [
            -0.016289288050367324,
            59.992501744299105
          ],
          [
            -0.016190403745214868,
            59.99251143634513
          ],
          [
            -0.016090801550086874,
            59.992520815468716
          ],
          [
            -0.015990504664486472,
            59.99253050828698
          ],
          [
            -0.01588953644108775,
            59.992539886638326
          ],
          [
            -0.015787922641530745,
            59.99254958022883
          ],
          [
            -0.015685686227225357,
            59.99255895780794
          ],
          [
            -0.015582840387219457,
            59.99256865217068
          ],
          [
            -0.015479392452764633,
            59.99257802897754
          ],
          [
            -0.015375352897735015,
            59.99258772411253
          ],
          [
            -0.015270722929549283,
            59.99259710014715
          ],
          [
            -0.015165472255370634,
            59.99260679605438
          ],
          [
            -0.015059563669093286,
            59.99261617131676
          ],
          [
            -0.014952952725418947,
            59.992625867996225
          ],
          [
            -0.014845598166004727,
            59.99263349661852
          ],
          [
            -0.014737487257303537,
            59.99264112524081
          ],
          [
            -0.01462863025582198,
            59.9926487538631
          ],
          [
            -0.014519053814889804,
            59.9926546377759
          ],
          [
            -0.014408793719086,
            59.99265845208705
          ],
          [
            -0.014297889441394193,
            59.99266226639819
          ],
          [
            -0.014186361756285737,
            59.99266608070934
          ],
          [
            -0.014074240136065714,
            59.992669895020484
          ],
          [
            -0.013961695774163983,
            59.992671966552734
          ],
          [
            -0.013848796130833061,
            59.992671966552734
          ],
          [
            -0.013735433275756078,
            59.992671966552734
          ],
          [
            -0.013621643116288626,
            59.9926702249322
          ],
          [
            -0.01350745811605916,
            59.99266815185547
          ],
          [
            -0.013392906995199284,
            59.99266641100717
          ],
          [
            -0.013278017565909626,
            59.99266259669603
          ],
          [
            -0.013162801570420333,
            59.99265704230882
          ],
          [
            -0.013047262814472367,
            59.99265115337647
          ],
          [
            -0.01293142617219021,
            59.9926455997615
          ],
          [
            -0.012815306764822954,
            59.99263797113921
          ],
          [
            -0.012698905099071919,
            59.99262860398534
          ],
          [
            -0.012582234405812793,
            59.99261889919736
          ],
          [
            -0.012465285127074531,
            59.99260953281573
          ],
          [
            -0.012348032506552874,
            59.99259982725551
          ],
          [
            -0.012230420662738868,
            59.992590461646124
          ],
          [
            -0.012112397399888624,
            59.99257901871268
          ],
          [
            -0.011993953278484936,
            59.99256757577925
          ],
          [
            -0.011875112595479697,
            59.992556132845806
          ],
          [
            -0.011756102500983133,
            59.99254468991237
          ],
          [
            -0.01163800561300091,
            59.99253324697893
          ],
          [
            -0.01152252420890609,
            59.99252353871588
          ],
          [
            -0.011410634577345799,
            59.99251417580932
          ],
          [
            -0.01130243569807187,
            59.99250446677403
          ],
          [
            -0.011197755664601272,
            59.99249683815174
          ],
          [
            -0.0110963794874937,
            59.992489209529445
          ],
          [
            -0.010998133479809094,
            59.99248158090715
          ],
          [
            -0.01090273730605928,
            59.99247395228486
          ],
          [
            -0.010809739346196532,
            59.99246805563011
          ],
          [
            -0.010718711775702262,
            59.99246250973754
          ],
          [
            -0.01062934440069032,
            59.99245834350586
          ],
          [
            -0.010541414588618426,
            59.99245661269667
          ],
          [
            -0.010454774637896727,
            59.99245625923166
          ],
          [
            -0.010369403938200704,
            59.99245834350586
          ],
          [
            -0.010285349234767127,
            59.99246180280751
          ],
          [
            -0.010202607315040172,
            59.992467702165094
          ],
          [
            -0.01012118767807383,
            59.99247497423342
          ],
          [
            -0.010041235628450705,
            59.99248468867439
          ],
          [
            -0.009963023396040577,
            59.992495773509376
          ],
          [
            -0.009886794345503788,
            59.99251103075395
          ],
          [
            -0.009812585410203445,
            59.99252628799854
          ],
          [
            -0.009740424420170254,
            59.992543272191114
          ],
          [
            -0.009670378815860527,
            59.99256234374684
          ],
          [
            -0.00960238557058434,
            59.99258141530257
          ],
          [
            -0.009536329175401752,
            59.99260221264793
          ],
          [
            -0.0094720002517283,
            59.9926250985148
          ],
          [
            -0.009409425508053708,
            59.99264970939907
          ],
          [
            -0.009348880939251509,
            59.992676409577086
          ],
          [
            -0.009290436930923893,
            59.99270310975511
          ],
          [
            -0.009234175345997749,
            59.99273153379216
          ],
          [
            -0.009180186939277168,
            59.99276204828133
          ],
          [
            -0.00912828878299382,
            59.992794285857286
          ],
          [
            -0.009078397836078776,
            59.992828614657604
          ],
          [
            -0.0090307869262597,
            59.992862943457915
          ],
          [
            -0.008985625267766145,
            59.99289899418666
          ],
          [
            -0.008942656452034847,
            59.99293713729812
          ],
          [
            -0.008901430762171286,
            59.992975280409574
          ],
          [
            -0.008861822421295573,
            59.993013423521035
          ],
          [
            -0.008823964561523357,
            59.99305328701645
          ],
          [
            -0.00878790300526651,
            59.993095244439054
          ],
          [
            -0.008753597711566273,
            59.99313720186166
          ],
          [
            -0.008721158139758621,
            59.993180878509854
          ],
          [
            -0.008690891567887684,
            59.993224931404136
          ],
          [
            -0.008662768552520954,
            59.99326860728009
          ],
          [
            -0.00863676753027576,
            59.993314379013846
          ],
          [
            -0.008612980980593642,
            59.9933601507476
          ],
          [
            -0.008591398923400516,
            59.99340763977634
          ],
          [
            -0.008572078680451446,
            59.99345550891236
          ],
          [
            -0.008554970433765767,
            59.99350299716887
          ],
          [
            -0.008540035872274228,
            59.99355258321377
          ],
          [
            -0.008527286589008401,
            59.993602169258665
          ],
          [
            -0.008516686754935606,
            59.99365175530356
          ],
          [
            -0.008508244039471721,
            59.993701341348455
          ],
          [
            -0.00850210086972408,
            59.99375264198551
          ],
          [
            -0.008498343788072285,
            59.99380432813552
          ],
          [
            -0.008496962866181644,
            59.99385562800033
          ],
          [
            -0.00849800054305514,
            59.99390902835638
          ],
          [
            -0.008501472038316533,
            59.993962428712415
          ],
          [
            -0.008507367205078638,
            59.9940141164069
          ],
          [
            -0.00851576094455923,
            59.99406541472724
          ],
          [
            -0.008526604960228274,
            59.99411881508328
          ],
          [
            -0.008539894213298963,
            59.99417221543932
          ],
          [
            -0.00855561601590342,
            59.994227326912444
          ],
          [
            -0.008573785853365105,
            59.994282830848675
          ],
          [
            -0.008594542987248096,
            59.99433623120471
          ],
          [
            -0.0086175409072165,
            59.99438963156076
          ],
          [
            -0.008642544069190338,
            59.9944430319168
          ],
          [
            -0.008669541869260035,
            59.994498141459324
          ],
          [
            -0.008698209862810408,
            59.99455364732615
          ],
          [
            -0.00872825949468453,
            59.99460875609644
          ],
          [
            -0.008759551497743075,
            59.994664262735505
          ],
          [
            -0.008791711230205862,
            59.99471766309155
          ],
          [
            -0.008824341409445977,
            59.99477277070347
          ],
          [
            -0.008857204380289514,
            59.994829985370664
          ],
          [
            -0.00889025279482042,
            59.99488720003785
          ],
          [
            -0.008923411579688432,
            59.99494270860752
          ],
          [
            -0.008956507852809449,
            59.99499781467496
          ],
          [
            -0.008989447234039695,
            59.99505502934215
          ],
          [
            -0.009022179566520242,
            59.99511224400934
          ],
          [
            -0.00905448969419959,
            59.99516945867653
          ],
          [
            -0.009085831170327466,
            59.995226673343716
          ],
          [
            -0.009115690337288112,
            59.9952838880109
          ],
          [
            -0.00914409555023611,
            59.99533939928341
          ],
          [
            -0.009170975979017152,
            59.99539450264802
          ],
          [
            -0.009195700620704406,
            59.99545001469276
          ],
          [
            -0.009217502053699441,
            59.99550171281248
          ],
          [
            -0.00923568140955339,
            59.99555300070758
          ],
          [
            -0.009249793797208248,
            59.995606401063625
          ],
          [
            -0.00925954626756378,
            59.99565980141966
          ],
          [
            -0.00926476748818603,
            59.99571320177571
          ],
          [
            -0.009265452774249188,
            59.99576660213175
          ],
          [
            -0.009261617617379184,
            59.99581830256819
          ],
          [
            -0.00925335878616218,
            59.99586958814657
          ],
          [
            -0.009240575258958364,
            59.99592298850261
          ],
          [
            -0.009223020344514539,
            59.995974690097405
          ],
          [
            -0.009200636707851238,
            59.99602427614231
          ],
          [
            -0.009173526999416174,
            59.99607556017621
          ],
          [
            -0.009142074347139076,
            59.99612726292936
          ],
          [
            -0.00910661288104251,
            59.99617515175749
          ],
          [
            -0.009067960194747269,
            59.996220923491244
          ],
          [
            -0.009027261417763374,
            59.99626669522499
          ],
          [
            -0.0089853043167721,
            59.99631077090033
          ],
          [
            -0.008942497322866373,
            59.99635272832294
          ],
          [
            -0.008898948424135663,
            59.99639299045937
          ],
          [
            -0.008854647379317453,
            59.99642943867078
          ],
          [
            -0.008809769994404562,
            59.99646376747109
          ],
          [
            -0.008764718102599385,
            59.9964980962714
          ],
          [
            -0.008719648733342467,
            59.996530731330026
          ],
          [
            -0.008674559180685012,
            59.99655955246362
          ],
          [
            -0.008629247868860223,
            59.99658625264164
          ],
          [
            -0.008583113927832774,
            59.99661295281966
          ],
          [
            -0.008535741985337368,
            59.99663796080047
          ],
          [
            -0.008487238003089136,
            59.99665915485625
          ],
          [
            -0.00843776143172219,
            59.99667822641198
          ],
          [
            -0.00838730748697193,
            59.996697297967714
          ],
          [
            -0.008335875907151766,
            59.9967146788707
          ],
          [
            -0.008283651921975266,
            59.99672824584867
          ],
          [
            -0.008230823694343404,
            59.996739688782114
          ],
          [
            -0.00817758305133514,
            59.99675113171555
          ],
          [
            -0.008124256286353363,
            59.99676088554073
          ],
          [
            -0.008071080225435389,
            59.996766825440886
          ],
          [
            -0.00801812670860984,
            59.99677063975203
          ],
          [
            -0.007965445111554243,
            59.99677445406318
          ],
          [
            -0.007912936624009905,
            59.99677658081055
          ],
          [
            -0.007860337817998888,
            59.99677658081055
          ],
          [
            -0.0078075728531028,
            59.99677489401901
          ],
          [
            -0.007754865296600363,
            59.99677107970786
          ],
          [
            -0.007702432073728838,
            59.99676557937742
          ],
          [
            -0.007650318749435462,
            59.996757950755125
          ],
          [
            -0.007598382652540702,
            59.99675032213283
          ],
          [
            -0.00754612152922518,
            59.99674269351054
          ],
          [
            -0.007492837467437775,
            59.99673338041343
          ],
          [
            -0.007438040547333202,
            59.99672193748
          ],
          [
            -0.007381552015658527,
            59.99671217824913
          ],
          [
            -0.007323338638619242,
            59.99670454962684
          ],
          [
            -0.007263421715756785,
            59.99669523807421
          ],
          [
            -0.007201847127316236,
            59.996685477685
          ],
          [
            -0.007138656151692518,
            59.996677849062706
          ],
          [
            -0.007073927918903441,
            59.99667190221239
          ],
          [
            -0.007007985664098386,
            59.99666640651539
          ],
          [
            -0.006940965374601022,
            59.996658777893096
          ],
          [
            -0.006872625983130754,
            59.996652829884425
          ],
          [
            -0.00680301673576752,
            59.996649015573276
          ],
          [
            -0.006732191288203084,
            59.99664520126213
          ],
          [
            -0.006660172954953276,
            59.996641386950984
          ],
          [
            -0.00658697970033474,
            59.99663757263984
          ],
          [
            -0.006512626311828786,
            59.99663375832869
          ],
          [
            -0.0064371230470465605,
            59.99663162231445
          ],
          [
            -0.006360479122885943,
            59.99662994440367
          ],
          [
            -0.006282721185916135,
            59.99662780761719
          ],
          [
            -0.00620387176879861,
            59.99662780761719
          ],
          [
            -0.006123950720418965,
            59.99662780761719
          ],
          [
            -0.006042977408346413,
            59.99662780761719
          ],
          [
            -0.005960965727072963,
            59.99662780761719
          ],
          [
            -0.00587793389510722,
            59.99662780761719
          ],
          [
            -0.005793906423792384,
            59.996629482825135
          ],
          [
            -0.005708897753813073,
            59.99663162231445
          ],
          [
            -0.005622923157367392,
            59.99663162231445
          ],
          [
            -0.005536005672195394,
            59.99663329636404
          ],
          [
            -0.005448286786419009,
            59.99663711067519
          ],
          [
            -0.00535987296273131,
            59.996639251708984
          ],
          [
            -0.005270652219036339,
            59.996640924600214
          ],
          [
            -0.0051805744732966695,
            59.99664473891136
          ],
          [
            -0.005089642662079978,
            59.99664855322251
          ],
          [
            -0.004997866019009595,
            59.99665236753365
          ],
          [
            -0.004905241546944418,
            59.9966561818448
          ],
          [
            -0.004811768842890907,
            59.99666166711657
          ],
          [
            -0.004717451369415867,
            59.996667625164356
          ],
          [
            -0.004622297336047673,
            59.9966714394755
          ],
          [
            -0.004526318058549909,
            59.99667525378665
          ],
          [
            -0.004429523081050019,
            59.99667906809779
          ],
          [
            -0.004331922207893994,
            59.99668288240894
          ],
          [
            -0.004233516980335433,
            59.996688365363994
          ],
          [
            -0.00413434675939514,
            59.9966943257285
          ],
          [
            -0.0040345693655456615,
            59.99669814003964
          ],
          [
            -0.003934209618681249,
            59.99670195435078
          ],
          [
            -0.0038331329388821864,
            59.99670576866193
          ],
          [
            -0.0037313425466766344,
            59.99671124968639
          ],
          [
            -0.003628839498019001,
            59.99671721198149
          ],
          [
            -0.003525635075706213,
            59.99672102629263
          ],
          [
            -0.0034217428576294976,
            59.99672484060378
          ],
          [
            -0.003317166623310103,
            59.996728654914925
          ],
          [
            -0.003211899773961796,
            59.996732469226075
          ],
          [
            -0.00310594875795347,
            59.99673628353722
          ],
          [
            -0.0029993202501483285,
            59.99674009784837
          ],
          [
            -0.0028920250418598237,
            59.99674391215951
          ],
          [
            -0.00278409718407053,
            59.99674772647066
          ],
          [
            -0.002675542356498744,
            59.9967515407818
          ],
          [
            -0.0025663603623913823,
            59.99675369262695
          ],
          [
            -0.0024565511245297107,
            59.99675535470683
          ],
          [
            -0.0023461206851580867,
            59.99675916901798
          ],
          [
            -0.0022350786106711696,
            59.99676298332912
          ],
          [
            -0.0021234258774782983,
            59.99676513671875
          ],
          [
            -0.0020111598941791957,
            59.996766797254146
          ],
          [
            -0.0018983108258644244,
            59.996768951416016
          ],
          [
            -0.0017850385797258837,
            59.99677061117917
          ],
          [
            -0.001671366109181147,
            59.99677276611328
          ],
          [
            -0.001557141783133195,
            59.9967744251042
          ],
          [
            -0.0014423825627643502,
            59.99677658081055
          ],
          [
            -0.0013271992406187524,
            59.996778239029226
          ],
          [
            -0.0012123388092550747,
            59.99678039550781
          ],
          [
            -0.0010994529370535308,
            59.99678205295425
          ],
          [
            -0.000989973971563284,
            59.99678421020508
          ],
          [
            -0.0008843512149590781,
            59.99678586687928
          ],
          [
            -0.0007825696310294603,
            59.996788024902344
          ],
          [
            -0.0006845505450991444,
            59.996789680804305
          ],
          [
            -0.0005902040865891188,
            59.99679183959961
          ],
          [
            -0.0004993901114771953,
            59.99679349472933
          ],
          [
            -0.00041201699089464544,
            59.996795654296875
          ],
          [
            -0.00032800656144924787,
            59.99679730865436
          ],
          [
            -0.00024730194110037895,
            59.99679946899414
          ],
          [
            -0.00016987418773093535,
            59.99679946899414
          ],
          [
            -9.565809854002351e-05,
            59.99680112219326
          ],
          [
            -2.4529101027808313e-05,
            59.996803283691406
          ],
          [
            4.367011607626496e-05,
            59.996803283691406
          ],
          [
            0.0001091116969347772,
            59.996803283691406
          ],
          [
            0.00017211865602041225,
            59.996801632036764
          ],
          [
            0.00023303803370791173,
            59.99679946899414
          ],
          [
            0.0002919756339562935,
            59.99679781811174
          ],
          [
            0.0003488514583001171,
            59.99679400380059
          ],
          [
            0.0004036107499135028,
            59.99678853937928
          ],
          [
            0.0004562667422458129,
            59.99678091075699
          ],
          [
            0.00050682026627907,
            59.9967732821347
          ],
          [
            0.000555348121034562,
            59.996765653512405
          ],
          [
            0.0006019467092337506,
            59.99675637632443
          ],
          [
            0.0006465467662261946,
            59.996744933390985
          ],
          [
            0.0006891109337977473,
            59.99673349045755
          ],
          [
            0.0007298899587396304,
            59.996720400116786
          ],
          [
            0.000769100848302562,
            59.99670678989341
          ],
          [
            0.0008069249535501374,
            59.99669370032488
          ],
          [
            0.0008438342345225038,
            59.99667679683133
          ],
          [
            0.0008805365398134658,
            59.99665937113845
          ],
          [
            0.0009179664980205734,
            59.996644113893865
          ],
          [
            0.0009566137517887321,
            59.99662885664928
          ],
          [
            0.0009965159091654442,
            59.99661524410919
          ],
          [
            0.0010376090089010775,
            59.99660380117575
          ],
          [
            0.0010797532666913137,
            59.99659400217456
          ],
          [
            0.0011227447534484516,
            59.99658473000614
          ],
          [
            0.0011662689292493203,
            59.99657657339272
          ],
          [
            0.0012100294500808357,
            59.996571116307685
          ],
          [
            0.0012538529008182563,
            59.996565130073165
          ],
          [
            0.001297815594483342,
            59.99656295776367
          ],
          [
            0.0013421916870632058,
            59.99656131614814
          ],
          [
            0.001387182367797465,
            59.996559143066406
          ],
          [
            0.0014328181307469332,
            59.9965607839097
          ],
          [
            0.001478938372231006,
            59.99656295776367
          ],
          [
            0.0015254450962096002,
            59.996566237905775
          ],
          [
            0.0015724272789113137,
            59.996572226843135
          ],
          [
            0.0016202083740988022,
            59.99657768045309
          ],
          [
            0.0016691179008207309,
            59.996585309075385
          ],
          [
            0.001719237994386773,
            59.99659293769768
          ],
          [
            0.0017706065546341792,
            59.99660056631997
          ],
          [
            0.0018232620127609349,
            59.99660819494226
          ],
          [
            0.001877230371092144,
            59.99661746093277
          ],
          [
            0.0019324867818811113,
            59.99662890386621
          ],
          [
            0.001988977885685224,
            59.996640346799644
          ],
          [
            0.0020466664157307063,
            59.996651789733086
          ],
          [
            0.002105537653142726,
            59.99666323266652
          ],
          [
            0.0021655913633433096,
            59.996676311037575
          ],
          [
            0.0022268033309019593,
            59.99668993323066
          ],
          [
            0.00228896949784037,
            59.99670301082948
          ],
          [
            0.002351904009128115,
            59.99671826807406
          ],
          [
            0.002415757448536925,
            59.996733525318646
          ],
          [
            0.002480652058736598,
            59.99674878256323
          ],
          [
            0.0025465934975923642,
            59.99676403980781
          ],
          [
            0.002613590664280125,
            59.99677929705239
          ],
          [
            0.0026816593315920735,
            59.996794554296976
          ],
          [
            0.002750790008460043,
            59.9968114435041
          ],
          [
            0.0028209486914863437,
            59.99682888348341
          ],
          [
            0.002892105626115499,
            59.996845771918295
          ],
          [
            0.002964252593799703,
            59.996863212669844
          ],
          [
            0.0030373897817340258,
            59.99688010033249
          ],
          [
            0.0031115140248127956,
            59.99689917188822
          ],
          [
            0.0031865996124081962,
            59.99691661379813
          ],
          [
            0.003262609235178172,
            59.99693350030241
          ],
          [
            0.0033395157606512854,
            59.99695257185814
          ],
          [
            0.003417298032821945,
            59.99697327190133
          ],
          [
            0.003495880246770155,
            59.996994529666864
          ],
          [
            0.003575033279558236,
            59.9970136012226
          ],
          [
            0.003654699887289585,
            59.997032672778325
          ],
          [
            0.0037350695613668694,
            59.99705337127703
          ],
          [
            0.003816088197358112,
            59.99707625714391
          ],
          [
            0.003897671016483963,
            59.99709751684004
          ],
          [
            0.003979759957346213,
            59.9971182141804
          ],
          [
            0.004062286241381769,
            59.99714110004727
          ],
          [
            0.0041451798222436305,
            59.99716561092653
          ],
          [
            0.0042283818044614825,
            59.99719068647829
          ],
          [
            0.004311830282845852,
            59.99721357234517
          ],
          [
            0.004395476783711057,
            59.99723808206606
          ],
          [
            0.004479331358182217,
            59.99726478224409
          ],
          [
            0.004563369481220407,
            59.997291482422106
          ],
          [
            0.004647414506734237,
            59.997319805295795
          ],
          [
            0.0047314307481022555,
            59.99734869747542
          ],
          [
            0.0048155525731793,
            59.99737701957687
          ],
          [
            0.004899708302871877,
            59.99740591252873
          ],
          [
            0.0049838437786921775,
            59.99743423385793
          ],
          [
            0.005067934828545706,
            59.9974647483471
          ],
          [
            0.005151947728904961,
            59.99749688321521
          ],
          [
            0.005235840810164756,
            59.9975295920227
          ],
          [
            0.005319609425556656,
            59.997561726118576
          ],
          [
            0.005403287792509275,
            59.99759605491889
          ],
          [
            0.005486905354374277,
            59.997630383719205
          ],
          [
            0.0055704547716989876,
            59.997664712519516
          ],
          [
            0.005653926143122549,
            59.99769904131983
          ],
          [
            0.00573733257302054,
            59.997733370120145
          ],
          [
            0.005820681063421798,
            59.997769316210444
          ],
          [
            0.005903962598056637,
            59.997807459321905
          ],
          [
            0.005987192720128779,
            59.997845602433365
          ],
          [
            0.006070388934454376,
            59.997883745544826
          ],
          [
            0.006153473213420524,
            59.99792188865628
          ],
          [
            0.006236386290755639,
            59.99796003176774
          ],
          [
            0.006319143053682737,
            59.9979981748792
          ],
          [
            0.006401679662050553,
            59.99803793257781
          ],
          [
            0.006483944997336878,
            59.99807827579939
          ],
          [
            0.006565860308897065,
            59.998118032725756
          ],
          [
            0.006647361122482617,
            59.99815999014836
          ],
          [
            0.006728472141109367,
            59.99820194757097
          ],
          [
            0.006809220682827636,
            59.998245517650126
          ],
          [
            0.006889558109293342,
            59.99828967711344
          ],
          [
            0.006969449016054905,
            59.99833324642036
          ],
          [
            0.00704897517338102,
            59.99837740665592
          ],
          [
            0.007128229388171542,
            59.9984209751906
          ],
          [
            0.007207230890533439,
            59.99846674692435
          ],
          [
            0.007286035924313177,
            59.998512518658096
          ],
          [
            0.007364912698777131,
            59.99855829039185
          ],
          [
            0.0074442406224092695,
            59.9986040621256
          ],
          [
            0.007524345890102888,
            59.99864983385935
          ],
          [
            0.0076054893322812225,
            59.998695605593106
          ],
          [
            0.007687762395052269,
            59.99874137732685
          ],
          [
            0.0077711207071851016,
            59.998787149060604
          ],
          [
            0.007855576289402925,
            59.99883292079436
          ],
          [
            0.007941120282054846,
            59.99887869252811
          ],
          [
            0.00802769739389433,
            59.998924464261854
          ],
          [
            0.008115423813449077,
            59.99897023599561
          ],
          [
            0.008204585325232954,
            59.99901440163684
          ],
          [
            0.008295411993784642,
            59.999057964765846
          ],
          [
            0.008387936916129794,
            59.99910213117932
          ],
          [
            0.008482193405435871,
            59.99914408860192
          ],
          [
            0.00857837311367322,
            59.999186046024526
          ],
          [
            0.00867659664534448,
            59.99922800344713
          ],
          [
            0.008777103375857388,
            59.99926835709394
          ],
          [
            0.008880153440493099,
            59.9993065002054
          ],
          [
            0.008985607056414994,
            59.99934304031329
          ],
          [
            0.009093266991703087,
            59.99937736911361
          ],
          [
            0.0092029983043867,
            59.99941169791392
          ],
          [
            0.009314701498397361,
            59.99944602671423
          ],
          [
            0.009428203698492187,
            59.99947875405547
          ],
          [
            0.009543338077819824,
            59.999509268544635
          ],
          [
            0.009659968692372609,
            59.9995397830338
          ],
          [
            0.009777947540655656,
            59.999568697222244
          ],
          [
            0.009896928063502402,
            59.99959699731487
          ],
          [
            0.010016052504189483,
            59.999625912275555
          ],
          [
            0.010133794930977508,
            59.99965261245357
          ],
          [
            0.010248673859849688,
            59.9996793126316
          ],
          [
            0.010360016233232036,
            59.99970601280962
          ],
          [
            0.01046767704286492,
            59.999731115003634
          ],
          [
            0.010571644675085671,
            59.99975400087051
          ],
          [
            0.010671880473321136,
            59.999776886737386
          ],
          [
            0.010768487055294653,
            59.99979977260426
          ],
          [
            0.010861770930703165,
            59.999821062031614
          ],
          [
            0.010951966816509912,
            59.99984013358734
          ],
          [
            0.01103906574038735,
            59.99985920514307
          ],
          [
            0.011122984558366876,
            59.9998782766988
          ],
          [
            0.011203655292936703,
            59.99989734825453
          ],
          [
            0.011281082719338779,
            59.99991641981026
          ],
          [
            0.011355218218971402,
            59.99993549136599
          ],
          [
            0.011426031985539374,
            59.999954562921715
          ],
          [
            0.01149357252204547,
            59.99997204112688
          ],
          [
            0.011557885837712919,
            59.99998889133591
          ],
          [
            0.011619098638414536,
            60.000007962891644
          ],
          [
            0.011677308830275943,
            60.00002703444737
          ],
          [
            0.011732467317701802,
            60.00004769780919
          ],
          [
            0.011784517679703474,
            60.0000689922561
          ],
          [
            0.011833417576757054,
            60.000089654845674
          ],
          [
            0.011879063583818858,
            60.00011254071255
          ],
          [
            0.011921410128959135,
            60.000135426579426
          ],
          [
            0.011960512618282512,
            60.00015990232179
          ],
          [
            0.01199638484134773,
            60.00018660249982
          ],
          [
            0.012028995844758753,
            60.000211713574586
          ],
          [
            0.012058303743792161,
            60.00023777687572
          ],
          [
            0.012084047971246594,
            60.00026670303388
          ],
          [
            0.012105969360479977,
            60.0002934032119
          ],
          [
            0.012124107028804591,
            60.000321690948695
          ],
          [
            0.012138503758855397,
            60.00035061826521
          ],
          [
            0.012149116421133428,
            60.00037731844323
          ],
          [
            0.012156084721485468,
            60.00040560502166
          ],
          [
            0.012159747249743256,
            60.00043453349654
          ],
          [
            0.012160798938673742,
            60.00046281930273
          ],
          [
            0.012160276221438795,
            60.00049174854985
          ],
          [
            0.012158425106498555,
            60.00051844872787
          ],
          [
            0.01215487075248161,
            60.000545148905886
          ],
          [
            0.012150078779143699,
            60.00057184908391
          ],
          [
            0.012144455963519655,
            60.00059854926193
          ],
          [
            0.012137749745611428,
            60.0006236661285
          ],
          [
            0.012130207333446648,
            60.00064813492071
          ],
          [
            0.012122003874357594,
            60.000673252559515
          ],
          [
            0.012112969580429537,
            60.00069613842639
          ],
          [
            0.012102959089118827,
            60.00071902429327
          ],
          [
            0.012091583282711373,
            60.00074191016014
          ],
          [
            0.01207882496468602,
            60.00076479602701
          ],
          [
            0.012064631880206633,
            60.00078768189389
          ],
          [
            0.012049355091706224,
            60.00080898753827
          ],
          [
            0.012033105227437814,
            60.000828059094
          ],
          [
            0.01201567898613531,
            60.00084871009999
          ],
          [
            0.011997484664223724,
            60.000870016902724
          ],
          [
            0.01197853600558245,
            60.00088908845845
          ],
          [
            0.011958847210399526,
            60.00090658172228
          ],
          [
            0.011938723424509311,
            60.000923416872645
          ],
          [
            0.01191760323728556,
            60.00094091090872
          ],
          [
            0.011895193395117036,
            60.00095774528684
          ],
          [
            0.011872007475034222,
            60.00097524009515
          ],
          [
            0.011847932286754877,
            60.000990497339735
          ],
          [
            0.011823140613530339,
            60.001004178609136
          ],
          [
            0.011797961402313166,
            60.00101719713164
          ],
          [
            0.011771960980067194,
            60.001032454376215
          ],
          [
            0.011744880647447914,
            60.00104613680398
          ],
          [
            0.011717225364371734,
            60.00105757973742
          ],
          [
            0.011688968299397183,
            60.00107059671544
          ],
          [
            0.011659956717076463,
            60.00108428030156
          ],
          [
            0.011630051231560478,
            60.001095723235
          ],
          [
            0.01159887627144336,
            60.00110716616844
          ],
          [
            0.01156640409713739,
            60.00111860910187
          ],
          [
            0.011532751475811148,
            60.00112847992133
          ],
          [
            0.011497732676853974,
            60.00113768027148
          ],
          [
            0.011461349423799014,
            60.00114912320492
          ],
          [
            0.011423549417248565,
            60.001158995182735
          ],
          [
            0.011384312233042806,
            60.00116819437453
          ],
          [
            0.011343633545488292,
            60.001178067124584
          ],
          [
            0.011301475569218771,
            60.00118569574688
          ],
          [
            0.01125778895551709,
            60.00119332436917
          ],
          [
            0.011212544012367388,
            60.00120095299146
          ],
          [
            0.011165733502502967,
            60.00120858161375
          ],
          [
            0.011117363064454018,
            60.001216210236045
          ],
          [
            0.011067462130475674,
            60.00122227099167
          ],
          [
            0.011016094113969995,
            60.00122608530281
          ],
          [
            0.010963322555600423,
            60.00122989961396
          ],
          [
            0.010909201787764703,
            60.0012337139251
          ],
          [
            0.010853784331092976,
            60.00123596191406
          ],
          [
            0.01079713204795034,
            60.00123596191406
          ],
          [
            0.010739312541660218,
            60.00123596191406
          ],
          [
            0.01068039538241091,
            60.001234396750235
          ],
          [
            0.010620473269314153,
            60.0012321472168
          ],
          [
            0.010559662199103637,
            60.00123058282521
          ],
          [
            0.010498103234835963,
            60.00122520450859
          ],
          [
            0.010435964858403266,
            60.0012175758863
          ],
          [
            0.010373439824288243,
            60.00120994726401
          ],
          [
            0.010310674536542417,
            60.00120231864172
          ],
          [
            0.010247776594630704,
            60.00119312755843
          ],
          [
            0.010184731851181935,
            60.001180122550124
          ],
          [
            0.0101212652964179,
            60.001166426994295
          ],
          [
            0.010057090053762707,
            60.00115342275822
          ],
          [
            0.009992090671187297,
            60.00113816551364
          ],
          [
            0.009926230407095678,
            60.001124468799446
          ],
          [
            0.009859431011753609,
            60.001109905577465
          ],
          [
            0.009791593587085182,
            60.001092393779885
          ],
          [
            0.009722639819900718,
            60.00107713653531
          ],
          [
            0.009652577568312717,
            60.001061879290724
          ],
          [
            0.009581441450797493,
            60.00104662204614
          ],
          [
            0.009509261560977568,
            60.00102980658788
          ],
          [
            0.009436062656597567,
            60.001012292859706
          ],
          [
            0.009361865142344437,
            60.000995478173685
          ],
          [
            0.009286686955978235,
            60.00097796367327
          ],
          [
            0.009210546641991566,
            60.00096114975949
          ],
          [
            0.009133452675518188,
            60.00094363448684
          ],
          [
            0.009055404259633974,
            60.0009268213453
          ],
          [
            0.008976403195117682,
            60.00090774978957
          ],
          [
            0.008896576073859106,
            60.00088867823384
          ],
          [
            0.00881602390082631,
            60.00086960667811
          ],
          [
            0.008734622389508685,
            60.00085208947486
          ],
          [
            0.008652353199920136,
            60.000835278263914
          ],
          [
            0.008569224711970781,
            60.00081620670819
          ],
          [
            0.008485221307635418,
            60.00079713515246
          ],
          [
            0.008400336870892132,
            60.00077806359673
          ],
          [
            0.008314590063690832,
            60.00075743961912
          ],
          [
            0.008227974520200498,
            60.000736105788
          ],
          [
            0.008140472299940861,
            60.000717034232274
          ],
          [
            0.008052087695113525,
            60.00069796267655
          ],
          [
            0.007962840983736834,
            60.00067889112081
          ],
          [
            0.007872744729999631,
            60.00065981956509
          ],
          [
            0.007781794143078944,
            60.00064074800935
          ],
          [
            0.0076899519462221445,
            60.00062012673459
          ],
          [
            0.007597270342189296,
            60.000598790200634
          ],
          [
            0.0075037761955233685,
            60.0005797186449
          ],
          [
            0.0074093316416508894,
            60.00056064708917
          ],
          [
            0.007313974350211188,
            60.00054157553344
          ],
          [
            0.007217721247258494,
            60.00052250397771
          ],
          [
            0.007120576785680065,
            60.000503432421986
          ],
          [
            0.007022546591266685,
            60.00048590788246
          ],
          [
            0.006923641950316925,
            60.00046910400779
          ],
          [
            0.006823873342899473,
            60.00045003245206
          ],
          [
            0.006723249462619855,
            60.00043096089633
          ],
          [
            0.006621787028951688,
            60.0004118893406
          ],
          [
            0.006519501496615373,
            60.00039436287047
          ],
          [
            0.00641639431525667,
            60.00037756092641
          ],
          [
            0.006312466373562027,
            60.00036003368404
          ],
          [
            0.006207728989086516,
            60.000343232512215
          ],
          [
            0.00610218911161453,
            60.00032570449761
          ],
          [
            0.005995796454117428,
            60.00030890409802
          ],
          [
            0.005888502658319984,
            60.00029137531118
          ],
          [
            0.005780259880108577,
            60.000276118066594
          ],
          [
            0.005670957173973026,
            60.000262402818656
          ],
          [
            0.005560623658957866,
            60.00024941827469
          ],
          [
            0.005449328888067834,
            60.000235702254514
          ],
          [
            0.005337125328644924,
            60.00022425932108
          ],
          [
            0.005224053425853399,
            60.000214356839805
          ],
          [
            0.005110137780711699,
            60.00020518815147
          ],
          [
            0.00499541444720169,
            60.000195284897956
          ],
          [
            0.004879936628207994,
            60.00018765627566
          ],
          [
            0.004763738160002053,
            60.00018002765337
          ],
          [
            0.004646862172123063,
            60.00017239903108
          ],
          [
            0.0045293479838918686,
            60.00016630854424
          ],
          [
            0.004411220898512135,
            60.000162494233095
          ],
          [
            0.004292506458559583,
            60.000157142558734
          ],
          [
            0.004173245325111792,
            60.00015105091354
          ],
          [
            0.0040535006895101,
            60.00014877319336
          ],
          [
            0.003933320671209788,
            60.00014723698851
          ],
          [
            0.003812708512976165,
            60.00014342267736
          ],
          [
            0.0036916550790892016,
            60.00014114379883
          ],
          [
            0.0035701480496174243,
            60.000139608752335
          ],
          [
            0.003448193544312853,
            60.00013732910156
          ],
          [
            0.0033258218846358013,
            60.00013579482731
          ],
          [
            0.0032030716456584642,
            60.0001335144043
          ],
          [
            0.0030799223281975773,
            60.0001335144043
          ],
          [
            0.0029563389335490616,
            60.000131981288405
          ],
          [
            0.002832322541907144,
            60.00012969970703
          ],
          [
            0.0027078856866756006,
            60.00012969970703
          ],
          [
            0.002583040930407267,
            60.000128167749494
          ],
          [
            0.0024577713680427574,
            60.000125885009766
          ],
          [
            0.0023320919420661036,
            60.00012435382447
          ],
          [
            0.0022060098417481418,
            60.0001220703125
          ],
          [
            0.0020795212035788113,
            60.00012053989945
          ],
          [
            0.0019526284668377773,
            60.000118255615234
          ],
          [
            0.0018253437830125418,
            60.00011672597442
          ],
          [
            0.0016976843638417118,
            60.00011444091797
          ],
          [
            0.0015697202585386516,
            60.000112912049396
          ],
          [
            0.0014415346823819612,
            60.0001106262207
          ],
          [
            0.0013130842440532225,
            60.00010909812437
          ],
          [
            0.0011843078899084214,
            60.00010681152344
          ],
          [
            0.0010552019512884664,
            60.00010528419934
          ],
          [
            0.0009257568730028841,
            60.00010299682617
          ],
          [
            0.0007959807090831659,
            60.000101470274316
          ],
          [
            0.0006658804994875559,
            60.000099182128906
          ],
          [
            0.0005354544389655977,
            60.000099182128906
          ],
          [
            0.0004047027833996486,
            60.000099182128906
          ],
          [
            0.0002736444903426265,
            60.000099182128906
          ],
          [
            0.00014229904079366456,
            60.000099182128906
          ]
        ]
      }
    }
  ]
}