{
  "type": "FeatureCollection",
  "features": [
    {
      "type": "Feature",
      "properties": {
        "source_file": "Autódromo José Carlos Pace_P_2026-08-14T03_03_08Z.duckdb",
        "track_name": "Autódromo José Carlos Pace",
        "track_layout": "Autódromo José Carlos Pace",
        "lap": 3
      },
      "geometry": {
        "type": "LineString",
        "coordinates": [
          [
            -0.0019882980802924358,
            59.99911032821245
          ],
          [
            -0.0019567020308379414,
            59.99904383985068
          ],
          [
            -0.0019249449852107323,
            59.99897683464401
          ],
          [
            -0.0018930188479976606,
            59.99890818051116
          ],
          [
            -0.0018609348611990603,
            59.99884169041306
          ],
          [
            -0.0018287196302465424,
            59.99877468694271
          ],
          [
            -0.0017963655321000815,
            59.99870603280986
          ],
          [
            -0.0017638781043210596,
            59.99863954097543
          ],
          [
            -0.0017312999174014204,
            59.99857253924141
          ],
          [
            -0.001698626173072895,
            59.998503885108555
          ],
          [
            -0.001665819188821001,
            59.99843739153781
          ],
          [
            -0.0016328686989019547,
            59.998370391540114
          ],
          [
            -0.0015997635460085929,
            59.99830173740725
          ],
          [
            -0.0015664851156293332,
            59.9982330832744
          ],
          [
            -0.0015330520888996323,
            59.99816658738857
          ],
          [
            -0.0014994807491278948,
            59.99809958970596
          ],
          [
            -0.0014657356444307368,
            59.9980309355731
          ],
          [
            -0.0014317972860250377,
            59.997962281440245
          ],
          [
            -0.0013976740258931095,
            59.99789362730739
          ],
          [
            -0.001363402095959165,
            59.99782712852769
          ],
          [
            -0.0013291205857737674,
            59.99776013373894
          ],
          [
            -0.0012949575110012235,
            59.99769147960609
          ],
          [
            -0.0012608632463386926,
            59.997622825473236
          ],
          [
            -0.0012267259063290668,
            59.99755417134038
          ],
          [
            -0.0011924961004606779,
            59.99748551720752
          ],
          [
            -0.0011581581336661258,
            59.99741686307467
          ],
          [
            -0.0011237205639816243,
            59.997348208941816
          ],
          [
            -0.001089342137325481,
            59.99727955480896
          ],
          [
            -0.0010553976022664574,
            59.99721305082029
          ],
          [
            -0.0010221836361253957,
            59.99714821080593
          ],
          [
            -0.0009897971881198946,
            59.9970855197782
          ],
          [
            -0.0009582596829080721,
            59.9970266422902
          ],
          [
            -0.0009276156397863061,
            59.99696943051282
          ],
          [
            -0.0008978470914422481,
            59.99691436598576
          ],
          [
            -0.0008688738324086928,
            59.99686096832688
          ],
          [
            -0.0008406503453016345,
            59.99680971676076
          ],
          [
            -0.0008131507571203383,
            59.99676013322036
          ],
          [
            -0.000786334576510618,
            59.99671269461519
          ],
          [
            -0.0007601288996620288,
            59.99666906954974
          ],
          [
            -0.0007344534428524513,
            59.99662711424633
          ],
          [
            -0.0007092246805348139,
            59.99658515894292
          ],
          [
            -0.0006843064916697285,
            59.99654534625964
          ],
          [
            -0.0006594193756101888,
            59.996507205074714
          ],
          [
            -0.0006343751803974848,
            59.99647120535238
          ],
          [
            -0.0006090576455151976,
            59.996436878285955
          ],
          [
            -0.0005831915740446133,
            59.99640469152456
          ],
          [
            -0.0005564613498384288,
            59.99637203885036
          ],
          [
            -0.0005287696518072708,
            59.99634199007891
          ],
          [
            -0.0004999680858030708,
            59.996313152680756
          ],
          [
            -0.00046990668879110165,
            59.99628477772276
          ],
          [
            -0.0004385845117507633,
            59.99625807889331
          ],
          [
            -0.0004059126016479892,
            59.99623138006387
          ],
          [
            -0.0003718503276809818,
            59.996206817488044
          ],
          [
            -0.0003363303388699932,
            59.99618393277709
          ],
          [
            -0.00029923828271943587,
            59.99616104806614
          ],
          [
            -0.00026040379694845437,
            59.99613816335519
          ],
          [
            -0.000219703178838631,
            59.99611741258276
          ],
          [
            -0.00017711123044300792,
            59.996098341990304
          ],
          [
            -0.00013256946448554497,
            59.996079271397846
          ],
          [
            -8.611952952802216e-05,
            59.99606020080539
          ],
          [
            -3.800104530218634e-05,
            59.996043261836355
          ],
          [
            1.1541069420871934e-05,
            59.99602800536239
          ],
          [
            6.24018646833409e-05,
            59.996014879354306
          ],
          [
            0.00011450954489148275,
            59.996003436998826
          ],
          [
            0.0001677454970924242,
            59.99599412395169
          ],
          [
            0.0002218933509648512,
            59.9959864957147
          ],
          [
            0.0002766790779096236,
            59.99597886747772
          ],
          [
            0.0003318450076161316,
            59.99597336681275
          ],
          [
            0.00038713140314183234,
            59.9959716796875
          ],
          [
            0.0004422964814587528,
            59.9959716796875
          ],
          [
            0.0004971116980947535,
            59.9959716796875
          ],
          [
            0.0005513759341096087,
            59.99597380494442
          ],
          [
            0.0006049325476359811,
            59.99597761906291
          ],
          [
            0.0006576378994765299,
            59.99598355728077
          ],
          [
            0.0007093108463305828,
            59.99599118551776
          ],
          [
            0.0007597495503828519,
            59.995998813754746
          ],
          [
            0.0008088714022102346,
            59.99600856435478
          ],
          [
            0.0008567616683788957,
            59.99602000671025
          ],
          [
            0.0009035282336136331,
            59.99603357027124
          ],
          [
            0.0009491713770921625,
            59.9960488267452
          ],
          [
            0.000993600414722919,
            59.996064083219174
          ],
          [
            0.001036700962650145,
            59.99608145916232
          ],
          [
            0.0010784115441695116,
            59.996100529754784
          ],
          [
            0.0011187848197016456,
            59.99611960034724
          ],
          [
            0.001158181780159639,
            59.9961386709397
          ],
          [
            0.0011976649147148418,
            59.99615985868625
          ],
          [
            0.001238547767011032,
            59.99618062682189
          ],
          [
            0.0012815548949895155,
            59.99619969741435
          ],
          [
            0.001326867122696402,
            59.996218768006806
          ],
          [
            0.0013744028699620428,
            59.996237838599264
          ],
          [
            0.0014238779777954501,
            59.9962547949315
          ],
          [
            0.0014750161250779903,
            59.996270051405475
          ],
          [
            0.0015277068568249222,
            59.99628530787944
          ],
          [
            0.0015816134608556717,
            59.99629845182951
          ],
          [
            0.0016363506038502302,
            59.99630778223986
          ],
          [
            0.0016918187216178287,
            59.996317521843196
          ],
          [
            0.0017479679580739251,
            59.99632685341109
          ],
          [
            0.0018046500711732597,
            59.99633237143927
          ],
          [
            0.0018619478899141383,
            59.996336185557766
          ],
          [
            0.00191997503600379,
            59.996337890625
          ],
          [
            0.0019786017654756472,
            59.996337890625
          ],
          [
            0.002037648076291635,
            59.996337890625
          ],
          [
            0.0020969343160300844,
            59.996335783310066
          ],
          [
            0.002156312480987711,
            59.99633196919157
          ],
          [
            0.002215721463135192,
            59.99632604891569
          ],
          [
            0.002275180750655163,
            59.996318420678705
          ],
          [
            0.0023347246395264624,
            59.996310792441726
          ],
          [
            0.002394342446033324,
            59.99630105978367
          ],
          [
            0.0024539495113148264,
            59.9962896174282
          ],
          [
            0.002513443407833093,
            59.9962760718092
          ],
          [
            0.002572909190625074,
            59.99626081533523
          ],
          [
            0.0026327221048310554,
            59.99624555886126
          ],
          [
            0.002693462024830388,
            59.996230302387296
          ],
          [
            0.0027555806424958674,
            59.99621504591333
          ],
          [
            0.002819301532931912,
            59.996201889809015
          ],
          [
            0.002884771613793549,
            59.99618834766266
          ],
          [
            0.002952078218191611,
            59.99617309118869
          ],
          [
            0.003021271986278643,
            59.99615993334805
          ],
          [
            0.003092363408221683,
            59.996148490992574
          ],
          [
            0.003165345562899237,
            59.99613914611289
          ],
          [
            0.003240132957272699,
            59.9961315178759
          ],
          [
            0.00331653369904475,
            59.996123889638916
          ],
          [
            0.0033944471731601777,
            59.99611626140194
          ],
          [
            0.003473795788339178,
            59.99611072832564
          ],
          [
            0.003554446757460987,
            59.99610900878906
          ],
          [
            0.0036362973287698067,
            59.99610691478592
          ],
          [
            0.0037192724372566354,
            59.9961051940918
          ],
          [
            0.0038032934516571896,
            59.9961051940918
          ],
          [
            0.0038882798600465697,
            59.996107286358615
          ],
          [
            0.003974146114136963,
            59.99610900878906
          ],
          [
            0.004060769025640447,
            59.99611319100761
          ],
          [
            0.004147838384869435,
            59.996118728714094
          ],
          [
            0.004235106341254178,
            59.99612463278431
          ],
          [
            0.004322473779097457,
            59.996132261021295
          ],
          [
            0.004409816573489751,
            59.99614197805246
          ],
          [
            0.004497011813589804,
            59.99615550862334
          ],
          [
            0.004583945032562445,
            59.996170765097304
          ],
          [
            0.004670461652902968,
            59.996186021571276
          ],
          [
            0.004756368363357756,
            59.99620336452433
          ],
          [
            0.004841499053057122,
            59.996222435116785
          ],
          [
            0.00492573614623501,
            59.99624359103078
          ],
          [
            0.005008945724753273,
            59.996266475741734
          ],
          [
            0.005090976243239787,
            59.99629144461667
          ],
          [
            0.00517164996363522,
            59.99631814344612
          ],
          [
            0.00525090414509316,
            59.996346925282005
          ],
          [
            0.005328549504319041,
            59.99637743822994
          ],
          [
            0.005404188459197389,
            59.99640795117788
          ],
          [
            0.005477666189183871,
            59.996440545395934
          ],
          [
            0.005548933694997382,
            59.99647487246236
          ],
          [
            0.005617973476082031,
            59.99651127964136
          ],
          [
            0.0056847140413134,
            59.996549420826284
          ],
          [
            0.005748971575791188,
            59.99658964096623
          ],
          [
            0.005810652426912401,
            59.99662951789338
          ],
          [
            0.005869606796294868,
            59.99667181467326
          ],
          [
            0.0059256945285811454,
            59.99671550687646
          ],
          [
            0.005978808705226542,
            59.9967595388198
          ],
          [
            0.0060288815049361795,
            59.996805308241704
          ],
          [
            0.006075862610008656,
            59.996851077663614
          ],
          [
            0.006119727304151895,
            59.99689892198913
          ],
          [
            0.006160504467267639,
            59.996948505529524
          ],
          [
            0.006198462789733815,
            59.99699808906992
          ],
          [
            0.006234263462677083,
            59.9970497457776
          ],
          [
            0.006268607727980327,
            59.997101070847975
          ],
          [
            0.006301982378952529,
            59.99715272639811
          ],
          [
            0.006334765991649631,
            59.99720405262603
          ],
          [
            0.006367261316135497,
            59.99725570701862
          ],
          [
            0.006399629448819306,
            59.997309104677505
          ],
          [
            0.006431957947587909,
            59.997362502336394
          ],
          [
            0.0064643263932559975,
            59.99741589999528
          ],
          [
            0.006496741838355902,
            59.99746929765417
          ],
          [
            0.0065291443823560485,
            59.99752476327138
          ],
          [
            0.006561478222487896,
            59.997579907669206
          ],
          [
            0.006593695939510719,
            59.997633305328094
          ],
          [
            0.006625831934284725,
            59.99768876920899
          ],
          [
            0.006657952314533547,
            59.997743915343136
          ],
          [
            0.006690089875076775,
            59.99779937806648
          ],
          [
            0.0067222661088218,
            59.99785452535818
          ],
          [
            0.006754494125218184,
            59.99790998692397
          ],
          [
            0.0067868211347326705,
            59.99796719870135
          ],
          [
            0.006819348223804171,
            59.998024410478735
          ],
          [
            0.006852128793629713,
            59.998081622256116
          ],
          [
            0.006885095350664773,
            59.998136772441676
          ],
          [
            0.006918150200358039,
            59.99819429212665
          ],
          [
            0.006951261715611072,
            59.99825325758825
          ],
          [
            0.006984433999909396,
            59.99831046936563
          ],
          [
            0.007017631320478648,
            59.99836768114301
          ],
          [
            0.007050789379817292,
            59.99842489292039
          ],
          [
            0.007083867665181265,
            59.99848416281694
          ],
          [
            0.007116866402936747,
            59.99854313117241
          ],
          [
            0.007149804425412409,
            59.99860034294979
          ],
          [
            0.007182679264624613,
            59.99865961111002
          ],
          [
            0.0072154865017721335,
            59.998720637005896
          ],
          [
            0.007248230929965574,
            59.99877960767646
          ],
          [
            0.007280917743896624,
            59.99883887410037
          ],
          [
            0.00731356957784067,
            59.998899899996246
          ],
          [
            0.0073462216270585145,
            59.99896092589211
          ],
          [
            0.00737886888344827,
            59.99902195178799
          ],
          [
            0.00741148159004538,
            59.999082977683855
          ],
          [
            0.007444030286054962,
            59.99914400357973
          ],
          [
            0.0074764704389689695,
            59.9992050294756
          ],
          [
            0.0075087420882730795,
            59.99926605537147
          ],
          [
            0.007540729946802076,
            59.999327081267346
          ],
          [
            0.00757229438533702,
            59.99938810716321
          ],
          [
            0.007603346213103224,
            59.999451181917884
          ],
          [
            0.00763395351619593,
            59.99951397365222
          ],
          [
            0.0076644758887033865,
            59.99957704724934
          ],
          [
            0.0076951975446715275,
            59.99963984014123
          ],
          [
            0.007726084133261095,
            59.9997008660371
          ],
          [
            0.007757123620049396,
            59.9997639378979
          ],
          [
            0.007788388735098002,
            59.99982877791226
          ],
          [
            0.007819868855239376,
            59.99989157311925
          ],
          [
            0.007851525585566592,
            59.999954643243726
          ],
          [
            0.007883365452543912,
            60.000019483258086
          ],
          [
            0.007915432328657,
            60.00008228020139
          ],
          [
            0.00794780716718832,
            60.00014534858955
          ],
          [
            0.007980572690947313,
            60.00021018860391
          ],
          [
            0.008013726020761168,
            60.000275028618276
          ],
          [
            0.008047210463657419,
            60.000339868632636
          ],
          [
            0.008080984153358783,
            60.000404708647004
          ],
          [
            0.008115016695204121,
            60.00046750906295
          ],
          [
            0.008149287499913537,
            60.00053057397846
          ],
          [
            0.008183775267881279,
            60.000595413992826
          ],
          [
            0.00821844895869523,
            60.00066025400719
          ],
          [
            0.008253279664193244,
            60.00072713130487
          ],
          [
            0.008288221736004077,
            60.00079374873318
          ],
          [
            0.008323180185159791,
            60.00085858874754
          ],
          [
            0.008358084684724784,
            60.00092342876191
          ],
          [
            0.00839295686410402,
            60.00098826877627
          ],
          [
            0.008427843137385234,
            60.001053108790636
          ],
          [
            0.008462746356046054,
            60.00111998261568
          ],
          [
            0.008497645667701954,
            60.00118660351662
          ],
          [
            0.008532453040538561,
            60.00125144353099
          ],
          [
            0.00856682598580111,
            60.00131628354535
          ],
          [
            0.008600272409088882,
            60.00138112355972
          ],
          [
            0.008632493510722518,
            60.00144393265727
          ],
          [
            0.008663454113245234,
            60.001502928215096
          ],
          [
            0.008693251335331293,
            60.00156013999248
          ],
          [
            0.008721996301807982,
            60.00161735176986
          ],
          [
            0.00874977102784372,
            60.00167050634381
          ],
          [
            0.008776627506418144,
            60.00172211790714
          ],
          [
            0.008802602537560742,
            60.00177348812186
          ],
          [
            0.008827721975894128,
            60.00182307166226
          ],
          [
            0.008851989279223468,
            60.00187062891603
          ],
          [
            0.008875378207171459,
            60.00191639833793
          ],
          [
            0.008897883514036477,
            60.001960142630764
          ],
          [
            0.008919476285156292,
            60.002002097934174
          ],
          [
            0.00894004033411866,
            60.00204405323758
          ],
          [
            0.008959360028166455,
            60.00208600854099
          ],
          [
            0.0089770614881277,
            60.00212594103043
          ],
          [
            0.008992608438088126,
            60.00216205998014
          ],
          [
            0.009005488416070077,
            60.002198408703
          ],
          [
            0.00901523401429152,
            60.00223452881026
          ],
          [
            0.009021571153745746,
            60.002270876375576
          ],
          [
            0.009024490019866944,
            60.00230699764038
          ],
          [
            0.009023987254043925,
            60.00234132470681
          ],
          [
            0.009020102726660999,
            60.0023776705358
          ],
          [
            0.009012873308398782,
            60.00241379353693
          ],
          [
            0.009002269590320135,
            60.002448120603354
          ],
          [
            0.008988273224338802,
            60.002480430643544
          ],
          [
            0.008970877631425959,
            60.00251296003895
          ],
          [
            0.008950076413560878,
            60.00254527123668
          ],
          [
            0.008925966696200154,
            60.00257779947454
          ],
          [
            0.008898686963661853,
            60.00260809711867
          ],
          [
            0.008868294672232532,
            60.00263681008049
          ],
          [
            0.008834768485285223,
            60.00266530947482
          ],
          [
            0.008798162274553253,
            60.00269402127909
          ],
          [
            0.008758539263571043,
            60.002722521830975
          ],
          [
            0.008715998583155794,
            60.00274720884313
          ],
          [
            0.008670660758826517,
            60.00277210479259
          ],
          [
            0.008622522621458338,
            60.00279679296231
          ],
          [
            0.008571591845595899,
            60.002817667592296
          ],
          [
            0.00851799267992893,
            60.002838747686944
          ],
          [
            0.00846191409688733,
            60.002859623474485
          ],
          [
            0.008403512707878535,
            60.002876685722306
          ],
          [
            0.00834300770915895,
            60.002893949962136
          ],
          [
            0.008280685520783948,
            60.00290900618042
          ],
          [
            0.008216693483043198,
            60.00292245514421
          ],
          [
            0.008151030287196338,
            60.002935705588634
          ],
          [
            0.008083714319763553,
            60.00294514249334
          ],
          [
            0.008014916958794038,
            60.00295477560232
          ],
          [
            0.00794475563740928,
            60.00296421366457
          ],
          [
            0.00787325718465125,
            60.002969838187106
          ],
          [
            0.0078005321503891185,
            60.002975655441276
          ],
          [
            0.007726649739901767,
            60.00298128112136
          ],
          [
            0.0076516213812845785,
            60.002987097217975
          ],
          [
            0.007575482714193844,
            60.0029927240556
          ],
          [
            0.0074982556843392716,
            60.002996538174095
          ],
          [
            0.007419910213011795,
            60.00300035229259
          ],
          [
            0.007340436938942659,
            60.00300416641108
          ],
          [
            0.007259850028380542,
            60.003007980529574
          ],
          [
            0.007178166295152939,
            60.00300979614258
          ],
          [
            0.007095415459344094,
            60.00300979614258
          ],
          [
            0.007011636131700436,
            60.00300979614258
          ],
          [
            0.006926880198800862,
            60.00300979614258
          ],
          [
            0.006841209316220624,
            60.00300979614258
          ],
          [
            0.006754706656110167,
            60.00300780053096
          ],
          [
            0.00666747595898676,
            60.003003986412466
          ],
          [
            0.00657962623311314,
            60.002998177839906
          ],
          [
            0.006491263114151061,
            60.00299054960292
          ],
          [
            0.006402513449337554,
            60.00298292136594
          ],
          [
            0.006313512179132423,
            60.002973300411206
          ],
          [
            0.006224386739860874,
            60.00296185805573
          ],
          [
            0.006135284961283979,
            60.002950415700255
          ],
          [
            0.006046387451307904,
            60.00293698236335
          ],
          [
            0.005957850560143432,
            60.00292172588938
          ],
          [
            0.0058697890299536344,
            60.002904479591535
          ],
          [
            0.005782443833777717,
            60.00288540899907
          ],
          [
            0.005695937772806738,
            60.00286434974028
          ],
          [
            0.005610355280524576,
            60.00284146502933
          ],
          [
            0.0055260074424099736,
            60.00281659280959
          ],
          [
            0.005443064551311641,
            60.00278989398014
          ],
          [
            0.005361479288242576,
            60.002763195150706
          ],
          [
            0.0052812555063719135,
            60.00273451054879
          ],
          [
            0.005202415026144972,
            60.00270399760086
          ],
          [
            0.00512500258601777,
            60.002671500038005
          ],
          [
            0.005049139373227734,
            60.002637172971575
          ],
          [
            0.004974828806651032,
            60.00260284590515
          ],
          [
            0.004902137457836109,
            60.00256851883872
          ],
          [
            0.004831137059392372,
            60.00253220947247
          ],
          [
            0.004761731796299489,
            60.002494068287554
          ],
          [
            0.004693712700246554,
            60.002453945960355
          ],
          [
            0.004626713076852518,
            60.00241397122045
          ],
          [
            0.004560416350555223,
            60.0023738500508
          ],
          [
            0.0044946961353278985,
            60.002331894747385
          ],
          [
            0.004429442999072549,
            60.002289939443976
          ],
          [
            0.004364519667017763,
            60.002246005892154
          ],
          [
            0.004299820742866989,
            60.002202214139885
          ],
          [
            0.0042352644454486344,
            60.002160258836476
          ],
          [
            0.004170798674816998,
            60.00211632702098
          ],
          [
            0.00410637444391349,
            60.002070557599076
          ],
          [
            0.00404197022365756,
            60.00202676353171
          ],
          [
            0.003977617142916115,
            60.00198283345253
          ],
          [
            0.0039133292672249905,
            60.00193706403063
          ],
          [
            0.0038491626392836375,
            60.001891294608726
          ],
          [
            0.0037852189902576436,
            60.00184552518682
          ],
          [
            0.00372151601569997,
            60.00179778330425
          ],
          [
            0.0036580192392242144,
            60.00175017164575
          ],
          [
            0.003594734695422299,
            60.001704402223844
          ],
          [
            0.0035316811698163715,
            60.00165666207759
          ],
          [
            0.0034688254661474406,
            60.001609048682774
          ],
          [
            0.0034060577994506646,
            60.00156130969407
          ],
          [
            0.0033432806485523426,
            60.0015136951417
          ],
          [
            0.003280470408113519,
            60.00146595731054
          ],
          [
            0.0032176133407373813,
            60.00141637377015
          ],
          [
            0.0031546989386297894,
            60.00136679022975
          ],
          [
            0.003091750528023056,
            60.00131917336229
          ],
          [
            0.0030287947301389164,
            60.00127143784623
          ],
          [
            0.00296582387396572,
            60.00122185430583
          ],
          [
            0.0029028254321831135,
            60.00117227076544
          ],
          [
            0.002839826987680405,
            60.00112268722504
          ],
          [
            0.0027768488590379915,
            60.00107113990558
          ],
          [
            0.0027138075016327466,
            60.001019705446986
          ],
          [
            0.002650296507757122,
            60.00097012190659
          ],
          [
            0.0025855251849689616,
            60.000920538366195
          ],
          [
            0.0025190124150077996,
            60.0008709548258
          ],
          [
            0.0024510512328485756,
            60.000821371285404
          ],
          [
            0.002382186759779567,
            60.00077178774501
          ],
          [
            0.002312731037188845,
            60.000722204204614
          ],
          [
            0.0022430518758147534,
            60.00067262066422
          ],
          [
            0.002174099036469073,
            60.000624995693926
          ],
          [
            0.0021069000134641513,
            60.00057726828069
          ],
          [
            0.00204185311852929,
            60.000531599565406
          ],
          [
            0.0019789247843108974,
            60.00048768742821
          ],
          [
            0.001917884505998644,
            60.000443874261315
          ],
          [
            0.0018583928501794726,
            60.00040387463414
          ],
          [
            0.001799992957348725,
            60.00036573344922
          ],
          [
            0.0017420062537227895,
            60.0003275922643
          ],
          [
            0.0016837621088374888,
            60.0002914050193
          ],
          [
            0.001624750975372327,
            60.00025707795287
          ],
          [
            0.001564567418167158,
            60.000222750886444
          ],
          [
            0.0015030160949084839,
            60.0001903760236
          ],
          [
            0.001440030046809418,
            60.00016181470049
          ],
          [
            0.0013754856517670822,
            60.000135115871046
          ],
          [
            0.001309246171392723,
            60.0001084170416
          ],
          [
            0.0012412599604690734,
            60.00008366810066
          ],
          [
            0.0011715614921324173,
            60.000060783389706
          ],
          [
            0.0011001900309160024,
            60.0000398474097
          ],
          [
            0.00102709374821023,
            60.000020776817244
          ],
          [
            0.0009522255516856856,
            60.00000365379819
          ],
          [
            0.0008756794219074235,
            59.999988397324216
          ],
          [
            0.0007976097373822625,
            59.99997508726611
          ],
          [
            0.0007181785375518949,
            59.99996364491063
          ],
          [
            0.0006375899296683013,
            59.99995220255515
          ],
          [
            0.0005560387763416133,
            59.99994464955875
          ],
          [
            0.00047370707420943284,
            59.9999388913395
          ],
          [
            0.00039081295016236517,
            59.999935150146484
          ],
          [
            0.0003075894634883469,
            59.99993320720327
          ],
          [
            0.00022425071154655435,
            59.99993327781366
          ],
          [
            0.00014098278572114966,
            59.99993709193215
          ],
          [
            5.793941751676981e-05,
            59.99994090605064
          ],
          [
            -2.478555914999312e-05,
            59.99994666079726
          ],
          [
            -0.0001071451281617965,
            59.999954289034235
          ],
          [
            -0.00018906553902094857,
            59.99996385674179
          ],
          [
            -0.00027041448634320113,
            59.999977237989064
          ],
          [
            -0.00035103033447165106,
            59.99999249446304
          ],
          [
            -0.0004307377363382307,
            60.000007750937
          ],
          [
            -0.0005093504537016557,
            60.00002494456645
          ],
          [
            -0.0005866567593168933,
            60.00004595173561
          ],
          [
            -0.000662490295941054,
            60.00006883644656
          ],
          [
            -0.0007366856190676906,
            60.00009172115751
          ],
          [
            -0.0008090285805485774,
            60.000116540708845
          ],
          [
            -0.0008793337844004567,
            60.00014323953829
          ],
          [
            -0.0009473814753928918,
            60.00017187205057
          ],
          [
            -0.0010130823382288497,
            60.0002023849985
          ],
          [
            -0.0010763398801584454,
            60.000234830471726
          ],
          [
            -0.001136780117975787,
            60.000269157538156
          ],
          [
            -0.0011941125115020731,
            60.000303484604586
          ],
          [
            -0.001248325189235549,
            60.00033974245998
          ],
          [
            -0.0012993879685745942,
            60.000375953434705
          ],
          [
            -0.0013472918869346885,
            60.00041413976397
          ],
          [
            -0.001392080696129231,
            60.000454166014734
          ],
          [
            -0.0014338180544091043,
            60.00049423567353
          ],
          [
            -0.0014724195711397893,
            60.00053619097694
          ],
          [
            -0.0015077289055781009,
            60.00057814628035
          ],
          [
            -0.0015398824655183535,
            60.00062010158376
          ],
          [
            -0.001568971930349073,
            60.00066205688717
          ],
          [
            -0.0015948852448388095,
            60.00070593777059
          ],
          [
            -0.0016176220099148335,
            60.00075170719249
          ],
          [
            -0.0016376036699019675,
            60.000797476614395
          ],
          [
            -0.0016558058968964443,
            60.0008432460363
          ],
          [
            -0.001673321344514113,
            60.00089093872311
          ],
          [
            -0.0016904865355555781,
            60.000938599577374
          ],
          [
            -0.0017070753098108046,
            60.000984368999276
          ],
          [
            -0.0017229465676000784,
            60.00102821689259
          ],
          [
            -0.0017380396262843727,
            60.001072093145815
          ],
          [
            -0.001752323759319135,
            60.001114021825636
          ],
          [
            -0.0017657517938241838,
            60.00115216301056
          ],
          [
            -0.0017782450129063593,
            60.001190304195475
          ],
          [
            -0.0017896979921855633,
            60.001226526745675
          ],
          [
            -0.0017999949984761462,
            60.00126277186805
          ],
          [
            -0.0018090061037478282,
            60.001297078098624
          ],
          [
            -0.0018165454659085389,
            60.00132950794496
          ],
          [
            -0.0018224545644523829,
            60.001361918691764
          ],
          [
            -0.0018266540722375493,
            60.0013924316397
          ],
          [
            -0.0018290913142187594,
            60.00142294458764
          ],
          [
            -0.0018297278001806142,
            60.00145154295227
          ],
          [
            -0.001828466637938661,
            60.00147824178171
          ],
          [
            -0.0018251510438732715,
            60.001504940611156
          ],
          [
            -0.001819734360821779,
            60.0015316394406
          ],
          [
            -0.001812175910080846,
            60.001556426001834
          ],
          [
            -0.0018023490080415797,
            60.001579310712785
          ],
          [
            -0.0017901980584483508,
            60.001602195423736
          ],
          [
            -0.0017756452774969618,
            60.00162508013469
          ],
          [
            -0.0017586407088664077,
            60.001646054892525
          ],
          [
            -0.0017392641529371572,
            60.00166512548498
          ],
          [
            -0.0017175781646019404,
            60.00168419607744
          ],
          [
            -0.0016936504491996678,
            60.00170326666991
          ],
          [
            -0.0016676246168551504,
            60.00172042962434
          ],
          [
            -0.0016396729412082173,
            60.001735686098314
          ],
          [
            -0.0016099540823006587,
            60.00174903609181
          ],
          [
            -0.0015786579888011393,
            60.00176238434898
          ],
          [
            -0.0015459844745478284,
            60.0017738301771
          ],
          [
            -0.001512140860763276,
            60.00178336315823
          ],
          [
            -0.0014773385633592004,
            60.00179290134833
          ],
          [
            -0.001441728076631203,
            60.00179862599872
          ],
          [
            -0.0014053374472929555,
            60.00180434312504
          ],
          [
            -0.0013681279187213618,
            60.001808166503906
          ],
          [
            -0.0013301270995228552,
            60.00181006835419
          ],
          [
            -0.0012914240517105365,
            60.00181198120117
          ],
          [
            -0.001252131886184521,
            60.00181198120117
          ],
          [
            -0.001212393041109369,
            60.00181198120117
          ],
          [
            -0.0011724414771573425,
            60.00181008166599
          ],
          [
            -0.0011325245914063037,
            60.001804368591074
          ],
          [
            -0.0010927930520239723,
            60.001798638731735
          ],
          [
            -0.001053324172190175,
            60.001792926814375
          ],
          [
            -0.0010141648213740889,
            60.0017834013573
          ],
          [
            -0.0009753757200394025,
            60.001773855643144
          ],
          [
            -0.0009370730413515541,
            60.00176433134361
          ],
          [
            -0.0008993535930579256,
            60.001750993504366
          ],
          [
            -0.0008620217670732942,
            60.00173763193539
          ],
          [
            -0.0008245567453575525,
            60.001724295253695
          ],
          [
            -0.0007863116207373406,
            60.00170903877972
          ],
          [
            -0.0007467538748588008,
            60.00169378230576
          ],
          [
            -0.0007055913242867743,
            60.00167852583179
          ],
          [
            -0.0006626558401006412,
            60.00166326935782
          ],
          [
            -0.000617926443415203,
            60.001648012883855
          ],
          [
            -0.0005716304258732434,
            60.00163464726347
          ],
          [
            -0.0005242263646841789,
            60.001621314633184
          ],
          [
            -0.00047612322374264725,
            60.00160794785525
          ],
          [
            -0.0004274634347309992,
            60.001596505499776
          ],
          [
            -0.0003782715008932387,
            60.00158695168279
          ],
          [
            -0.0003286305071784718,
            60.00157743548609
          ],
          [
            -0.0002786625821880502,
            60.0015697678925
          ],
          [
            -0.0002284802053777811,
            60.00156406697184
          ],
          [
            -0.0001782036919850076,
            60.001558324958246
          ],
          [
            -0.00012796419605057044,
            60.001556396484375
          ],
          [
            -7.789539688343375e-05,
            60.001556396484375
          ],
          [
            -2.8145512163270052e-05,
            60.001556396484375
          ],
          [
            2.1098204767027445e-05,
            60.001556396484375
          ],
          [
            6.963103357270589e-05,
            60.0015582798139
          ],
          [
            0.00011727006118216691,
            60.001563976683144
          ],
          [
            0.0001638291677627516,
            60.00157160492013
          ],
          [
            0.0002091012454703504,
            60.00157923315711
          ],
          [
            0.00025289665452523193,
            60.001586861394095
          ],
          [
            0.00029511285010427136,
            60.001596370066736
          ],
          [
            0.00033572412528100955,
            60.0016096922791
          ],
          [
            0.00037469898017313387,
            60.00162306947495
          ],
          [
            0.0004119732886695329,
            60.00163639052977
          ],
          [
            0.00044739715595366555,
            60.0016535251243
          ],
          [
            0.000480768350984006,
            60.001672595716755
          ],
          [
            0.0005118706058854966,
            60.00169166630921
          ],
          [
            0.0005405029653457451,
            60.00171073690168
          ],
          [
            0.0005665466945898405,
            60.0017316832996
          ],
          [
            0.0005899284033218672,
            60.001754568010554
          ],
          [
            0.0006104520390700002,
            60.001777452721505
          ],
          [
            0.0006278791913269916,
            60.001800337432456
          ],
          [
            0.0006421437392634126,
            60.001825095633784
          ],
          [
            0.0006531746002241769,
            60.00185179446323
          ],
          [
            0.000660825729395337,
            60.00187849329267
          ],
          [
            0.0006650169471414019,
            60.001905192122116
          ],
          [
            0.0006657885121361916,
            60.00193189095156
          ],
          [
            0.0006632478607613855,
            60.001958589781005
          ],
          [
            0.0006573876534469125,
            60.001987158628175
          ],
          [
            0.0006480864027943654,
            60.00201580213715
          ],
          [
            0.0006353240397631123,
            60.002042500966596
          ],
          [
            0.0006191383546636345,
            60.00207106807745
          ],
          [
            0.0005995276131972395,
            60.00209971332275
          ],
          [
            0.0005765312634138083,
            60.002126412152194
          ],
          [
            0.0005503141379105124,
            60.00215311098164
          ],
          [
            0.0005211522671829217,
            60.002177943844764
          ],
          [
            0.0004892431073367919,
            60.00220269394326
          ],
          [
            0.00045473764477886515,
            60.00222752796394
          ],
          [
            0.00041800887431520047,
            60.00225227690488
          ],
          [
            0.0003795348232213661,
            60.00227897573433
          ],
          [
            0.0003394655866938521,
            60.00230381149132
          ],
          [
            0.0002977250774022707,
            60.00232855869595
          ],
          [
            0.0002543752618392944,
            60.002355257525394
          ],
          [
            0.00020971272459629735,
            60.00238195635483
          ],
          [
            0.00016389916255668587,
            60.002408655184276
          ],
          [
            0.00011684478320819942,
            60.00243349383514
          ],
          [
            6.860388717996057e-05,
            60.0024582381459
          ],
          [
            1.927367914652398e-05,
            60.00248493697534
          ],
          [
            -3.1088945270734176e-05,
            60.00251163580479
          ],
          [
            -8.239205704333797e-05,
            60.00253833463423
          ],
          [
            -0.00013456683582735657,
            60.002565033463675
          ],
          [
            -0.00018750460858599175,
            60.002593588999055
          ],
          [
            -0.0002410040895336774,
            60.00262224581983
          ],
          [
            -0.0002948686696643438,
            60.002650800197664
          ],
          [
            -0.00034886689556487213,
            60.00267945817598
          ],
          [
            -0.00040271270856020145,
            60.002708011396265
          ],
          [
            -0.0004560915109251462,
            60.0027385243442
          ],
          [
            -0.0005086890177116801,
            60.00277089052543
          ],
          [
            -0.0005602579365732554,
            60.002803364937336
          ],
          [
            -0.0006106381740814941,
            60.00283572996102
          ],
          [
            -0.0006597613718914579,
            60.002871908524426
          ],
          [
            -0.0007075219612827314,
            60.00290819879114
          ],
          [
            -0.0007537356210339957,
            60.002944376197
          ],
          [
            -0.0007982605918667353,
            60.002982517381916
          ],
          [
            -0.0008409527616539884,
            60.00302065856683
          ],
          [
            -0.0008814119735424771,
            60.003058799751756
          ],
          [
            -0.00091926711990491,
            60.00309694093667
          ],
          [
            -0.0009544116401859298,
            60.003133234676035
          ],
          [
            -0.0009867559570078193,
            60.003169408609246
          ],
          [
            -0.00101632409313423,
            60.003205703506154
          ],
          [
            -0.0010431707171366484,
            60.003240030572584
          ],
          [
            -0.001067447227291205,
            60.00327251250855
          ],
          [
            -0.0010894831876554433,
            60.00330487000817
          ],
          [
            -0.0011094510157324891,
            60.003337353101685
          ],
          [
            -0.0011273204754023958,
            60.00336602265548
          ],
          [
            -0.001143137701892902,
            60.003394564300294
          ],
          [
            -0.0011569838143222126,
            60.00342323501163
          ],
          [
            -0.0011687063780688053,
            60.003451775498895
          ],
          [
            -0.001178092904172139,
            60.003480447367785
          ],
          [
            -0.0011850792873721989,
            60.003505305696955
          ],
          [
            -0.0011897080721967519,
            60.00353003032941
          ],
          [
            -0.0011919748704010615,
            60.00355488981612
          ],
          [
            -0.0011917654728316842,
            60.00357777452707
          ],
          [
            -0.0011889326564794996,
            60.003600659238025
          ],
          [
            -0.0011832885809748314,
            60.00362354394898
          ],
          [
            -0.0011746949096251358,
            60.003646428659934
          ],
          [
            -0.0011631659336961567,
            60.003667476922026
          ],
          [
            -0.001148706523166988,
            60.003686547514484
          ],
          [
            -0.0011313980926717696,
            60.00370561810694
          ],
          [
            -0.001111439193725815,
            60.00372468869941
          ],
          [
            -0.0010890114761979513,
            60.0037419251581
          ],
          [
            -0.0010642961779199181,
            60.00375718163207
          ],
          [
            -0.001037484591661742,
            60.00377243810603
          ],
          [
            -0.0010088158884366907,
            60.00378586218256
          ],
          [
            -0.0009784541985083143,
            60.00379730453804
          ],
          [
            -0.0009465513289399911,
            60.00380691565362
          ],
          [
            -0.0009133079532789704,
            60.003814543890606
          ],
          [
            -0.0008788399615207996,
            60.003822172127585
          ],
          [
            -0.000843180785669724,
            60.003827970860996
          ],
          [
            -0.0008063908874033563,
            60.00383178497949
          ],
          [
            -0.0007685636219805311,
            60.00383559909798
          ],
          [
            -0.0007298126723631616,
            60.00383758544922
          ],
          [
            -0.0006902555448139781,
            60.00383758544922
          ],
          [
            -0.0006499685363559893,
            60.003835758839514
          ],
          [
            -0.00060903184404885,
            60.00383194472102
          ],
          [
            -0.0005675465713231924,
            60.00382813060253
          ],
          [
            -0.0005256445032112585,
            60.003824316484035
          ],
          [
            -0.0004834466741318824,
            60.003818678070935
          ],
          [
            -0.00044104430854267007,
            60.00381104983395
          ],
          [
            -0.0003985470234972777,
            60.0038015984599
          ],
          [
            -0.00035607488329592,
            60.00379015610443
          ],
          [
            -0.00031371012763608516,
            60.00377871374895
          ],
          [
            -0.00027156624946777515,
            60.00376727139348
          ],
          [
            -0.0002298941677900219,
            60.00375400821603
          ],
          [
            -0.00018901984410620487,
            60.00373875174206
          ],
          [
            -0.00014920909971569723,
            60.00372167560367
          ],
          [
            -0.00011055362194653031,
            60.00370260501121
          ],
          [
            -7.288150335864355e-05,
            60.003683534418755
          ],
          [
            -3.5874738757163444e-05,
            60.0036644638263
          ],
          [
            6.80988192257627e-07,
            60.00364357588451
          ],
          [
            3.6943160038257456e-05,
            60.00362069117355
          ],
          [
            7.299971322625278e-05,
            60.0035978064626
          ],
          [
            0.00010877293053444325,
            60.00357492175165
          ],
          [
            0.00014430736718053607,
            60.00355022200647
          ],
          [
            0.0001797914943960296,
            60.00352352317702
          ],
          [
            0.00021531715025399737,
            60.00349682434758
          ],
          [
            0.0002510867338063381,
            60.00346831222023
          ],
          [
            0.00028760670304881685,
            60.003439611991425
          ],
          [
            0.00032536749506670233,
            60.00341110102162
          ],
          [
            0.0003646801576023015,
            60.00338239963528
          ],
          [
            0.0004059898817630445,
            60.00335388982302
          ],
          [
            0.00044962741674290784,
            60.003325187279124
          ],
          [
            0.0004955642054979746,
            60.00329848844968
          ],
          [
            0.0005437574248877516,
            60.003271789620236
          ],
          [
            0.0005941416355479507,
            60.00324509079079
          ],
          [
            0.0006466744115385419,
            60.00322020005029
          ],
          [
            0.0007014147545237087,
            60.00319731533934
          ],
          [
            0.0007583142993863804,
            60.00317443062839
          ],
          [
            0.0008172471298941881,
            60.00315154591744
          ],
          [
            0.0008782148430090881,
            60.003130466980345
          ],
          [
            0.0009412512760515197,
            60.0031095911928
          ],
          [
            0.0010062717237424726,
            60.003088511098156
          ],
          [
            0.0010732453209732003,
            60.00307124454323
          ],
          [
            0.001142138843718491,
            60.00305598806926
          ],
          [
            0.0012128061307845844,
            60.00304073159529
          ],
          [
            0.0012851138150406214,
            60.003025475121326
          ],
          [
            0.0013589519417116953,
            60.003012020369795
          ],
          [
            0.0014341732444798322,
            60.003002379157984
          ],
          [
            0.0015105960073994618,
            60.002994750921
          ],
          [
            0.0015880550115005415,
            60.00298712268402
          ],
          [
            0.0016663879171621018,
            60.002981293854376
          ],
          [
            0.0017454643903043329,
            60.00297747973588
          ],
          [
            0.0018251909584145183,
            60.00297546386719
          ],
          [
            0.001905490182218046,
            60.00297546386719
          ],
          [
            0.0019862707883406584,
            60.00297546386719
          ],
          [
            0.002067416941293831,
            60.00297726038066
          ],
          [
            0.0021487795559177493,
            60.002981074499154
          ],
          [
            0.0022301976066668046,
            60.002986683973575
          ],
          [
            0.0023115644475678993,
            60.00299431221056
          ],
          [
            0.0023927739734119985,
            60.00300194044754
          ],
          [
            0.002473663196495885,
            60.00301136230413
          ],
          [
            0.002554044732838045,
            60.00302459770044
          ],
          [
            0.002633698408724638,
            60.00303985417441
          ],
          [
            0.002712457038824102,
            60.003055110648376
          ],
          [
            0.002790228475084159,
            60.00307215842685
          ],
          [
            0.0028669112720168905,
            60.00309122901932
          ],
          [
            0.002942398605820706,
            60.00311208975874
          ],
          [
            0.0030165272483317182,
            60.00313497446969
          ],
          [
            0.0030891650432725575,
            60.00315785918065
          ],
          [
            0.003160393400614567,
            60.00318253230224
          ],
          [
            0.0032302789174107204,
            60.003211018963555
          ],
          [
            0.003298589144533097,
            60.003241531911485
          ],
          [
            0.003365217098897594,
            60.00327204485942
          ],
          [
            0.0034303813674654206,
            60.00330255780736
          ],
          [
            0.0034943358722422566,
            60.00333485627207
          ],
          [
            0.003557271302902802,
            60.0033691833385
          ],
          [
            0.003619252514703645,
            60.00340351040492
          ],
          [
            0.0036803688848680944,
            60.00343962125181
          ],
          [
            0.003740661537836827,
            60.003477762436724
          ],
          [
            0.003800158456667081,
            60.00351590362165
          ],
          [
            0.003858929656228683,
            60.00355404480656
          ],
          [
            0.003917049974670221,
            60.00359218599149
          ],
          [
            0.003974569512229099,
            60.00363210806299
          ],
          [
            0.004031499237768271,
            60.003674063366404
          ],
          [
            0.004087827572811878,
            60.00371423894077
          ],
          [
            0.0041435388134609934,
            60.00375415927596
          ],
          [
            0.00419873860343198,
            60.00379789315086
          ],
          [
            0.004253597612567788,
            60.00384188458005
          ],
          [
            0.0043082633243678075,
            60.00388383988346
          ],
          [
            0.004362886030641779,
            60.00392757202204
          ],
          [
            0.004417331963667335,
            60.00397156518755
          ],
          [
            0.004470927127374247,
            60.00401352049096
          ],
          [
            0.004522906486897386,
            60.00405547579437
          ],
          [
            0.0045729431047743735,
            60.004095656577704
          ],
          [
            0.004620988044038255,
            60.00413379776263
          ],
          [
            0.0046670745443278755,
            60.00417193894754
          ],
          [
            0.004711249279868023,
            60.00420830734871
          ],
          [
            0.004753559909759847,
            60.004242634415135
          ],
          [
            0.0047940826456795305,
            60.004276961481565
          ],
          [
            0.004832864007126222,
            60.00430951750056
          ],
          [
            0.004869929577492873,
            60.004340030448496
          ],
          [
            0.004905221611529827,
            60.00437054339643
          ],
          [
            0.004938417279429024,
            60.00439928703325
          ],
          [
            0.004969086997171976,
            60.004427754595035
          ],
          [
            0.004997003264174129,
            60.004456499389406
          ],
          [
            0.005022090880694545,
            60.00448319821885
          ],
          [
            0.005044380964296144,
            60.004509897048294
          ],
          [
            0.00506387456146285,
            60.00453836229498
          ],
          [
            0.005080407107241273,
            60.00456710940445
          ],
          [
            0.005093835863835706,
            60.00459380823389
          ],
          [
            0.0051041118398776775,
            60.004620507063336
          ],
          [
            0.00511118653283357,
            60.004648969994925
          ],
          [
            0.00511500183748656,
            60.00467771941949
          ],
          [
            0.005115566246096792,
            60.004704418248934
          ],
          [
            0.0051129197943014576,
            60.00473111707838
          ],
          [
            0.0051070151498314835,
            60.00475781590782
          ],
          [
            0.0050978051819147024,
            60.00478451473726
          ],
          [
            0.0050853180985611195,
            60.0048094529372
          ],
          [
            0.005069559734702417,
            60.00483409769888
          ],
          [
            0.00505057487097313,
            60.00485903705637
          ],
          [
            0.005028407040027104,
            60.00488192176732
          ],
          [
            0.005003104764604187,
            60.00490480647827
          ],
          [
            0.004974823336279033,
            60.00492769118922
          ],
          [
            0.004943694836686016,
            60.00494881874331
          ],
          [
            0.004909829871084413,
            60.00496964591386
          ],
          [
            0.004873346056712283,
            60.0049907746255
          ],
          [
            0.004834352017490118,
            60.005008089797414
          ],
          [
            0.004792990757426825,
            60.00502510111315
          ],
          [
            0.004749377861764839,
            60.00504241744261
          ],
          [
            0.004703581810055225,
            60.00505767391658
          ],
          [
            0.004655721667176736,
            60.00507293039055
          ],
          [
            0.004606026569851921,
            60.00508818686452
          ],
          [
            0.004554647748419131,
            60.005103443338484
          ],
          [
            0.004501641461346779,
            60.00511694844332
          ],
          [
            0.004447102850350258,
            60.005130141589156
          ],
          [
            0.004391075400605895,
            60.00514364785154
          ],
          [
            0.00433357971001313,
            60.00515509020702
          ],
          [
            0.004274685583113352,
            60.00516653256249
          ],
          [
            0.004214448027921491,
            60.00517797491797
          ],
          [
            0.00415289741564226,
            60.00518941727344
          ],
          [
            0.004090081452712926,
            60.00519911231121
          ],
          [
            0.004026047409370996,
            60.00520848728713
          ],
          [
            0.00396081092790729,
            60.00521818348244
          ],
          [
            0.0038943618868479838,
            60.00522581171943
          ],
          [
            0.0038266802009730783,
            60.00523518495903
          ],
          [
            0.003757750206160487,
            60.00524488289066
          ],
          [
            0.0036875606593855127,
            60.00525076728257
          ],
          [
            0.0036161067603307246,
            60.00525632466736
          ],
          [
            0.0035433948909087782,
            60.00526395290434
          ],
          [
            0.003469446989340417,
            60.00526983903258
          ],
          [
            0.003394304996616652,
            60.00527365315107
          ],
          [
            0.003318022413976543,
            60.005277467269565
          ],
          [
            0.0032406598899344394,
            60.005279541015625
          ],
          [
            0.003162291656665028,
            60.005279541015625
          ],
          [
            0.0030829931905078487,
            60.005279541015625
          ],
          [
            0.0030028307586461747,
            60.005279541015625
          ],
          [
            0.0029218743552492654,
            60.005279541015625
          ],
          [
            0.002840190755269413,
            60.00527780353706
          ],
          [
            0.0027578283654377395,
            60.00527398941857
          ],
          [
            0.002674824147009187,
            60.005268438979066
          ],
          [
            0.0025911945922074196,
            60.005262546484325
          ],
          [
            0.002506951362205768,
            60.005256997202366
          ],
          [
            0.00242210030945709,
            60.00524936896538
          ],
          [
            0.002336649268601665,
            60.0052417407284
          ],
          [
            0.002250770986199735,
            60.005234112491415
          ],
          [
            0.002164546393843997,
            60.00522648425443
          ],
          [
            0.0020778428871530367,
            60.00521712374785
          ],
          [
            0.0019906543043629785,
            60.0052074130832
          ],
          [
            0.0019029978620126841,
            60.00519805373416
          ],
          [
            0.0018149262856273353,
            60.00518661137869
          ],
          [
            0.0017264587696048982,
            60.00517516902321
          ],
          [
            0.0016375683681170371,
            60.00516199729201
          ],
          [
            0.001548249722314072,
            60.005148469614994
          ],
          [
            0.0014585194130165486,
            60.005137027259515
          ],
          [
            0.0013683757219721268,
            60.005123857264635
          ],
          [
            0.001277807580982244,
            60.00510860079066
          ],
          [
            0.001186808573268397,
            60.0050933443167
          ],
          [
            0.001095420235838278,
            60.00507808784273
          ],
          [
            0.0010037552238133848,
            60.00506283136876
          ],
          [
            0.0009119602312378512,
            60.005047574894796
          ],
          [
            0.0008200644836564117,
            60.00503059425406
          ],
          [
            0.0007279792681428532,
            60.0050115236616
          ],
          [
            0.0006356724618044351,
            60.00499245306914
          ],
          [
            0.0005432719046674236,
            60.004973382476685
          ],
          [
            0.0004508786252762295,
            60.00495431188422
          ],
          [
            0.0003584141244491457,
            60.00493524129176
          ],
          [
            0.0002658433389458682,
            60.00491445000518
          ],
          [
            0.0001731898074107864,
            60.00489156529423
          ],
          [
            8.050869693516047e-05,
            60.00486868058327
          ],
          [
            -1.2091774646890494e-05,
            60.00484579587232
          ],
          [
            -0.00010450777947696886,
            60.00482291116137
          ],
          [
            -0.0001966445198736952,
            60.004798308650166
          ],
          [
            -0.00028833903355447217,
            60.0047733270422
          ],
          [
            -0.000379394966373584,
            60.004747009045836
          ],
          [
            -0.0004696333224065537,
            60.00471821216183
          ],
          [
            -0.000558812924131735,
            60.00468979784723
          ],
          [
            -0.0006466538206689307,
            60.00465928489929
          ],
          [
            -0.0007329344151354463,
            60.00462705762374
          ],
          [
            -0.0008173720165281462,
            60.00459273055731
          ],
          [
            -0.0008996986506240683,
            60.00455840349089
          ],
          [
            -0.0009797424436860228,
            60.00452236383317
          ],
          [
            -0.0010573760989241719,
            60.00448422264825
          ],
          [
            -0.001132560749411835,
            60.00444437002958
          ],
          [
            -0.0012051883073993504,
            60.00440241472617
          ],
          [
            -0.001275092932716954,
            60.00436045942276
          ],
          [
            -0.0013420725838270196,
            60.004316794421925
          ],
          [
            -0.001406100782946706,
            60.00427102500002
          ],
          [
            -0.0014671382288570436,
            60.004223547038244
          ],
          [
            -0.0015251383022818173,
            60.00417567145895
          ],
          [
            -0.0015802950159344111,
            60.00412819465472
          ],
          [
            -0.0016327494403862942,
            60.00407861111432
          ],
          [
            -0.001682558338271717,
            60.00402732134914
          ],
          [
            -0.0017296585345935249,
            60.00397392369025
          ],
          [
            -0.0017740808801007001,
            60.003922231098606
          ],
          [
            -0.0018159607700164433,
            60.00387094306975
          ],
          [
            -0.0018553894293015505,
            60.00381584150117
          ],
          [
            -0.0018926345771640685,
            60.00376033305471
          ],
          [
            -0.001928109112450748,
            60.00370523264368
          ],
          [
            -0.001961974813953975,
            60.003649723039665
          ],
          [
            -0.0019940802395940426,
            60.003594623786185
          ],
          [
            -0.002024511642403084,
            60.00353741200881
          ],
          [
            -0.002053593238540115,
            60.00348020023143
          ],
          [
            -0.0020814858130902367,
            60.00342298845405
          ],
          [
            -0.0021082270975467414,
            60.00336577667667
          ],
          [
            -0.0021339036526273904,
            60.003306866198564
          ],
          [
            -0.0021586287421211272,
            60.003247538424645
          ],
          [
            -0.0021824599094979924,
            60.00318862910409
          ],
          [
            -0.002205488187124029,
            60.003129300172624
          ],
          [
            -0.002227755689367805,
            60.00307039200961
          ],
          [
            -0.0022492535365187206,
            60.003011061920596
          ],
          [
            -0.0022700359393999295,
            60.002952154915135
          ],
          [
            -0.002290318323478166,
            60.00289112901926
          ],
          [
            -0.002310544467033633,
            60.002830103123394
          ],
          [
            -0.0023311119129000328,
            60.00276907722752
          ],
          [
            -0.0023521248005969773,
            60.00270805133165
          ],
          [
            -0.0023735566951739845,
            60.00264702543578
          ],
          [
            -0.002395403355941057,
            60.00258599953991
          ],
          [
            -0.002417646620200482,
            60.002524973644036
          ],
          [
            -0.0024402028944740506,
            60.00246225715027
          ],
          [
            -0.0024629659831191435,
            60.00239910715503
          ],
          [
            -0.002485831495133664,
            60.002338081259154
          ],
          [
            -0.0025086846207416145,
            60.00227705536329
          ],
          [
            -0.0025314415898371983,
            60.00221434118462
          ],
          [
            -0.002554078786589386,
            60.00215118887428
          ],
          [
            -0.0025765716620431037,
            60.00208847585316
          ],
          [
            -0.002598831332473087,
            60.00202532238527
          ],
          [
            -0.0026207498433072625,
            60.001962610521694
          ],
          [
            -0.002642128639992274,
            60.001897770507334
          ],
          [
            -0.0026625151912499445,
            60.001834615303125
          ],
          [
            -0.0026813136806018746,
            60.00177190517587
          ],
          [
            -0.002698048207829173,
            60.001707065161504
          ],
          [
            -0.0027123394868323976,
            60.001642225147144
          ],
          [
            -0.002723840094020138,
            60.001577385132784
          ],
          [
            -0.002732654335966379,
            60.001512545118416
          ],
          [
            -0.002739190578685643,
            60.001447705104056
          ],
          [
            -0.0027436340786431888,
            60.00138286508969
          ],
          [
            -0.002745993314640142,
            60.00131634489536
          ],
          [
            -0.0027463479034524636,
            60.0012493703637
          ],
          [
            -0.002744821772449022,
            60.001184530349335
          ],
          [
            -0.0027412017455522093,
            60.001119690334974
          ],
          [
            -0.0027353961017952677,
            60.001053172455734
          ],
          [
            -0.0027277132719424582,
            60.00098619560898
          ],
          [
            -0.0027183159904481235,
            60.00092135559462
          ],
          [
            -0.0027071763614387365,
            60.000854839451705
          ],
          [
            -0.0026942395105361166,
            60.00078786086863
          ],
          [
            -0.0026796172564319876,
            60.00072134588326
          ],
          [
            -0.0026633086317011073,
            60.00065436614263
          ],
          [
            -0.0026453120030316877,
            60.00058952612827
          ],
          [
            -0.0026256613959499842,
            60.00052301287922
          ],
          [
            -0.002604370941873572,
            60.00045603140228
          ],
          [
            -0.0025815295912223505,
            60.00038951931078
          ],
          [
            -0.002557265515940985,
            60.000322536676286
          ],
          [
            -0.002531697834285025,
            60.000257696661926
          ],
          [
            -0.0025049709913337556,
            60.00019118630674
          ],
          [
            -0.0024771344092151867,
            60.00012420193593
          ],
          [
            -0.0024482949548986417,
            60.0000576927383
          ],
          [
            -0.00241867218534965,
            59.99999070720994
          ],
          [
            -0.0023884358320937823,
            59.99992586719557
          ],
          [
            -0.0023576905314691204,
            59.999859359734266
          ],
          [
            -0.002326532740855555,
            59.999792372469585
          ],
          [
            -0.002295097161099645,
            59.99972586616582
          ],
          [
            -0.0022635019006058653,
            59.99965887774359
          ],
          [
            -0.0022318183854993577,
            59.999594037729224
          ],
          [
            -0.002200083983985799,
            59.99952753316179
          ],
          [
            -0.002168320224686414,
            59.99946054300324
          ],
          [
            -0.0021365241288102783,
            59.99939403959334
          ],
          [
            -0.0021046679705763625,
            59.999327048277245
          ],
          [
            -0.0020727176467068642,
            59.9992605460249
          ],
          [
            -0.0020406420544403893,
            59.99919189189204
          ],
          [
            -0.0020083964508699065,
            59.999124898839625
          ]
        ]
      }
    }
  ]
}