{
  "type": "FeatureCollection",
  "features": [
    {
      "type": "Feature",
      "properties": {
        "source_file": "Autódromo José Carlos Pace_P_2026-08-14T03_14_04Z.duckdb",
        "track_name": "Autódromo José Carlos Pace",
        "track_layout": "Autódromo José Carlos Pace",
        "lap": 1
      },
      "geometry": {
        "type": "LineString",
        "coordinates": [
          [
            -0.0020094688977256013,
            59.99903693292647
          ],
          [
            -0.001975018778896717,
            59.99896884659119
          ],
          [
            -0.0019403664504959,
            59.99890019080125
          ],
          [
            -0.001905592355614526,
            59.99883477879378
          ],
          [
            -0.001870730836737801,
            59.99876669391863
          ],
          [
            -0.0018357903868122774,
            59.998698038128694
          ],
          [
            -0.00180077481057369,
            59.998632624661084
          ],
          [
            -0.001765695118050771,
            59.99856454124608
          ],
          [
            -0.0017305401020320853,
            59.99849588545614
          ],
          [
            -0.001695305874355914,
            59.9984272296662
          ],
          [
            -0.0016600099552185887,
            59.99836181425173
          ],
          [
            -0.00162464095970372,
            59.99829373278359
          ],
          [
            -0.0015891915683211553,
            59.99822507699364
          ],
          [
            -0.001553707989452565,
            59.9981564212037
          ],
          [
            -0.0015181847369176507,
            59.998087765413764
          ],
          [
            -0.001482558483276728,
            59.998019109623826
          ],
          [
            -0.0014467566549467242,
            59.99795369128908
          ],
          [
            -0.001410747120605741,
            59.99788561274121
          ],
          [
            -0.001374546361366867,
            59.99781695695127
          ],
          [
            -0.0013382194139595048,
            59.99774830116133
          ],
          [
            -0.001301840734534959,
            59.997679645371385
          ],
          [
            -0.0012654144623751576,
            59.997610989581446
          ],
          [
            -0.0012289254888328779,
            59.99754233379151
          ],
          [
            -0.0011923637398065195,
            59.99747367800157
          ],
          [
            -0.001155729728072144,
            59.99740502221162
          ],
          [
            -0.001119095618593049,
            59.997336366421685
          ],
          [
            -0.0010827570446058153,
            59.997267710631746
          ],
          [
            -0.001047119134381365,
            59.99720228694315
          ],
          [
            -0.0010124894361179854,
            59.9971406769784
          ],
          [
            -0.00097895150350789,
            59.99707964960956
          ],
          [
            -0.0009464404136030363,
            59.997018622240724
          ],
          [
            -0.0009149790406352813,
            59.99696082502638
          ],
          [
            -0.0008844597327478276,
            59.996906841535875
          ],
          [
            -0.0008547940988609665,
            59.99685344258814
          ],
          [
            -0.0008260281071510392,
            59.99680004364041
          ],
          [
            -0.0007981626052124983,
            59.99674987290032
          ],
          [
            -0.0007711689418869628,
            59.996703515884064
          ],
          [
            -0.0007449711271263626,
            59.99665774535743
          ],
          [
            -0.0007194561903200358,
            59.996611974830806
          ],
          [
            -0.00069443338470332,
            59.99656943056497
          ],
          [
            -0.0006696798202745418,
            59.99653070002296
          ],
          [
            -0.0006449442536282602,
            59.996489332630084
          ],
          [
            -0.0006201832281052147,
            59.996453825915296
          ],
          [
            -0.0005952667205152286,
            59.996416273706394
          ],
          [
            -0.0005699201686043903,
            59.99638135542809
          ],
          [
            -0.0005437831734797658,
            59.996350250873625
          ],
          [
            -0.0005165070076406015,
            59.996319737189204
          ],
          [
            -0.000487329322735314,
            59.99628922350479
          ],
          [
            -0.00045608574462205933,
            59.99625870982037
          ],
          [
            -0.00042266373122816123,
            59.9962314175296
          ],
          [
            -0.000387082400620056,
            59.996204718055736
          ],
          [
            -0.0003494314956429605,
            59.99617801858187
          ],
          [
            -0.00030992210493460524,
            59.99615453904151
          ],
          [
            -0.00026863122014657894,
            59.9961316537782
          ],
          [
            -0.00022556830139159383,
            59.99610876851489
          ],
          [
            -0.00018087307680698546,
            59.99608910172495
          ],
          [
            -0.00013465728972419412,
            59.996070030672186
          ],
          [
            -8.709586178663169e-05,
            59.99605417711937
          ],
          [
            -3.834187625778757e-05,
            59.99603892027716
          ],
          [
            1.1431674406010528e-05,
            59.99602366343495
          ],
          [
            6.212459529692253e-05,
            59.996011622632544
          ],
          [
            0.00011371444625509539,
            59.996000180000884
          ],
          [
            0.00016620014531296105,
            59.99598873736923
          ],
          [
            0.00021945923135827436,
            59.995980509317235
          ],
          [
            0.00027327464820090864,
            59.99597609498908
          ],
          [
            0.0003274120588731493,
            59.99597228077853
          ],
          [
            0.0003816251669522832,
            59.9959716796875
          ],
          [
            0.00043567450084832716,
            59.9959716796875
          ],
          [
            0.0004893318635475504,
            59.9959716796875
          ],
          [
            0.0005423837198163061,
            59.99597489134688
          ],
          [
            0.0005946664481487128,
            59.995978705557434
          ],
          [
            0.0006460561490690887,
            59.995985730453945
          ],
          [
            0.0006963851346958691,
            59.99599335887505
          ],
          [
            0.0007455842019947677,
            59.99600098729615
          ],
          [
            0.0007937079862833748,
            59.996011824943075
          ],
          [
            0.000840795216591907,
            59.99602326757473
          ],
          [
            0.0008868314467212846,
            59.996037918458775
          ],
          [
            0.0009317600301630734,
            59.996053175300986
          ],
          [
            0.0009754772929264388,
            59.9960684321432
          ],
          [
            0.0010178475980360101,
            59.9960836889854
          ],
          [
            0.0010588385479687672,
            59.99610215213315
          ],
          [
            0.0010984608539839512,
            59.99612442900473
          ],
          [
            0.0011370188764320123,
            59.99614410893594
          ],
          [
            0.001175763140798244,
            59.99616638483409
          ],
          [
            0.001216057630495689,
            59.996186065738726
          ],
          [
            0.0012584405922030164,
            59.99620513679148
          ],
          [
            0.0013029069338676104,
            59.99622420784424
          ],
          [
            0.0013492537971989,
            59.996240075998465
          ],
          [
            0.0013973405315055602,
            59.9962585352525
          ],
          [
            0.0014469801197838708,
            59.996271202455034
          ],
          [
            0.0014982330596202546,
            59.99628584652509
          ],
          [
            0.0015512472419639365,
            59.99629790241561
          ],
          [
            0.0016056062216260791,
            59.99630614458229
          ],
          [
            0.001661057066498345,
            59.9963137730034
          ],
          [
            0.0017176616116781264,
            59.9963214014245
          ],
          [
            0.0017752949053176834,
            59.996325830840775
          ],
          [
            0.0018337966157975628,
            59.996329645051325
          ],
          [
            0.0018931517312893958,
            59.996333459261876
          ],
          [
            0.0019532188365125438,
            59.996334075927734
          ],
          [
            0.002013776619716472,
            59.996330878869756
          ],
          [
            0.0020746455921909876,
            59.99633026123047
          ],
          [
            0.0021356880962565034,
            59.99632386906136
          ],
          [
            0.002196793112552421,
            59.996319436238096
          ],
          [
            0.0022578888775312495,
            59.99630923180529
          ],
          [
            0.002318995079537495,
            59.996300983798044
          ],
          [
            0.002380187369310225,
            59.99629016123924
          ],
          [
            0.0024414937096185127,
            59.996278718607584
          ],
          [
            0.0025028872770018864,
            59.996267275975924
          ],
          [
            0.002564542370106147,
            59.99625264066671
          ],
          [
            0.0026269238216808464,
            59.9962373838245
          ],
          [
            0.002690567462235954,
            59.99622212698229
          ],
          [
            0.0027557731307039017,
            59.996206870140085
          ],
          [
            0.002822740456512424,
            59.99619480402858
          ],
          [
            0.002891533844897316,
            59.99618017115293
          ],
          [
            0.002962136089324339,
            59.996168104068005
          ],
          [
            0.0030345238564259813,
            59.996156661436345
          ],
          [
            0.003108635488175968,
            59.99614840758854
          ],
          [
            0.0031844440500108148,
            59.9961375908703
          ],
          [
            0.003261849203835429,
            59.996129336049066
          ],
          [
            0.0033406865278042537,
            59.99612489495168
          ],
          [
            0.003420947691238246,
            59.99611789390413
          ],
          [
            0.0035025398226644975,
            59.99611345183331
          ],
          [
            0.0035853297107824684,
            59.99611282348633
          ],
          [
            0.003669235951590551,
            59.996109638109466
          ],
          [
            0.003754186080504078,
            59.99610900878906
          ],
          [
            0.0038399465132424454,
            59.996112193192495
          ],
          [
            0.003926307891754553,
            59.99611282348633
          ],
          [
            0.004013239990754923,
            59.99611919034634
          ],
          [
            0.004100587504658883,
            59.996123635824155
          ],
          [
            0.004188152508743632,
            59.99613063249129
          ],
          [
            0.0042757029945260676,
            59.996141442882255
          ],
          [
            0.004362736935093746,
            59.996149704030756
          ],
          [
            0.004449012525846559,
            59.996163694444746
          ],
          [
            0.004534471999514537,
            59.99617895128695
          ],
          [
            0.004619091545978203,
            59.99619420812916
          ],
          [
            0.0047028454062645235,
            59.99621264450767
          ],
          [
            0.004785897589019659,
            59.99623489461002
          ],
          [
            0.00486859445292314,
            59.996254601310454
          ],
          [
            0.0049513041942338175,
            59.99627685043938
          ],
          [
            0.00503398167511745,
            59.99629973570269
          ],
          [
            0.005116090968309744,
            59.99632579806874
          ],
          [
            0.005197447129695954,
            59.9963524975426
          ],
          [
            0.005277668525540961,
            59.996379197016466
          ],
          [
            0.005356173627343111,
            59.99640589649034
          ],
          [
            0.005433045201806334,
            59.99643894627596
          ],
          [
            0.005507774397375793,
            59.996470099501764
          ],
          [
            0.00558030244501453,
            59.99650378736863
          ],
          [
            0.005650671417783208,
            59.996538115263604
          ],
          [
            0.005718541039830523,
            59.9965756163676
          ],
          [
            0.005783895167070123,
            59.996613758473124
          ],
          [
            0.005846529372770955,
            59.99665507281424
          ],
          [
            0.005906350947024554,
            59.99669702913032
          ],
          [
            0.00596320283289183,
            59.99673898544639
          ],
          [
            0.0060170827097703545,
            59.996784112537924
          ],
          [
            0.006067988797123916,
            59.99682988306455
          ],
          [
            0.0061159896385197705,
            59.99687565359118
          ],
          [
            0.006161235255872384,
            59.99692142411781
          ],
          [
            0.0062039010251482155,
            59.99697036347304
          ],
          [
            0.006244248301136216,
            59.997019948210216
          ],
          [
            0.006282562016616969,
            59.9970695329474
          ],
          [
            0.006319083979873987,
            59.997119117684576
          ],
          [
            0.006353944874718468,
            59.99717186930351
          ],
          [
            0.006387512752401197,
            59.9972221018562
          ],
          [
            0.006420028317644144,
            59.997274852501704
          ],
          [
            0.006451650242753464,
            59.99732825144944
          ],
          [
            0.006482653896124461,
            59.997381650397166
          ],
          [
            0.006513297181348815,
            59.9974350493449
          ],
          [
            0.006543644129715335,
            59.99748844829263
          ],
          [
            0.00657380383404044,
            59.99754184724036
          ],
          [
            0.006603862671215234,
            59.997598409176135
          ],
          [
            0.006633864098114419,
            59.99765245983309
          ],
          [
            0.006663891512965431,
            59.99770585878082
          ],
          [
            0.006693978965286702,
            59.99776241925645
          ],
          [
            0.0067241220936701636,
            59.99781963241474
          ],
          [
            0.00675433388575423,
            59.99787368501855
          ],
          [
            0.0067846231576341644,
            59.997930244034045
          ],
          [
            0.0068149965058646325,
            59.99798745719232
          ],
          [
            0.006845482042579712,
            59.99804467035061
          ],
          [
            0.0068760857471095605,
            59.99809872490127
          ],
          [
            0.00690678495416889,
            59.99815528196991
          ],
          [
            0.006937575712914886,
            59.99821249512819
          ],
          [
            0.006968491712801929,
            59.99827286543396
          ],
          [
            0.006999542624089781,
            59.99833073614202
          ],
          [
            0.007030739025387739,
            59.99838794930031
          ],
          [
            0.007062128073887291,
            59.998445162458594
          ],
          [
            0.007093704531874465,
            59.99850553081751
          ],
          [
            0.007125437232601439,
            59.998563403472424
          ],
          [
            0.007157322613768229,
            59.99862061663071
          ],
          [
            0.007189358848536123,
            59.99868098352948
          ],
          [
            0.007221524282991765,
            59.99874201089832
          ],
          [
            0.007253820255715761,
            59.99879988550009
          ],
          [
            0.007286229121763701,
            59.998860250938726
          ],
          [
            0.007318699986414486,
            59.99892127830756
          ],
          [
            0.007351214913519468,
            59.99897915436947
          ],
          [
            0.007383781051285333,
            59.99903951834797
          ],
          [
            0.007416352190617441,
            59.99910054571681
          ],
          [
            0.007448777096461752,
            59.99916157308564
          ],
          [
            0.007480977587391549,
            59.99922260045447
          ],
          [
            0.007513044537901212,
            59.99928362782331
          ],
          [
            0.007545066549472539,
            59.99934465519215
          ],
          [
            0.007577092803368125,
            59.99940568256098
          ],
          [
            0.007609150290316702,
            59.99946985734304
          ],
          [
            0.0076412869511705995,
            59.99953155199592
          ],
          [
            0.007673578512123807,
            59.99959257936476
          ],
          [
            0.007705983381006381,
            59.99965675268667
          ],
          [
            0.007738493577826041,
            59.99971844879969
          ],
          [
            0.007771124122946773,
            59.99977947616853
          ],
          [
            0.007803816237092701,
            59.9998436480303
          ],
          [
            0.007836570584088112,
            59.999905345603466
          ],
          [
            0.007869396630445008,
            59.99996951649181
          ],
          [
            0.007902327611660907,
            60.0000343580712
          ],
          [
            0.007935400244770833,
            60.00009605710451
          ],
          [
            0.007968588702001064,
            60.000160226532714
          ],
          [
            0.00800180709665945,
            60.0002250681121
          ],
          [
            0.008035039293373335,
            60.00028676860554
          ],
          [
            0.0080682892901004,
            60.00035093657361
          ],
          [
            0.00810158627380011,
            60.000415778153
          ],
          [
            0.008134950126524026,
            60.000480619732386
          ],
          [
            0.008168373081137782,
            60.00054546131177
          ],
          [
            0.0082018597283847,
            60.00061030289116
          ],
          [
            0.008235424576189424,
            60.00067514447055
          ],
          [
            0.008269091111324678,
            60.000739986049936
          ],
          [
            0.008302890597203537,
            60.000804827629324
          ],
          [
            0.008336835706910958,
            60.00086966920871
          ],
          [
            0.008370908020397045,
            60.0009345107881
          ],
          [
            0.008405149170668407,
            60.00100248809959
          ],
          [
            0.008439625731861421,
            60.00106800864415
          ],
          [
            0.00847432853262927,
            60.001132850223534
          ],
          [
            0.00850917947210956,
            60.00119769180292
          ],
          [
            0.008544090707725665,
            60.00126566716755
          ],
          [
            0.008578955604528166,
            60.00133118965896
          ],
          [
            0.008613336023192204,
            60.00139603123835
          ],
          [
            0.008646779315121448,
            60.00146087281774
          ],
          [
            0.008679042402470302,
            60.001522582558735
          ],
          [
            0.008710074203108438,
            60.0015804785759
          ],
          [
            0.00873989049442376,
            60.00163769173418
          ],
          [
            0.008768554291698745,
            60.00169177451422
          ],
          [
            0.008796139571723701,
            60.00174517346195
          ],
          [
            0.008822726159890179,
            60.00179857240968
          ],
          [
            0.008848408800376895,
            60.00184884243931
          ],
          [
            0.008873265386416748,
            60.00189529874509
          ],
          [
            0.008897270188743218,
            60.001941069271716
          ],
          [
            0.008920198586911489,
            60.00198683979834
          ],
          [
            0.008941773375943795,
            60.002029483353716
          ],
          [
            0.00896180822117789,
            60.00207143966979
          ],
          [
            0.008980062618708741,
            60.002113395985866
          ],
          [
            0.008996232311911392,
            60.00215222679083
          ],
          [
            0.00901002399671717,
            60.00219036889635
          ],
          [
            0.009021091098816247,
            60.002228511001874
          ],
          [
            0.00902914595982509,
            60.00226665310739
          ],
          [
            0.009034156953157124,
            60.00230167164866
          ],
          [
            0.009035957923386913,
            60.002335999543625
          ],
          [
            0.009034546337568948,
            60.00237345002943
          ],
          [
            0.009029938342007809,
            60.00240847003083
          ],
          [
            0.009022099974740315,
            60.0024427979258
          ],
          [
            0.00901104234398546,
            60.00247400469008
          ],
          [
            0.008996755201352891,
            60.002507639018475
          ],
          [
            0.008979124877086485,
            60.00253884675618
          ],
          [
            0.008958228878193345,
            60.002569360440596
          ],
          [
            0.008934179769818378,
            60.00259987412502
          ],
          [
            0.008907079030553457,
            60.00263038780943
          ],
          [
            0.008876958519687065,
            60.00265778328344
          ],
          [
            0.008843845650891193,
            60.0026844827573
          ],
          [
            0.00880782272712957,
            60.002711182231174
          ],
          [
            0.008768857462368185,
            60.00273788170504
          ],
          [
            0.008727163234162751,
            60.002761464915345
          ],
          [
            0.00868277353950832,
            60.00278435017866
          ],
          [
            0.008635658770324293,
            60.00280723544197
          ],
          [
            0.008585880809120046,
            60.00283012070528
          ],
          [
            0.00853381523940039,
            60.00284989165189
          ],
          [
            0.008479907900368781,
            60.002865848874656
          ],
          [
            0.008424301618321256,
            60.00288421906015
          ],
          [
            0.008366934075090931,
            60.002897064399775
          ],
          [
            0.0083077516865761,
            60.00291161940129
          ],
          [
            0.008246800175118658,
            60.002923764360354
          ],
          [
            0.008184144120074547,
            60.002935206992014
          ],
          [
            0.008119843960607177,
            60.00294353871396
          ],
          [
            0.008054027622802091,
            60.00295116713506
          ],
          [
            0.007986832401343515,
            60.00295879555617
          ],
          [
            0.007918294769553422,
            60.00296642397727
          ],
          [
            0.007848533437253983,
            60.002970943435514
          ],
          [
            0.007777618366800507,
            60.002977866122215
          ],
          [
            0.007705579566362665,
            60.00298238655389
          ],
          [
            0.007632456500561176,
            60.00298620076444
          ],
          [
            0.007558291993836537,
            60.00299001497499
          ],
          [
            0.007483085260903862,
            60.00299382918554
          ],
          [
            0.007406791850805846,
            60.00299764339609
          ],
          [
            0.00732942142211753,
            60.00300145760664
          ],
          [
            0.007250976488415628,
            60.0030052718172
          ],
          [
            0.007171467986492264,
            60.00300598144531
          ],
          [
            0.007090913670018114,
            60.00300598144531
          ],
          [
            0.007009345797221868,
            60.00300908505432
          ],
          [
            0.006926811866386875,
            60.00300669302028
          ],
          [
            0.006843364043380339,
            60.00300598144531
          ],
          [
            0.006759073861800961,
            60.00300287929644
          ],
          [
            0.006674030447115832,
            60.00299906508589
          ],
          [
            0.006588330129144377,
            60.00299525087534
          ],
          [
            0.006502071707851813,
            60.002988335976056
          ],
          [
            0.006415370604160331,
            60.00298070755495
          ],
          [
            0.006328346360113185,
            60.00296997941854
          ],
          [
            0.006241115578263146,
            60.00296163601547
          ],
          [
            0.006153794920417868,
            60.00294781011061
          ],
          [
            0.00606657610740767,
            60.00293565152357
          ],
          [
            0.005979599318628307,
            60.00292111112346
          ],
          [
            0.005892941955371069,
            60.00290275699952
          ],
          [
            0.005806813097791411,
            60.002883685946756
          ],
          [
            0.005721389030759554,
            60.002864614893994
          ],
          [
            0.0056366720900880045,
            60.002842448019635
          ],
          [
            0.005552956936071674,
            60.00281956275632
          ],
          [
            0.005470422264056175,
            60.00279667749301
          ],
          [
            0.005389168892948277,
            60.002770697868236
          ],
          [
            0.005309406619466583,
            60.00274090451963
          ],
          [
            0.005231425240000579,
            60.00271039083521
          ],
          [
            0.005155227454763774,
            60.00267987715079
          ],
          [
            0.005080809652856321,
            60.002646271051766
          ],
          [
            0.005008044865538265,
            60.0026119431568
          ],
          [
            0.004936673138965471,
            60.00257761526183
          ],
          [
            0.004866620780422386,
            60.0025401964124
          ],
          [
            0.004797720139903164,
            60.002505144774624
          ],
          [
            0.004729824821999322,
            60.00246463691758
          ],
          [
            0.004662758616760415,
            60.002425770095826
          ],
          [
            0.0045963010170401155,
            60.0023876279903
          ],
          [
            0.004530418011285179,
            60.00234639736389
          ],
          [
            0.004465120482656871,
            60.00230444104781
          ],
          [
            0.004400366748459512,
            60.00226248473174
          ],
          [
            0.0043361084652366036,
            60.00222052841566
          ],
          [
            0.004272305401223386,
            60.00217857209959
          ],
          [
            0.004208923065243089,
            60.00213352969618
          ],
          [
            0.004145923045933171,
            60.00209084477017
          ],
          [
            0.0040832062743055295,
            60.002045803340195
          ],
          [
            0.004020746995585287,
            60.00200003281357
          ],
          [
            0.00395860484436156,
            60.001954262286944
          ],
          [
            0.00389670852323337,
            60.00190849176031
          ],
          [
            0.003835000497474026,
            60.001862721233685
          ],
          [
            0.0037735191644543585,
            60.00181695070706
          ],
          [
            0.0037122574757816177,
            60.001771180180434
          ],
          [
            0.0036511396253611048,
            60.001722327946894
          ],
          [
            0.0035901495755749934,
            60.00167582442992
          ],
          [
            0.003529439292636476,
            60.001630053903284
          ],
          [
            0.0034689608427634095,
            60.00158120312989
          ],
          [
            0.00340855191866736,
            60.00153161839271
          ],
          [
            0.003348065842211889,
            60.001485112928876
          ],
          [
            0.003287299265561033,
            60.001436263615616
          ],
          [
            0.0032259569875412544,
            60.00138667887844
          ],
          [
            0.0031637221239335916,
            60.00133709414126
          ],
          [
            0.0031002985824448706,
            60.00129058673057
          ],
          [
            0.003035612903239591,
            60.00124173936417
          ],
          [
            0.0029698312520215846,
            60.00119215462699
          ],
          [
            0.0029031542121377976,
            60.00114564575616
          ],
          [
            0.0028357295413429825,
            60.0010967998499
          ],
          [
            0.0027678044078279593,
            60.00105029000564
          ],
          [
            0.0026995302149644585,
            60.0010014450728
          ],
          [
            0.0026308623152758834,
            60.000951860335626
          ],
          [
            0.002561869812556641,
            60.00090534903123
          ],
          [
            0.0024926987867408225,
            60.00085650555853
          ],
          [
            0.0024233777978988473,
            60.000806920821354
          ],
          [
            0.0023539673757993133,
            60.00076040805681
          ],
          [
            0.002285052138750491,
            60.00071156604426
          ],
          [
            0.0022176861955419246,
            60.000665052306296
          ],
          [
            0.002152529900815727,
            60.00061928177967
          ],
          [
            0.0020897400395266377,
            60.00057658127883
          ],
          [
            0.0020292350051926223,
            60.000534624962754
          ],
          [
            0.0019709015660720076,
            60.00049266864668
          ],
          [
            0.0019145716827647205,
            60.00045378089625
          ],
          [
            0.0018600593226260692,
            60.000415638790734
          ],
          [
            0.0018071409450471927,
            60.00038056427743
          ],
          [
            0.0017554763296884239,
            60.00034623638246
          ],
          [
            0.0017044423192298954,
            60.00031190848749
          ],
          [
            0.001653164056731496,
            60.00027758059252
          ],
          [
            0.001600710573484047,
            60.00024631834292
          ],
          [
            0.0015464828694632432,
            60.0002158046585
          ],
          [
            0.0014902536790472676,
            60.000188355646024
          ],
          [
            0.0014319683404571788,
            60.00015859198693
          ],
          [
            0.0013715995871876655,
            60.00013420569954
          ],
          [
            0.0013090779556674944,
            60.000108257224426
          ],
          [
            0.0012443397624328392,
            60.00008462047565
          ],
          [
            0.0011773907257520216,
            60.000061735212334
          ],
          [
            0.0011083649185268261,
            60.000041911700684
          ],
          [
            0.001037394271424456,
            60.00002284064792
          ],
          [
            0.0009645968790033553,
            60.000006830373394
          ],
          [
            0.0008901461512379574,
            59.99999157353118
          ],
          [
            0.0008142036842696601,
            59.99997937649378
          ],
          [
            0.0007369198151385286,
            59.99996793386212
          ],
          [
            0.0006584870331802754,
            59.99995649123047
          ],
          [
            0.0005790904150902171,
            59.99994810694348
          ],
          [
            0.0004988912980372421,
            59.99994353638033
          ],
          [
            0.00041808917852171506,
            59.99993972216978
          ],
          [
            0.0003368731273496919,
            59.99993590795923
          ],
          [
            0.00025539014383201556,
            59.999935150146484
          ],
          [
            0.00017375109974696474,
            59.999938206057585
          ],
          [
            9.208020020048001e-05,
            59.999942020268136
          ],
          [
            1.0529000510362728e-05,
            59.99994888941636
          ],
          [
            -7.079455267918986e-05,
            59.99995651783747
          ],
          [
            -0.00015179799404445397,
            59.99996720022282
          ],
          [
            -0.00023233520422049353,
            59.99997864285447
          ],
          [
            -0.00031227769149682065,
            59.99999008548613
          ],
          [
            -0.0003914294184597854,
            60.00000458062189
          ],
          [
            -0.0004696332679276196,
            60.0000228894815
          ],
          [
            -0.0005466696827670966,
            60.000041960534254
          ],
          [
            -0.0006223716001463516,
            60.000061031587016
          ],
          [
            -0.0006966355019687982,
            60.00008315319703
          ],
          [
            -0.0007693004010094493,
            60.000106038460345
          ],
          [
            -0.0008401773728666558,
            60.00013197330748
          ],
          [
            -0.0009090769067298689,
            60.00016172187846
          ],
          [
            -0.0009758061089609729,
            60.00018918695248
          ],
          [
            -0.0010404066824465207,
            60.000218934550034
          ],
          [
            -0.0011026658445356882,
            60.00025249587142
          ],
          [
            -0.00116222168010411,
            60.000283776616136
          ],
          [
            -0.0012189499949765798,
            60.000320383627646
          ],
          [
            -0.0012726758642914446,
            60.00035547955633
          ],
          [
            -0.0013232771999097425,
            60.00039285314143
          ],
          [
            -0.0013709079043029409,
            60.000430995246944
          ],
          [
            -0.0014155385712864641,
            60.00046913735247
          ],
          [
            -0.0014572526679279148,
            60.00051032368797
          ],
          [
            -0.001495799916495217,
            60.00054923626078
          ],
          [
            -0.0015312052113798302,
            60.00059042162285
          ],
          [
            -0.0015636281082640128,
            60.00063542070877
          ],
          [
            -0.0015928954531577073,
            60.00067814895227
          ],
          [
            -0.0016188248546614734,
            60.000723147064754
          ],
          [
            -0.0016415211146871404,
            60.00076587628168
          ],
          [
            -0.0016610802758406694,
            60.00081087342075
          ],
          [
            -0.0016773393425707258,
            60.00085664394737
          ],
          [
            -0.001692371374167924,
            60.00090545432356
          ],
          [
            -0.0017082028079358495,
            60.00095199969789
          ],
          [
            -0.0017244551291176328,
            60.000997770224515
          ],
          [
            -0.0017403814675096916,
            60.00104354075114
          ],
          [
            -0.0017556309016284444,
            60.001089311277774
          ],
          [
            -0.0017700003832689527,
            60.001132044388406
          ],
          [
            -0.0017833001674383312,
            60.00117400070448
          ],
          [
            -0.0017953449918440235,
            60.00121292057799
          ],
          [
            -0.0018060023877225573,
            60.001251062683515
          ],
          [
            -0.0018150999950925415,
            60.00128920478904
          ],
          [
            -0.001822557718494545,
            60.001324311912136
          ],
          [
            -0.0018284708705732689,
            60.0013586398071
          ],
          [
            -0.0018329130912805478,
            60.001389933693076
          ],
          [
            -0.0018359096328241637,
            60.00142348089978
          ],
          [
            -0.0018374485587148279,
            60.0014517427236
          ],
          [
            -0.0018374391058580291,
            60.00148147474633
          ],
          [
            -0.0018357778554131106,
            60.0015089563686
          ],
          [
            -0.0018325020111680985,
            60.00153565584247
          ],
          [
            -0.0018275071436084022,
            60.00156235531634
          ],
          [
            -0.0018207539095539019,
            60.0015860241882
          ],
          [
            -0.0018121874013836206,
            60.0016119395668
          ],
          [
            -0.0018014746419864028,
            60.00163560941209
          ],
          [
            -0.0017883537364920131,
            60.00165546553354
          ],
          [
            -0.001772742581466068,
            60.00167756524145
          ],
          [
            -0.0017546089182887404,
            60.00169742233633
          ],
          [
            -0.0017340312289485975,
            60.00171649338909
          ],
          [
            -0.0017111751859898335,
            60.00173556444185
          ],
          [
            -0.0016861955374930587,
            60.001751608786314
          ],
          [
            -0.0016592161789285857,
            60.001766865628525
          ],
          [
            -0.0016303898496148053,
            60.00178212247073
          ],
          [
            -0.0015998714047147837,
            60.001794354064785
          ],
          [
            -0.001567820241059507,
            60.00180579669644
          ],
          [
            -0.0015344347946673249,
            60.0018172393281
          ],
          [
            -0.0014997832660630396,
            60.00182565817174
          ],
          [
            -0.0014639867117486496,
            60.00183328659284
          ],
          [
            -0.0014271680538272987,
            60.00184091501394
          ],
          [
            -0.0013894532640348622,
            60.00184552110717
          ],
          [
            -0.0013509645886982137,
            60.00184933531773
          ],
          [
            -0.001311840960772627,
            60.00185314952828
          ],
          [
            -0.0012722233324620872,
            60.001853942871094
          ],
          [
            -0.001232271655923361,
            60.00185092249007
          ],
          [
            -0.0011921603694134348,
            60.00185012817383
          ],
          [
            -0.0011520895770322866,
            60.001847108766235
          ],
          [
            -0.001112229188489286,
            60.00184329455568
          ],
          [
            -0.001072751353452787,
            60.001836461910955
          ],
          [
            -0.001033787302276521,
            60.00182883348985
          ],
          [
            -0.0009954801459299686,
            60.00182120506875
          ],
          [
            -0.0009579155211835829,
            60.001810559673615
          ],
          [
            -0.0009211282927205599,
            60.001799117041955
          ],
          [
            -0.0008852495559372981,
            60.0017876744103
          ],
          [
            -0.0008504688598273767,
            60.00177321626476
          ],
          [
            -0.0008169923711776349,
            60.00175795942255
          ],
          [
            -0.0007848370653600233,
            60.00174270258034
          ],
          [
            -0.000753417167156595,
            60.001727445738126
          ],
          [
            -0.000721339656728101,
            60.001709175328884
          ],
          [
            -0.0006876855115488659,
            60.001693117356446
          ],
          [
            -0.0006522943456957211,
            60.001677860514235
          ],
          [
            -0.0006154781426062825,
            60.001662603672024
          ],
          [
            -0.0005775937042381373,
            60.00164734682982
          ],
          [
            -0.0005387591349526125,
            60.00163208998761
          ],
          [
            -0.0004989859922815367,
            60.001619843792156
          ],
          [
            -0.0004583359421258616,
            60.00161141132054
          ],
          [
            -0.0004168786851332456,
            60.00160077322611
          ],
          [
            -0.00037471085494766404,
            60.00159233978107
          ],
          [
            -0.00033194706319722797,
            60.00158471135996
          ],
          [
            -0.0002886969751203913,
            60.00158009115204
          ],
          [
            -0.0002450802977176674,
            60.001573269215015
          ],
          [
            -0.00020113263110449388,
            60.00157165527344
          ],
          [
            -0.00015675841732249368,
            60.00156864852039
          ],
          [
            -0.0001119126137139841,
            60.00156784057617
          ],
          [
            -6.665799574471557e-05,
            60.00156784057617
          ],
          [
            -2.108934183112895e-05,
            60.00156784057617
          ],
          [
            2.4693708447986102e-05,
            60.00157084538237
          ],
          [
            7.058108013774654e-05,
            60.00157465959292
          ],
          [
            0.00011641898475936571,
            60.00157847380347
          ],
          [
            0.0001619320316770651,
            60.00158529136008
          ],
          [
            0.00020668576580938088,
            60.00159291978118
          ],
          [
            0.00025027490675401886,
            60.00160355057491
          ],
          [
            0.00029250500112411624,
            60.00161199132066
          ],
          [
            0.00033316116380952395,
            60.00162562254016
          ],
          [
            0.0003721478428680803,
            60.001637878469886
          ],
          [
            0.00040948130588422464,
            60.00165232152732
          ],
          [
            0.0004451178574810187,
            60.00166757836953
          ],
          [
            0.00047899676562753834,
            60.00168283521173
          ],
          [
            0.000511010401849747,
            60.00170109101958
          ],
          [
            0.0005408716334649184,
            60.00172016207234
          ],
          [
            0.0005684335816423014,
            60.0017392331251
          ],
          [
            0.0005935406416166004,
            60.00176130168335
          ],
          [
            0.0006157932313667437,
            60.00178118992789
          ],
          [
            0.0006349868110437682,
            60.00180625404478
          ],
          [
            0.0006511905791195327,
            60.0018299574733
          ],
          [
            0.0006643229564420635,
            60.00185284273661
          ],
          [
            0.0006742731901539314,
            60.00187872307185
          ],
          [
            0.0006810143429587327,
            60.00190542254571
          ],
          [
            0.000684569465761085,
            60.00193212201958
          ],
          [
            0.0006850300045415314,
            60.001958821493446
          ],
          [
            0.000682383104673002,
            60.00198552096731
          ],
          [
            0.0006765277745393948,
            60.00201222044118
          ],
          [
            0.0006674583776472991,
            60.002038919915044
          ],
          [
            0.0006551991281064115,
            60.00206561938891
          ],
          [
            0.0006397165604082125,
            60.00209231886277
          ],
          [
            0.0006209633538112445,
            60.00211901833664
          ],
          [
            0.000598977547684166,
            60.00214571781051
          ],
          [
            0.0005739950677248975,
            60.00217241728437
          ],
          [
            0.0005461804588165636,
            60.002199116758234
          ],
          [
            0.0005155100981500449,
            60.00222282748745
          ],
          [
            0.00048197300701114553,
            60.0022487010087
          ],
          [
            0.00044568836084363147,
            60.00227241271134
          ],
          [
            0.00040678037497038886,
            60.002295297974655
          ],
          [
            0.00036534091058152194,
            60.00231818323797
          ],
          [
            0.0003213970020522868,
            60.00234106850128
          ],
          [
            0.0002748641980850101,
            60.00236395376459
          ],
          [
            0.0002260993432148559,
            60.002386839027906
          ],
          [
            0.0001756105068694555,
            60.002409724291226
          ],
          [
            0.00012412401925500496,
            60.00243260955454
          ],
          [
            7.18982862565896e-05,
            60.00245549481785
          ],
          [
            1.917482287323477e-05,
            60.002478380081165
          ],
          [
            -3.373252073987935e-05,
            60.00250126534448
          ],
          [
            -8.657040736096653e-05,
            60.00252713302517
          ],
          [
            -0.00013918018812788047,
            60.00255085056837
          ],
          [
            -0.00019152411291125098,
            60.00257671727564
          ],
          [
            -0.00024364981492486942,
            60.0026034167495
          ],
          [
            -0.0002955133762421554,
            60.00263309669389
          ],
          [
            -0.00034695341899618215,
            60.002660630394494
          ],
          [
            -0.00039768726814826767,
            60.00269030936546
          ],
          [
            -0.0004475779233325688,
            60.00272082304988
          ],
          [
            -0.0004964238282828629,
            60.00275431525797
          ],
          [
            -0.0005441404824428158,
            60.00278566511598
          ],
          [
            -0.0005906389751465347,
            60.00281915635065
          ],
          [
            -0.0006359190489935181,
            60.00285646130914
          ],
          [
            -0.000680007574091067,
            60.00289162683785
          ],
          [
            -0.0007228939235667907,
            60.002928930822925
          ],
          [
            -0.0007646638701705237,
            60.002964097325055
          ],
          [
            -0.000805400439197694,
            60.00300140033671
          ],
          [
            -0.0008448700790916377,
            60.003042517072195
          ],
          [
            -0.0008826223044827127,
            60.00308149924501
          ],
          [
            -0.0009182814012610378,
            60.00312261500708
          ],
          [
            -0.0009515557250324735,
            60.003161598153326
          ],
          [
            -0.0009823280174580777,
            60.00319974025885
          ],
          [
            -0.0010106160165631345,
            60.003234910167976
          ],
          [
            -0.0010365246100250294,
            60.003272209772625
          ],
          [
            -0.0010602858325429064,
            60.00330738065518
          ],
          [
            -0.0010821785731930111,
            60.00333873781389
          ],
          [
            -0.0011022516966246788,
            60.00337222174785
          ],
          [
            -0.001120565274995671,
            60.00340357987999
          ],
          [
            -0.0011371144755525913,
            60.00343112428829
          ],
          [
            -0.0011516833753818215,
            60.003460792551564
          ],
          [
            -0.0011641202591722076,
            60.00349130623598
          ],
          [
            -0.0011744371994594916,
            60.00351885210442
          ],
          [
            -0.001182657250477919,
            60.003545551578284
          ],
          [
            -0.0011886230728873422,
            60.003572251052155
          ],
          [
            -0.001192261427532785,
            60.00359895052602
          ],
          [
            -0.0011934585162611429,
            60.00362564999988
          ],
          [
            -0.0011919210578481651,
            60.00364938409134
          ],
          [
            -0.0011874068796634907,
            60.00367226935465
          ],
          [
            -0.0011797571859995843,
            60.003695154617965
          ],
          [
            -0.0011690128069423704,
            60.00371803988128
          ],
          [
            -0.0011552559740410254,
            60.00374092514459
          ],
          [
            -0.001138575378199294,
            60.00376084745906
          ],
          [
            -0.0011190434109232845,
            60.003779918511825
          ],
          [
            -0.0010968162930094535,
            60.00379898956459
          ],
          [
            -0.001072124986920936,
            60.00381806061735
          ],
          [
            -0.0010452146598449324,
            60.003834170668114
          ],
          [
            -0.0010162847890120355,
            60.003849427510325
          ],
          [
            -0.000985557726840293,
            60.00386172432397
          ],
          [
            -0.0009532578604339341,
            60.00387316695563
          ],
          [
            -0.0009196462683052529,
            60.00388460958729
          ],
          [
            -0.0008849576208392108,
            60.00389309365052
          ],
          [
            -0.0008494154733271605,
            60.00390072207162
          ],
          [
            -0.000813261006510048,
            60.00390539289773
          ],
          [
            -0.0007767357361849588,
            60.003909207108286
          ],
          [
            -0.0007400979294338476,
            60.00391302131884
          ],
          [
            -0.0007034882813820899,
            60.00391387939453
          ],
          [
            -0.0006669166244478952,
            60.00391387939453
          ],
          [
            -0.0006304408185909833,
            60.003910924233104
          ],
          [
            -0.0005941621094142479,
            60.00390711002255
          ],
          [
            -0.0005582036973049395,
            60.003903295811995
          ],
          [
            -0.0005227259879708514,
            60.00389652790015
          ],
          [
            -0.00048787294926809727,
            60.00388889947905
          ],
          [
            -0.0004537913820115899,
            60.00387831833008
          ],
          [
            -0.0004205782952170731,
            60.00386687569843
          ],
          [
            -0.00038835472657488136,
            60.00385543306677
          ],
          [
            -0.00035726177860948195,
            60.00384103916739
          ],
          [
            -0.0003272270437484668,
            60.00382873310619
          ],
          [
            -0.00029817543821115743,
            60.003811389885946
          ],
          [
            -0.0002698705103834436,
            60.003795268640765
          ],
          [
            -0.00024211756785513867,
            60.00377706247769
          ],
          [
            -0.00021455490732523385,
            60.003757991424926
          ],
          [
            -0.00018680305786220218,
            60.003738920372165
          ],
          [
            -0.00015856170951881896,
            60.0037198493194
          ],
          [
            -0.00012964675293604454,
            60.00369783089263
          ],
          [
            -9.994134518976071e-05,
            60.00367789251661
          ],
          [
            -6.938829352625634e-05,
            60.00365587506327
          ],
          [
            -3.798914777800567e-05,
            60.003632989799954
          ],
          [
            -5.746374679357329e-06,
            60.00361010453664
          ],
          [
            2.734629826863144e-05,
            60.00358427433287
          ],
          [
            6.131754154036067e-05,
            60.00356051931274
          ],
          [
            9.620653997578597e-05,
            60.00353469008241
          ],
          [
            0.00013206632950907228,
            60.00350799060855
          ],
          [
            0.00016902949775929137,
            60.003481291134676
          ],
          [
            0.00020732003969658642,
            60.00345459166081
          ],
          [
            0.00024710646243081085,
            60.00342789218695
          ],
          [
            0.0002883924688013243,
            60.003401192713085
          ],
          [
            0.00033132065044177544,
            60.003374493239214
          ],
          [
            0.0003763450254833036,
            60.00334779376535
          ],
          [
            0.00042354303821730103,
            60.003321094291486
          ],
          [
            0.0004729324643334428,
            60.00329439481762
          ],
          [
            0.0005246172424985674,
            60.00326769534375
          ],
          [
            0.0005785544788716586,
            60.00324099586989
          ],
          [
            0.000634784556748477,
            60.003214296396024
          ],
          [
            0.0006936389664010827,
            60.0031905345619
          ],
          [
            0.0007551596013632897,
            60.00316764929859
          ],
          [
            0.0008193051035063007,
            60.00314476403528
          ],
          [
            0.0008860619760597335,
            60.003121878771964
          ],
          [
            0.000955530055603816,
            60.00310192920154
          ],
          [
            0.0010275068634890041,
            60.00308285814879
          ],
          [
            0.0011019391856568696,
            60.003063787096025
          ],
          [
            0.001178676909582523,
            60.00304765027602
          ],
          [
            0.0012575430259722396,
            60.003032393433806
          ],
          [
            0.0013384538015870473,
            60.003017136591595
          ],
          [
            0.0014212541750749093,
            60.003004812522
          ],
          [
            0.0015055831961486696,
            60.00299336989035
          ],
          [
            0.0015913442622026146,
            60.002984859057875
          ],
          [
            0.001678521717566912,
            60.00297723063677
          ],
          [
            0.0017668478823918313,
            60.002969602215664
          ],
          [
            0.001855952430235375,
            60.002967834472656
          ],
          [
            0.0019456550689020526,
            60.00296490462032
          ],
          [
            0.002035883629111242,
            60.00296401977539
          ],
          [
            0.002126532687810281,
            60.0029669486543
          ],
          [
            0.00221739945013234,
            60.00297076286485
          ],
          [
            0.0023082601723443765,
            60.00297750498088
          ],
          [
            0.0023989159387108197,
            60.002988060820755
          ],
          [
            0.0024891551405369036,
            60.00299950345241
          ],
          [
            0.0025787537343205653,
            60.00301094608407
          ],
          [
            0.0026675151947885803,
            60.00302531467435
          ],
          [
            0.0027551928300263077,
            60.003043496988475
          ],
          [
            0.0028415723575152983,
            60.00306256804123
          ],
          [
            0.0029264899472052903,
            60.00308456359248
          ],
          [
            0.003009765685046319,
            60.00310744885579
          ],
          [
            0.0030912514859565963,
            60.003133257644166
          ],
          [
            0.0031707591553121104,
            60.00316288015638
          ],
          [
            0.0032482636707057803,
            60.003190471289166
          ],
          [
            0.0033236793770579096,
            60.00322301489287
          ],
          [
            0.0033970192207545117,
            60.00325734278784
          ],
          [
            0.0034680836160267147,
            60.003291670682806
          ],
          [
            0.0035369619238757276,
            60.00332891918256
          ],
          [
            0.003603939055525184,
            60.00336706128808
          ],
          [
            0.003669185066444847,
            60.003405203393605
          ],
          [
            0.003732834694836118,
            60.00344334549913
          ],
          [
            0.0037949986606265994,
            60.00348440626257
          ],
          [
            0.0038557503926181813,
            60.00352636257865
          ],
          [
            0.003915118743947402,
            60.00357123657922
          ],
          [
            0.003973245025485924,
            60.00361408990806
          ],
          [
            0.004030318951500158,
            60.00365896293521
          ],
          [
            0.004086693835693982,
            60.00370473346184
          ],
          [
            0.004142959181531344,
            60.00375050398846
          ],
          [
            0.0041996527597115176,
            60.00379627451509
          ],
          [
            0.004256865241594991,
            60.003842045041715
          ],
          [
            0.004314369529501368,
            60.00388781556835
          ],
          [
            0.004371485715252824,
            60.00393358609497
          ],
          [
            0.0044272596726554455,
            60.0039793566216
          ],
          [
            0.004481180476671472,
            60.00402221433086
          ],
          [
            0.004533111678601697,
            60.004064170646934
          ],
          [
            0.004583048698001282,
            60.00410612696301
          ],
          [
            0.0046310341507700345,
            60.00414517192186
          ],
          [
            0.004677076955669193,
            60.00418331402738
          ],
          [
            0.004721121053718307,
            60.0042214561329
          ],
          [
            0.004763113831707467,
            60.00425668834134
          ],
          [
            0.004803082257927003,
            60.00429101623631
          ],
          [
            0.004841102771054616,
            60.00432243520763
          ],
          [
            0.004877220680252321,
            60.00435585732899
          ],
          [
            0.004911345148753231,
            60.00438727727373
          ],
          [
            0.00494326052792986,
            60.00441779095814
          ],
          [
            0.00497278533627201,
            60.004445397665755
          ],
          [
            0.0049997283817075884,
            60.004475003629715
          ],
          [
            0.00502397428860716,
            60.004502611310755
          ],
          [
            0.005045522109685821,
            60.004532216301286
          ],
          [
            0.005064215394633623,
            60.00455982495575
          ],
          [
            0.005079889415804874,
            60.00458652442962
          ],
          [
            0.005092415668587464,
            60.00461322390348
          ],
          [
            0.005101760451901791,
            60.00464282694716
          ],
          [
            0.00510789609727233,
            60.00467043754848
          ],
          [
            0.005110760521927453,
            60.00469713702235
          ],
          [
            0.005110398461671553,
            60.00472383649621
          ],
          [
            0.005106792088190988,
            60.004750535970075
          ],
          [
            0.005099901733473581,
            60.00477723544394
          ],
          [
            0.005089718596930957,
            60.00480393491781
          ],
          [
            0.005076288347630913,
            60.00483063439167
          ],
          [
            0.005059651210881947,
            60.00485443418943
          ],
          [
            0.005039837627896983,
            60.004877319452746
          ],
          [
            0.0050169604316558725,
            60.00490310341874
          ],
          [
            0.004991187458266183,
            60.004926904676644
          ],
          [
            0.004962589826998265,
            60.004946892210704
          ],
          [
            0.004931174472923584,
            60.004968860506004
          ],
          [
            0.004896971488677505,
            60.00498884901349
          ],
          [
            0.004860075110653489,
            60.005007920066255
          ],
          [
            0.00482060648699356,
            60.00502699111902
          ],
          [
            0.00477871994319165,
            60.00504316687609
          ],
          [
            0.004734506888382207,
            60.0050584237183
          ],
          [
            0.004688041048235428,
            60.005073680560514
          ],
          [
            0.004639408075295979,
            60.00508893740272
          ],
          [
            0.004588588800075136,
            60.00510419424493
          ],
          [
            0.00453566953252524,
            60.00511655822502
          ],
          [
            0.004480888407626039,
            60.00512800085668
          ],
          [
            0.004424447836236643,
            60.00513944348833
          ],
          [
            0.004366416779678662,
            60.00515377752197
          ],
          [
            0.004306786758234608,
            60.00516614344891
          ],
          [
            0.0042455845855026595,
            60.00517758608057
          ],
          [
            0.004182839567724265,
            60.00518902871223
          ],
          [
            0.004118703818992311,
            60.00519758188876
          ],
          [
            0.004053577059110024,
            60.00520809927828
          ],
          [
            0.003987281040311459,
            60.00521954190993
          ],
          [
            0.003919744327743147,
            60.0052280965466
          ],
          [
            0.003850973751414165,
            60.00523861247598
          ],
          [
            0.003780954100748987,
            60.00524716808608
          ],
          [
            0.003709656550971428,
            60.00525479650719
          ],
          [
            0.0036370649504692937,
            60.00526242492829
          ],
          [
            0.0035631753485977605,
            60.00527005334939
          ],
          [
            0.003488012881995841,
            60.0052776817705
          ],
          [
            0.0034116229182289087,
            60.00528242560361
          ],
          [
            0.0033340612549583428,
            60.00528623981417
          ],
          [
            0.0032554039730155237,
            60.00529005402472
          ],
          [
            0.0031757164560342094,
            60.00529098510742
          ],
          [
            0.00309507353049315,
            60.005293867748556
          ],
          [
            0.0030135389618464272,
            60.00529479980469
          ],
          [
            0.002931177556864572,
            60.005291918136976
          ],
          [
            0.002848045209458126,
            60.00529098510742
          ],
          [
            0.0027641918249393643,
            60.00528810441314
          ],
          [
            0.002679670027648043,
            60.00528429020259
          ],
          [
            0.0025945249684298935,
            60.00528047599204
          ],
          [
            0.0025088037510737956,
            60.00527666178149
          ],
          [
            0.002422801005276802,
            60.005269968823505
          ],
          [
            0.002336412673199034,
            60.005262340402396
          ],
          [
            0.0022496031959082807,
            60.005254711981294
          ],
          [
            0.0021624057728878735,
            60.00524708356019
          ],
          [
            0.002074866687776217,
            60.00523657833851
          ],
          [
            0.001987024095359458,
            60.00522513570685
          ],
          [
            0.0018988754663759734,
            60.0052136930752
          ],
          [
            0.001810426377492349,
            60.00520225044354
          ],
          [
            0.0017216963008879554,
            60.005190807811886
          ],
          [
            0.001632660097032558,
            60.00517649081322
          ],
          [
            0.0015433518171870135,
            60.00516123397101
          ],
          [
            0.0014538236535541107,
            60.0051459771288
          ],
          [
            0.001364083941357907,
            60.005130720286594
          ],
          [
            0.00127412522372,
            60.00511546344438
          ],
          [
            0.0011839110455288413,
            60.00509733466873
          ],
          [
            0.0010934408899483238,
            60.005081135062696
          ],
          [
            0.0010027141760756088,
            60.005063007260475
          ],
          [
            0.0009117602554420277,
            60.00504393620771
          ],
          [
            0.0008205942535829834,
            60.00502486515495
          ],
          [
            0.0007291891910807479,
            60.00500579410219
          ],
          [
            0.0006375877407132542,
            60.004986723049434
          ],
          [
            0.0005459536868023841,
            60.00496478347022
          ],
          [
            0.00045418186876335266,
            60.00494189820691
          ],
          [
            0.0003622744496022815,
            60.00492188049662
          ],
          [
            0.00027028119246545285,
            60.00489994237755
          ],
          [
            0.0001782134572957721,
            60.004877057114236
          ],
          [
            8.610728551808057e-05,
            60.00485417185092
          ],
          [
            -5.9252119225435684e-06,
            60.00482842098144
          ],
          [
            -9.778123877596271e-05,
            60.00480458662703
          ],
          [
            -0.0001893461919878009,
            60.00477883673098
          ],
          [
            -0.0002804461406024991,
            60.00475213725711
          ],
          [
            -0.0003709893267299147,
            60.00472257412393
          ],
          [
            -0.00046080042757853706,
            60.004694923612114
          ],
          [
            -0.0005494294536918518,
            60.00466536145236
          ],
          [
            -0.0006366816323887997,
            60.00463198556877
          ],
          [
            -0.0007223786466218658,
            60.00460051938626
          ],
          [
            -0.0008062274078932467,
            60.00456714447609
          ],
          [
            -0.000888069334316431,
            60.00452995584209
          ],
          [
            -0.0009676413954457472,
            60.00449181373657
          ],
          [
            -0.0010449449988256285,
            60.00445367163105
          ],
          [
            -0.0011200457433635984,
            60.00441267024663
          ],
          [
            -0.0011929335439047656,
            60.004370713930555
          ],
          [
            -0.0012633524544252005,
            60.00432875761448
          ],
          [
            -0.0013313536286282581,
            60.004283943479656
          ],
          [
            -0.0013966787424940915,
            60.00423817295303
          ],
          [
            -0.0014589963222601326,
            60.0041924024264
          ],
          [
            -0.0015182464192192036,
            60.00414377554116
          ],
          [
            -0.0015743868249377374,
            60.00409419080398
          ],
          [
            -0.0016276119910771344,
            60.004044606066806
          ],
          [
            -0.001678072818140164,
            60.00399216643115
          ],
          [
            -0.001726031190485974,
            60.00394162189518
          ],
          [
            -0.0017717063750189875,
            60.00388918323296
          ],
          [
            -0.0018151344128692548,
            60.00383578428522
          ],
          [
            -0.001856420732649732,
            60.003782385337495
          ],
          [
            -0.001895816681233976,
            60.00372613392486
          ],
          [
            -0.0019336457544818317,
            60.00367177274476
          ],
          [
            -0.0019698298413513278,
            60.00361552230555
          ],
          [
            -0.002004212203185264,
            60.003558309147266
          ],
          [
            -0.0020369371448774715,
            60.00350394650704
          ],
          [
            -0.0020680300787841903,
            60.00344769752797
          ],
          [
            -0.002097709107676592,
            60.00338763482506
          ],
          [
            -0.002126430594103084,
            60.00332945651414
          ],
          [
            -0.002154606634895392,
            60.00327224335585
          ],
          [
            -0.002182292228725315,
            60.003215030197566
          ],
          [
            -0.0022095625685328267,
            60.00315496944151
          ],
          [
            -0.0022366776337792212,
            60.003096789183736
          ],
          [
            -0.0022638556305155824,
            60.0030367294011
          ],
          [
            -0.002291236262247576,
            60.00297570203227
          ],
          [
            -0.0023188327658523007,
            60.002917520314355
          ],
          [
            -0.002346529072694126,
            60.002857461991866
          ],
          [
            -0.0023742278614850496,
            60.00279643462303
          ],
          [
            -0.0024019049077874037,
            60.00273540725419
          ],
          [
            -0.0024295667202044666,
            60.00267722358942
          ],
          [
            -0.0024572388697555216,
            60.002617167213785
          ],
          [
            -0.0024849088752010025,
            60.00255613984495
          ],
          [
            -0.0025125005853245193,
            60.00249227023219
          ],
          [
            -0.0025397015522351948,
            60.00243027041002
          ],
          [
            -0.0025659661046375103,
            60.00236924304118
          ],
          [
            -0.002590967379836392,
            60.00230821567234
          ],
          [
            -0.0026144485347567425,
            60.002244348006435
          ],
          [
            -0.00263602632633691,
            60.002182346237404
          ],
          [
            -0.0026554432988818307,
            60.002118479544926
          ],
          [
            -0.0026729509471150547,
            60.002056476802466
          ],
          [
            -0.002688785922873478,
            60.001992611083416
          ],
          [
            -0.0027031088388011467,
            60.00192776950403
          ],
          [
            -0.002715776712483838,
            60.001865765301424
          ],
          [
            -0.0027265663975591945,
            60.00180190104251
          ],
          [
            -0.0027354820650654817,
            60.001737059463125
          ],
          [
            -0.0027426809168506336,
            60.00167221788374
          ],
          [
            -0.002748161124362819,
            60.00160737630435
          ],
          [
            -0.0027519191129837597,
            60.00154253472496
          ],
          [
            -0.0027541947647301314,
            60.001477693145574
          ],
          [
            -0.0027550688475253644,
            60.00141001759639
          ],
          [
            -0.0027544633580339007,
            60.00134419528953
          ],
          [
            -0.002752371949712056,
            60.001279353710146
          ],
          [
            -0.002748792064333992,
            60.00121451213076
          ],
          [
            -0.002743697877255132,
            60.00114683852843
          ],
          [
            -0.002736879914360671,
            60.00108101427472
          ],
          [
            -0.0027286004983606317,
            60.00101617269532
          ],
          [
            -0.0027190093463399555,
            60.000948500553136
          ],
          [
            -0.002708066924996107,
            60.00088267483928
          ],
          [
            -0.0026957470534624277,
            60.000817833259894
          ],
          [
            -0.002682107112010827,
            60.000750162577845
          ],
          [
            -0.002667131300933852,
            60.000684335403854
          ],
          [
            -0.00265078937920167,
            60.00061666569523
          ],
          [
            -0.0026331099607725095,
            60.00055083754781
          ],
          [
            -0.0026140620039833647,
            60.000483168812615
          ],
          [
            -0.002593680315069595,
            60.00041733969177
          ],
          [
            -0.0025720190465988424,
            60.00034967193
          ],
          [
            -0.0025490744802817203,
            60.00028384183573
          ],
          [
            -0.002524941012828332,
            60.000219000256344
          ],
          [
            -0.0024996595602362406,
            60.00015133395471
          ],
          [
            -0.0024732342434088065,
            60.000085502400296
          ],
          [
            -0.002445764197748397,
            60.00001783707209
          ],
          [
            -0.0024173349311481665,
            59.999952004544255
          ],
          [
            -0.002388044624150379,
            59.99988434018948
          ],
          [
            -0.0023579838193868293,
            59.999818506688214
          ],
          [
            -0.00232718992296743,
            59.99975084330686
          ],
          [
            -0.0022957195269087015,
            59.999685008832174
          ],
          [
            -0.002263618168192846,
            59.99961734642425
          ],
          [
            -0.002230995039985193,
            59.99955151097613
          ],
          [
            -0.0021980717546969462,
            59.99948384954163
          ],
          [
            -0.0021649837614188374,
            59.99941801312009
          ],
          [
            -0.0021317697480324896,
            59.99935035265902
          ],
          [
            -0.0020984826875148927,
            59.99928451526405
          ],
          [
            -0.0020651541484057005,
            59.9992168557764
          ],
          [
            -0.002031787233443417,
            59.999151017408
          ]
        ]
      }
    }
  ]
}