{
  "type": "FeatureCollection",
  "features": [
    {
      "type": "Feature",
      "properties": {
        "source_file": "Fuji Speedway_P_2026-08-13T22_40_32Z.duckdb",
        "track_name": "Fuji Speedway",
        "track_layout": "Fuji Speedway",
        "lap": 2
      },
      "geometry": {
        "type": "LineString",
        "coordinates": [
          [
            -0.0001599265968694761,
            60.000051346891546
          ],
          [
            -4.973535655788604e-05,
            60.000092334722254
          ],
          [
            6.057100390905652e-05,
            60.00013429137943
          ],
          [
            0.00017096094788692366,
            60.00017624803661
          ],
          [
            0.0002814610063194329,
            60.00021820469379
          ],
          [
            0.00039209064131459013,
            60.00025731775869
          ],
          [
            0.0005028718904423801,
            60.00029830331088
          ],
          [
            0.0006138133991051254,
            60.00034025996806
          ],
          [
            0.0007249056006709978,
            60.00038221662524
          ],
          [
            0.0008361163119844971,
            60.00042417328242
          ],
          [
            0.0009474114070713037,
            60.000466129939596
          ],
          [
            0.0010587964761196843,
            60.000508086596774
          ],
          [
            0.0011702977384441737,
            60.00055004325395
          ],
          [
            0.001281926749520505,
            60.00059199991114
          ],
          [
            0.001393679058232265,
            60.000633956568315
          ],
          [
            0.001505563039584765,
            60.00067591322549
          ],
          [
            0.0016175767191207574,
            60.00071786988267
          ],
          [
            0.0017296963657486893,
            60.00075982653985
          ],
          [
            0.0018419337011326919,
            60.000801783197026
          ],
          [
            0.0019543296259763128,
            60.00084373985421
          ],
          [
            0.0020669158534488063,
            60.0008885332681
          ],
          [
            0.0021796523274451025,
            60.00093146786583
          ],
          [
            0.0022924356443747526,
            60.00097342452301
          ],
          [
            0.00240520093635749,
            60.00101538118019
          ],
          [
            0.0025179420834047393,
            60.001057337837366
          ],
          [
            0.00263074346616771,
            60.00110212897275
          ],
          [
            0.0027436411471118477,
            60.001145065848995
          ],
          [
            0.0028566202897713703,
            60.00118702250617
          ],
          [
            0.0029696833245855037,
            60.00123181227444
          ],
          [
            0.0030828565248416104,
            60.001274750517794
          ],
          [
            0.0031960295631370717,
            60.00131670717497
          ],
          [
            0.0033090761921382534,
            60.00136149557613
          ],
          [
            0.0034219176115641934,
            60.0014044351866
          ],
          [
            0.003534632796701359,
            60.00144922267634
          ],
          [
            0.0036472867183136417,
            60.00149216319822
          ],
          [
            0.0037599015876267636,
            60.00153694977656
          ],
          [
            0.0038725407156343806,
            60.00157989120984
          ],
          [
            0.003985227704593986,
            60.00162467687678
          ],
          [
            0.004097959605558417,
            60.00167044777552
          ],
          [
            0.004210736934198441,
            60.001713390575915
          ],
          [
            0.004323579336708749,
            60.00175817487573
          ],
          [
            0.004436501371582455,
            60.001803945774476
          ],
          [
            0.004549518230970528,
            60.00184688994199
          ],
          [
            0.004662622522367852,
            60.00189167287469
          ],
          [
            0.004775819460835934,
            60.00193744377343
          ],
          [
            0.004889109888358967,
            60.00198321467217
          ],
          [
            0.00500248158070223,
            60.00202898557091
          ],
          [
            0.005115900213550165,
            60.00207193201694
          ],
          [
            0.005229369982527037,
            60.00211671267113
          ],
          [
            0.005342900563775103,
            60.00216248356987
          ],
          [
            0.005456503177945782,
            60.00220825446861
          ],
          [
            0.005570196716390586,
            60.00225402536735
          ],
          [
            0.005684036576726385,
            60.002299796266094
          ],
          [
            0.005798067177621764,
            60.00234556716483
          ],
          [
            0.005912272824383286,
            60.00238851680079
          ],
          [
            0.006026687714606264,
            60.002433294265046
          ],
          [
            0.006141309097323365,
            60.00247906516379
          ],
          [
            0.006256045298618634,
            60.002524836062534
          ],
          [
            0.006370884815195193,
            60.00257060696127
          ],
          [
            0.006485843836779241,
            60.002616377860015
          ],
          [
            0.006600925419513001,
            60.00266214875875
          ],
          [
            0.006716185170396542,
            60.002707919657496
          ],
          [
            0.00683163246162138,
            60.00275087293908
          ],
          [
            0.006947234070415616,
            60.00279564675771
          ],
          [
            0.007062971625938112,
            60.00284141765645
          ],
          [
            0.007178845079013841,
            60.00288718855519
          ],
          [
            0.007294835467754845,
            60.00293295945393
          ],
          [
            0.007410913731470262,
            60.00297591501404
          ],
          [
            0.007527044580699976,
            60.00302068655415
          ],
          [
            0.007643145426234229,
            60.00306645745289
          ],
          [
            0.007759179757190863,
            60.00311222835163
          ],
          [
            0.007875138638391331,
            60.00315799925037
          ],
          [
            0.007990984525609403,
            60.00320377014911
          ],
          [
            0.0081066381072321,
            60.00324954104785
          ],
          [
            0.008221662364674937,
            60.00329249979789
          ],
          [
            0.008334750673170624,
            60.003337268148066
          ],
          [
            0.008444352555415223,
            60.00338022780951
          ],
          [
            0.008549751579029931,
            60.003422184466686
          ],
          [
            0.008650899252492444,
            60.00346414112387
          ],
          [
            0.008747866575714889,
            60.00350328791086
          ],
          [
            0.008840846538961169,
            60.00354143032648
          ],
          [
            0.008930064445527706,
            60.003576763783315
          ],
          [
            0.009015666887434732,
            60.00361109195737
          ],
          [
            0.009097752709926563,
            60.00364542013143
          ],
          [
            0.00917639121559645,
            60.00367694071382
          ],
          [
            0.009251732258040506,
            60.00370745464631
          ],
          [
            0.009323942990357903,
            60.003737968578804
          ],
          [
            0.009393201162209765,
            60.00376567628674
          ],
          [
            0.0094596079781317,
            60.00379237597767
          ],
          [
            0.009523234439370946,
            60.00381627035546
          ],
          [
            0.009584166366229158,
            60.003839155804826
          ],
          [
            0.009642517589666343,
            60.003862041254195
          ],
          [
            0.00969842581403055,
            60.00388492670356
          ],
          [
            0.00975199813596624,
            60.00390781215294
          ],
          [
            0.009803413442836579,
            60.003927894567674
          ],
          [
            0.009852868206879143,
            60.003946965775484
          ],
          [
            0.009900508376276504,
            60.00396603698329
          ],
          [
            0.009946440786444587,
            60.0039851081911
          ],
          [
            0.009990779167768145,
            60.0040013781871
          ],
          [
            0.010033791750494138,
            60.004019435909456
          ],
          [
            0.010076041991233103,
            60.00403570681686
          ],
          [
            0.010118065130224977,
            60.00405096378311
          ],
          [
            0.01016012973827091,
            60.00406342136036
          ],
          [
            0.010202371694121795,
            60.00407486408504
          ],
          [
            0.010244897370814224,
            60.00408350833214
          ],
          [
            0.010287688949614104,
            60.004091136815255
          ],
          [
            0.010330622149300939,
            60.00409876529838
          ],
          [
            0.010373507534568643,
            60.004106393781505
          ],
          [
            0.010416171012846587,
            60.00410842895508
          ],
          [
            0.010458471506398795,
            60.00411122515415
          ],
          [
            0.010500277248934932,
            60.004112243652344
          ],
          [
            0.01054146652523903,
            60.004112243652344
          ],
          [
            0.010581925876056783,
            60.00410944882039
          ],
          [
            0.010621551769380518,
            60.00410563457882
          ],
          [
            0.0106602272877908,
            60.00410182033726
          ],
          [
            0.010697796804848916,
            60.0040980060957
          ],
          [
            0.010734150021077407,
            60.00409139884499
          ],
          [
            0.01076958890082682,
            60.00408377036187
          ],
          [
            0.010804398947257116,
            60.00407334978101
          ],
          [
            0.010838692820694502,
            60.004061907056325
          ],
          [
            0.010872319126204637,
            60.00405046433164
          ],
          [
            0.010905201822651025,
            60.00403902160696
          ],
          [
            0.010937148579294523,
            60.00402478860735
          ],
          [
            0.0109679020119967,
            60.0040095316411
          ],
          [
            0.010997400363979982,
            60.00399427467486
          ],
          [
            0.011025374032100427,
            60.0039762288008
          ],
          [
            0.011051618091347302,
            60.00395715759299
          ],
          [
            0.011075952413632423,
            60.00393808638518
          ],
          [
            0.011098169742245331,
            60.003919015177374
          ],
          [
            0.011118028552789103,
            60.00389715688457
          ],
          [
            0.011135416014827355,
            60.0038742714352
          ],
          [
            0.011150418970657777,
            60.00385138598583
          ],
          [
            0.011163140844592426,
            60.003828500536464
          ],
          [
            0.011173783210838817,
            60.00380282982491
          ],
          [
            0.011182428604758866,
            60.00377613013398
          ],
          [
            0.011189020767615711,
            60.00374943044305
          ],
          [
            0.011193524343418313,
            60.003722730752116
          ],
          [
            0.011196006838645706,
            60.00369603106119
          ],
          [
            0.01119641474369264,
            60.0036665483866
          ],
          [
            0.011194689151488415,
            60.003636034454104
          ],
          [
            0.011190771011442297,
            60.00360552052161
          ],
          [
            0.011184746343003867,
            60.00357500658912
          ],
          [
            0.011176779994274029,
            60.00354171149578
          ],
          [
            0.011166944654473526,
            60.00351016402686
          ],
          [
            0.01115541145554396,
            60.00347686984493
          ],
          [
            0.01114238772094926,
            60.00344254167088
          ],
          [
            0.01112794655088922,
            60.00340821349682
          ],
          [
            0.01111235121382317,
            60.003373885322766
          ],
          [
            0.011095771831934803,
            60.003339557148706
          ],
          [
            0.011078146685828455,
            60.00330245100374
          ],
          [
            0.011059460703565234,
            60.003267086103335
          ],
          [
            0.011039599355275938,
            60.00322998086977
          ],
          [
            0.011018433955344168,
            60.00319183845415
          ],
          [
            0.010995970635301396,
            60.00315369603854
          ],
          [
            0.010972167082551889,
            60.00311555362292
          ],
          [
            0.010946904017047383,
            60.0030774112073
          ],
          [
            0.010920049155157912,
            60.00303926879168
          ],
          [
            0.010891465131532054,
            60.00300112637606
          ],
          [
            0.010861119297700743,
            60.00296021009087
          ],
          [
            0.01082886946181209,
            60.00292102684757
          ],
          [
            0.010794540340969336,
            60.00288288443195
          ],
          [
            0.01075808374226101,
            60.00284196951386
          ],
          [
            0.010719593396500894,
            60.002802784903444
          ],
          [
            0.010679098143425972,
            60.00276187089677
          ],
          [
            0.010636585290414564,
            60.00272268537495
          ],
          [
            0.0105921166334063,
            60.00268177227968
          ],
          [
            0.01054582508674052,
            60.002642585846445
          ],
          [
            0.010497733156804563,
            60.00260167366258
          ],
          [
            0.01044789075418877,
            60.00256248631795
          ],
          [
            0.010396363914125049,
            60.00252157504549
          ],
          [
            0.010343185019069775,
            60.002482386789445
          ],
          [
            0.010288353181423996,
            60.0024414764284
          ],
          [
            0.010231949629293467,
            60.00240228726095
          ],
          [
            0.010174049272565416,
            60.002361377811305
          ],
          [
            0.01011466846673729,
            60.002322187732446
          ],
          [
            0.010053899055723976,
            60.00228404531683
          ],
          [
            0.009991748141541633,
            60.0022431372343
          ],
          [
            0.009928258565696084,
            60.00220394578833
          ],
          [
            0.009863487676563901,
            60.002163038617205
          ],
          [
            0.009797536619492647,
            60.00212384625983
          ],
          [
            0.009730556531303159,
            60.00208570384421
          ],
          [
            0.00966263005104782,
            60.0020447980402
          ],
          [
            0.009593799195938025,
            60.00200560431571
          ],
          [
            0.009524118322903528,
            60.00196469942311
          ],
          [
            0.009453622321995979,
            60.00192550478721
          ],
          [
            0.009382329587809591,
            60.001884600806015
          ],
          [
            0.009310261339946935,
            60.001845405258706
          ],
          [
            0.009237443549079433,
            60.001804502188925
          ],
          [
            0.009163897148993318,
            60.00176530573021
          ],
          [
            0.009089642106995392,
            60.001724403571835
          ],
          [
            0.009014719788115428,
            60.00168244691465
          ],
          [
            0.008939246215498558,
            60.00164324908882
          ],
          [
            0.008863269292457182,
            60.00160234829756
          ],
          [
            0.008786720996730332,
            60.00156039164038
          ],
          [
            0.008709604298069962,
            60.00152119244744
          ],
          [
            0.00863201628499093,
            60.00148029302329
          ],
          [
            0.008554074520085232,
            60.00143833636611
          ],
          [
            0.008475862664178666,
            60.00139637970893
          ],
          [
            0.008397418506983717,
            60.00135442305175
          ],
          [
            0.008318780638253493,
            60.00131246639457
          ],
          [
            0.008239978018548647,
            60.001270509737395
          ],
          [
            0.008161001645937346,
            60.00122855308022
          ],
          [
            0.008081844898694823,
            60.00118659642303
          ],
          [
            0.008002554572581973,
            60.00114188640295
          ],
          [
            0.00792315954360508,
            60.00109886841141
          ],
          [
            0.007843682099422527,
            60.00105691175423
          ],
          [
            0.007764231696915819,
            60.00101220310126
          ],
          [
            0.00768500203760716,
            60.00096643220252
          ],
          [
            0.007606146334796307,
            60.00092341238816
          ],
          [
            0.007527694401931244,
            60.0008787051023
          ],
          [
            0.007449513180262574,
            60.000832934203565
          ],
          [
            0.007371643798624059,
            60.00078716330482
          ],
          [
            0.007295051673828856,
            60.00074139240608
          ],
          [
            0.007220814624791698,
            60.00069837031321
          ],
          [
            0.007149422757653305,
            60.000656413656024
          ],
          [
            0.007081026027252528,
            60.000614456998846
          ],
          [
            0.00701570504823069,
            60.000575247780425
          ],
          [
            0.006953468500990204,
            60.000537105364806
          ],
          [
            0.006894295474274262,
            60.00049896294919
          ],
          [
            0.006838170663841799,
            60.00046082053357
          ],
          [
            0.006785339908312774,
            60.00042267811796
          ],
          [
            0.0067361022860613975,
            60.00038453570234
          ],
          [
            0.006690519704561199,
            60.00034639328672
          ],
          [
            0.0066487685439140295,
            60.0003082508711
          ],
          [
            0.006610781425807543,
            60.00027010845548
          ],
          [
            0.006576531736066465,
            60.00023196603987
          ],
          [
            0.006546001059903565,
            60.00019108074253
          ],
          [
            0.006519185723873721,
            60.00015186651137
          ],
          [
            0.0064961991912921456,
            60.00011098212544
          ],
          [
            0.0064770652281847755,
            60.00007176698286
          ],
          [
            0.006461882980798722,
            60.00003088350835
          ],
          [
            0.006450522599336626,
            59.99999166745437
          ],
          [
            0.006442885102265596,
            59.999950784891254
          ],
          [
            0.006438395519220312,
            59.99990882823408
          ],
          [
            0.006437718082678181,
            59.99986961081298
          ],
          [
            0.006440931742448148,
            59.999828729616986
          ],
          [
            0.006447702615660136,
            59.99978677295981
          ],
          [
            0.006458132743493674,
            59.9997475541716
          ],
          [
            0.006471728444490609,
            59.99970667434271
          ],
          [
            0.00648795624426352,
            59.99966471768553
          ],
          [
            0.006506459121677456,
            59.999622761028355
          ],
          [
            0.006527111432628003,
            59.99958080437118
          ],
          [
            0.006549945567748897,
            59.999538847714
          ],
          [
            0.0065749557213769915,
            59.999496891056815
          ],
          [
            0.006602124199273425,
            59.99945493439964
          ],
          [
            0.006631448709568065,
            59.99941297774246
          ],
          [
            0.006662945332066359,
            59.99937102108528
          ],
          [
            0.006696532511570326,
            59.9993290644281
          ],
          [
            0.006732188236836599,
            59.999287107770925
          ],
          [
            0.006769903846598629,
            59.999242418713216
          ],
          [
            0.006809650250905145,
            59.9991993797593
          ],
          [
            0.006851343717726446,
            59.99915742310212
          ],
          [
            0.006894854104940504,
            59.99911546644494
          ],
          [
            0.006939998834605643,
            59.99907350978776
          ],
          [
            0.006985966797186911,
            59.99902882300857
          ],
          [
            0.007031314922651338,
            59.998985781776135
          ],
          [
            0.007074855748737988,
            59.99894109590836
          ],
          [
            0.007116036391812021,
            59.99889532500962
          ],
          [
            0.007154730897643367,
            59.998849554110876
          ],
          [
            0.007190728396710885,
            59.99880105536865
          ],
          [
            0.007223918127380445,
            59.99875419761613
          ],
          [
            0.007254342946288776,
            59.99870569978531
          ],
          [
            0.0072820264085208,
            59.99865611464501
          ],
          [
            0.0073070047837004055,
            59.998606529504706
          ],
          [
            0.007329221412347236,
            59.998554218799434
          ],
          [
            0.007348644673106062,
            59.998503544526834
          ],
          [
            0.007365181772215238,
            59.99845123473297
          ],
          [
            0.007378568355803558,
            59.998397835351106
          ],
          [
            0.007388788789311359,
            59.998344435969244
          ],
          [
            0.00739579482375418,
            59.99829103658738
          ],
          [
            0.007399327032892862,
            59.99823491437477
          ],
          [
            0.0073990979903990495,
            59.998180423126385
          ],
          [
            0.007394897514090192,
            59.99812702374452
          ],
          [
            0.0073865744891741004,
            59.99807090289902
          ],
          [
            0.007373971532204325,
            59.998016410283526
          ],
          [
            0.007357113021002574,
            59.997963010901664
          ],
          [
            0.0073360736030035475,
            59.997909611519795
          ],
          [
            0.007310901581039488,
            59.99785621213793
          ],
          [
            0.007281599017793551,
            59.99780553194118
          ],
          [
            0.007248218655539536,
            59.99775594680088
          ],
          [
            0.007210877589539171,
            59.997706361660576
          ],
          [
            0.007169695744902168,
            59.99765677652027
          ],
          [
            0.007124738674065694,
            59.99760990874227
          ],
          [
            0.0070760058956257504,
            59.99756413784353
          ],
          [
            0.007023550944275819,
            59.99751836694479
          ],
          [
            0.006967365503864757,
            59.99747531204123
          ],
          [
            0.0069074495036340585,
            59.997433355384054
          ],
          [
            0.006843935441603565,
            59.997391398726876
          ],
          [
            0.006776911602113521,
            59.99735215669777
          ],
          [
            0.006706429986362653,
            59.99731672845452
          ],
          [
            0.006632623889463092,
            59.9972796865638
          ],
          [
            0.006555592257568675,
            59.99724425740915
          ],
          [
            0.0064754494955524535,
            59.99721264204035
          ],
          [
            0.006392322702967709,
            59.99718212810786
          ],
          [
            0.006306362256980567,
            59.997151614175365
          ],
          [
            0.006217729415132165,
            59.997123811681014
          ],
          [
            0.0061265909988684475,
            59.99709711199009
          ],
          [
            0.006033136166023332,
            59.99707312282589
          ],
          [
            0.005937548722636071,
            59.99705023737652
          ],
          [
            0.005840039367895158,
            59.99703006154248
          ],
          [
            0.005741037704960966,
            59.9970136994943
          ],
          [
            0.0056410618032937555,
            59.99699844252805
          ],
          [
            0.005540353918908463,
            59.99698318556181
          ],
          [
            0.005438988454477016,
            59.996973344180596
          ],
          [
            0.005337229056061183,
            59.99696571569747
          ],
          [
            0.0052355007830218675,
            59.996958087214345
          ],
          [
            0.005134078309321742,
            59.99695587158203
          ],
          [
            0.005033196616179487,
            59.99695587158203
          ],
          [
            0.004933102100997596,
            59.99695587158203
          ],
          [
            0.004834039088704968,
            59.996958576640324
          ],
          [
            0.004736232019419295,
            59.99696509548448
          ],
          [
            0.004639883814100349,
            59.996972723967595
          ],
          [
            0.004545229797024211,
            59.9969830561419
          ],
          [
            0.004452427813961048,
            59.996997202102065
          ],
          [
            0.0043614764129666864,
            59.99701245906831
          ],
          [
            0.004272279856728036,
            59.99702771603456
          ],
          [
            0.004184857675372428,
            59.99704567486917
          ],
          [
            0.004099396467182093,
            59.99706744748964
          ],
          [
            0.004015996437281691,
            59.99709033293901
          ],
          [
            0.003934766826771895,
            59.997115918889634
          ],
          [
            0.0038558109589719855,
            59.99714261858057
          ],
          [
            0.0037791103236931418,
            59.997172017861345
          ],
          [
            0.003704621712229354,
            59.99720253179384
          ],
          [
            0.003632399158200913,
            59.99723304572633
          ],
          [
            0.0035625648881277877,
            59.99726625788156
          ],
          [
            0.0034951714695005956,
            59.997300586055616
          ],
          [
            0.0034302295517001265,
            59.997337611541
          ],
          [
            0.0033676751449327365,
            59.997373057100994
          ],
          [
            0.0033075106321593653,
            59.99741277807489
          ],
          [
            0.003249838694058116,
            59.997452038787856
          ],
          [
            0.0031947471305888964,
            59.99749287669198
          ],
          [
            0.0031421360909772394,
            59.99753483334916
          ],
          [
            0.0030918812820703925,
            59.99757948458344
          ],
          [
            0.0030437024459758787,
            59.997622561360785
          ],
          [
            0.002997291553064645,
            59.997667211683655
          ],
          [
            0.0029522517937225273,
            59.9977129825824
          ],
          [
            0.002908081986485556,
            59.99775606072685
          ],
          [
            0.002864498830502863,
            59.997798017384035
          ],
          [
            0.002821439857265461,
            59.99783728219833
          ],
          [
            0.002778844038999632,
            59.997875424613945
          ],
          [
            0.00273678141328228,
            59.997910876098096
          ],
          [
            0.0026953468497421078,
            59.99794789474792
          ],
          [
            0.002654495453591039,
            59.997980657123406
          ],
          [
            0.0026142168176803956,
            59.99801386062026
          ],
          [
            0.002574479591034445,
            59.998042810577005
          ],
          [
            0.002535134253713215,
            59.99807219892089
          ],
          [
            0.0024960792667183865,
            59.99810002465613
          ],
          [
            0.002457250677860881,
            59.99812672434707
          ],
          [
            0.002418529672781583,
            59.998153424037994
          ],
          [
            0.0023796083166970467,
            59.99818012372893
          ],
          [
            0.0023399234872091786,
            59.99820413704543
          ],
          [
            0.002298914199033455,
            59.998227022494795
          ],
          [
            0.0022562730110840556,
            59.99824990794417
          ],
          [
            0.002211871721262523,
            59.998270108386215
          ],
          [
            0.002165696129180416,
            59.998289179594025
          ],
          [
            0.0021178727458473615,
            59.998308250801834
          ],
          [
            0.002068598632294783,
            59.99832463836943
          ],
          [
            0.0020180063930143877,
            59.99833989533568
          ],
          [
            0.001966250174172187,
            59.998355152301926
          ],
          [
            0.0019135011938496511,
            59.99836772699508
          ],
          [
            0.0018598917610429017,
            59.99837648790237
          ],
          [
            0.0018055837206131103,
            59.99838411638549
          ],
          [
            0.0017507922793343026,
            59.99839174486861
          ],
          [
            0.0016957756253907384,
            59.99839669290145
          ],
          [
            0.0016407423927149525,
            59.99840050714302
          ],
          [
            0.0015857190667590264,
            59.9984016418457
          ],
          [
            0.0015306919163839364,
            59.99839896276253
          ],
          [
            0.0014756793206358986,
            59.99839782714844
          ],
          [
            0.001420807522203558,
            59.99839247080491
          ],
          [
            0.0013662527709637387,
            59.998387520037845
          ],
          [
            0.0013122291449303952,
            59.998378351275576
          ],
          [
            0.0012589810843213302,
            59.99836958535554
          ],
          [
            0.0012067513924469617,
            59.998356604174525
          ],
          [
            0.0011557000398413442,
            59.99834402310152
          ],
          [
            0.0011059145907690727,
            59.9983299049393
          ],
          [
            0.001057558314249057,
            59.99831197299121
          ],
          [
            0.0010107790149067235,
            59.9982929017834
          ],
          [
            0.0009657569086944832,
            59.99827383057559
          ],
          [
            0.0009227961764224315,
            59.99825475936778
          ],
          [
            0.0008819584483425037,
            59.998233015000956
          ],
          [
            0.0008431230733033285,
            59.99820745684827
          ],
          [
            0.0008061744853659111,
            59.998183429404946
          ],
          [
            0.0007709491814844062,
            59.99815787216367
          ],
          [
            0.0007373350997360389,
            59.99813117247274
          ],
          [
            0.0007051284673311751,
            59.998101801901306
          ],
          [
            0.0006743363865639194,
            59.998073958393604
          ],
          [
            0.0006451760337426775,
            59.998044588733585
          ],
          [
            0.0006177015028021663,
            59.9980114052877
          ],
          [
            0.0005920073050785032,
            59.99797974617133
          ],
          [
            0.0005681952223026154,
            59.99794656363685
          ],
          [
            0.0005460830664358048,
            59.9979122354628
          ],
          [
            0.0005257055408007329,
            59.99787790728874
          ],
          [
            0.0005071337800472965,
            59.99784357911469
          ],
          [
            0.0004903367494444643,
            59.99780658416147
          ],
          [
            0.00047545927107111034,
            59.99776844174585
          ],
          [
            0.0004626063466869845,
            59.99773029933023
          ],
          [
            0.00045174984261254255,
            59.99769215691461
          ],
          [
            0.00044290830149579415,
            59.997654014499
          ],
          [
            0.0004361130676371681,
            59.99761320758273
          ],
          [
            0.0004314847177160166,
            59.99757125092555
          ],
          [
            0.00042916653302221483,
            59.99753195785761
          ],
          [
            0.00042913312971706077,
            59.99749115230846
          ],
          [
            0.0004311936514166956,
            59.99744919565128
          ],
          [
            0.0004349888102945833,
            59.99740457677198
          ],
          [
            0.00044027700451625725,
            59.99736146763966
          ],
          [
            0.0004471248667574572,
            59.99731684967176
          ],
          [
            0.0004556895931932375,
            59.997273739628035
          ],
          [
            0.00046596159229140253,
            59.99722912257154
          ],
          [
            0.00047763567226014384,
            59.99718601161641
          ],
          [
            0.0004905544804013127,
            59.997141395471324
          ],
          [
            0.0005046340013306167,
            59.99709562457259
          ],
          [
            0.0005197291604184006,
            59.99704985367384
          ],
          [
            0.0005357782701959966,
            59.997004082775106
          ],
          [
            0.0005527496847205994,
            59.99695831187636
          ],
          [
            0.0005704475508446644,
            59.99690988376824
          ],
          [
            0.000588287112153785,
            59.996862955381616
          ],
          [
            0.0006056611102336807,
            59.9968145281849
          ],
          [
            0.000622296936169408,
            59.99676759888687
          ],
          [
            0.0006381649572133322,
            59.99671917260156
          ],
          [
            0.0006533095322618939,
            59.996669587461255
          ],
          [
            0.0006677638218878792,
            59.99662000232095
          ],
          [
            0.0006815057487063249,
            59.99657041718065
          ],
          [
            0.0006944871980255509,
            59.9965181784766
          ],
          [
            0.0007066335635616501,
            59.996467432202785
          ],
          [
            0.0007178691262290234,
            59.99641784706248
          ],
          [
            0.0007280719951944526,
            59.99636560972554
          ],
          [
            0.0007370482630288498,
            59.99631221034367
          ],
          [
            0.0007445049664375447,
            59.99626146224704
          ],
          [
            0.000750086043672415,
            59.99620922627721
          ],
          [
            0.000753338350784247,
            59.99615582689535
          ],
          [
            0.0007538640519769635,
            59.99610242751348
          ],
          [
            0.0007512738438867846,
            59.996049028131615
          ],
          [
            0.0007450231863360949,
            59.995992979743036
          ],
          [
            0.0007347604114311979,
            59.99593841467062
          ],
          [
            0.0007205360844195695,
            59.995885015288756
          ],
          [
            0.0007024050909602434,
            59.995831615906894
          ],
          [
            0.0006805136694327977,
            59.995778216525025
          ],
          [
            0.0006550595017594273,
            59.99572481714316
          ],
          [
            0.000626025580553075,
            59.9956714177613
          ],
          [
            0.0005935987771458185,
            59.99561801837943
          ],
          [
            0.0005577792672244105,
            59.99556461899757
          ],
          [
            0.0005188249208650136,
            59.99551121961571
          ],
          [
            0.0004770263418068333,
            59.995457820233845
          ],
          [
            0.0004323636749654921,
            59.995404420851976
          ],
          [
            0.0003853712028664734,
            59.99535366500838
          ],
          [
            0.00033639074726216973,
            59.99530143678552
          ],
          [
            0.0002856246094379633,
            59.99525068003051
          ],
          [
            0.00023322016646280862,
            59.99519845271905
          ],
          [
            0.00017917802202135452,
            59.99514769505264
          ],
          [
            0.00012352035880567686,
            59.995098109912334
          ],
          [
            6.639144726325904e-05,
            59.99504852477203
          ],
          [
            7.98844745193939e-06,
            59.99499629928339
          ],
          [
            -5.163099998719101e-05,
            59.994945539794166
          ],
          [
            -0.00011287978035009398,
            59.99489595465386
          ],
          [
            -0.00017595237614592636,
            59.99484636951356
          ],
          [
            -0.00024060481806326004,
            59.99479678437326
          ],
          [
            -0.0003066815027556507,
            59.994747199232954
          ],
          [
            -0.00037433450265697104,
            59.99469761409265
          ],
          [
            -0.00044368329121281585,
            59.994650666110765
          ],
          [
            -0.0005147994663284464,
            59.99460225850931
          ],
          [
            -0.0005877068088514046,
            59.99455267336901
          ],
          [
            -0.0006623954971999604,
            59.99450572402001
          ],
          [
            -0.0007388533931334134,
            59.99445731778567
          ],
          [
            -0.0008170491196143341,
            59.99441036752526
          ],
          [
            -0.0008969064604868622,
            59.99436459662652
          ],
          [
            -0.0009784214896719828,
            59.99431882572778
          ],
          [
            -0.0010615433812425756,
            59.99427305482904
          ],
          [
            -0.0011462709355132706,
            59.9942272839303
          ],
          [
            -0.0012326249611769073,
            59.994181513031556
          ],
          [
            -0.001320555720868431,
            59.994138374278485
          ],
          [
            -0.0014100410174223553,
            59.99409378593134
          ],
          [
            -0.0015010654159552167,
            59.994050646266864
          ],
          [
            -0.0015935555159323068,
            59.994006058831125
          ],
          [
            -0.0016874555971504888,
            59.993962918255235
          ],
          [
            -0.001782746814999413,
            59.99392096159806
          ],
          [
            -0.0018792962807567728,
            59.99387900494088
          ],
          [
            -0.0019770838547384147,
            59.9938370482837
          ],
          [
            -0.002076072638947673,
            59.99379772012656
          ],
          [
            -0.0021761752590335284,
            59.99375694966661
          ],
          [
            -0.0022773108663002163,
            59.99371762059806
          ],
          [
            -0.0023794107283966626,
            59.993676851049514
          ],
          [
            -0.002482434613544502,
            59.99363752106956
          ],
          [
            -0.0025863845974163375,
            59.99359937865394
          ],
          [
            -0.0026912451675556877,
            59.99356123623833
          ],
          [
            -0.0027969479153932973,
            59.9935204685126
          ],
          [
            -0.002903371390947509,
            59.993481136709825
          ],
          [
            -0.003010252459043053,
            59.993442994294206
          ],
          [
            -0.00311724947165363,
            59.993404851878594
          ],
          [
            -0.00322420297032795,
            59.993366709462975
          ],
          [
            -0.003330581572176831,
            59.99332856704736
          ],
          [
            -0.003434974756035086,
            59.99329042463174
          ],
          [
            -0.0035361353691627864,
            59.993254904336304
          ],
          [
            -0.0036335909783806095,
            59.99321795449777
          ],
          [
            -0.003727360322508332,
            59.993182433290926
          ],
          [
            -0.003817587073128188,
            59.993150725869945
          ],
          [
            -0.0039045266162240997,
            59.99312021193745
          ],
          [
            -0.0039883380906645316,
            59.99308969800496
          ],
          [
            -0.004069086995762227,
            59.993059184072465
          ],
          [
            -0.004146871009187167,
            59.99303128907023
          ],
          [
            -0.004221899463349902,
            59.9930045893793
          ],
          [
            -0.0042943558278522,
            59.992980507707216
          ],
          [
            -0.0043642566664621124,
            59.9929550046947
          ],
          [
            -0.004431529844625017,
            59.992930922111206
          ],
          [
            -0.0044961648928332236,
            59.99291065331357
          ],
          [
            -0.004558177740529916,
            59.992888965909735
          ],
          [
            -0.004617658227690165,
            59.992868696200695
          ],
          [
            -0.004674636436221994,
            59.992849624992886
          ],
          [
            -0.004729148660893356,
            59.992833168614
          ],
          [
            -0.0047812785930698345,
            59.99281529727453
          ],
          [
            -0.004831240849257648,
            59.99279883998424
          ],
          [
            -0.004879363013466818,
            59.99278358301799
          ],
          [
            -0.004925990076794579,
            59.99277093905785
          ],
          [
            -0.004971352436608376,
            59.992759496333164
          ],
          [
            -0.005015616381660854,
            59.99274805360848
          ],
          [
            -0.005058909524060796,
            59.99273922252279
          ],
          [
            -0.00510140125059096,
            59.99273159403967
          ],
          [
            -0.005143299816593974,
            59.99272396555654
          ],
          [
            -0.005184658756596452,
            59.9927189473453
          ],
          [
            -0.005225357872967657,
            59.992715133103744
          ],
          [
            -0.005265232895358179,
            59.992713928222656
          ],
          [
            -0.005304087951310768,
            59.992713928222656
          ],
          [
            -0.005341737963410086,
            59.992713928222656
          ],
          [
            -0.005377953736630662,
            59.99271653621602
          ],
          [
            -0.005412570578073424,
            59.99272035045758
          ],
          [
            -0.0054453844441519845,
            59.9927267717811
          ],
          [
            -0.0054762297910827895,
            59.992734400264226
          ],
          [
            -0.00550497023584775,
            59.992742028747344
          ],
          [
            -0.005531460234011756,
            59.99275226294532
          ],
          [
            -0.005555670234134283,
            59.99276110041086
          ],
          [
            -0.005577670354091247,
            59.99277133369742
          ],
          [
            -0.005597627982454946,
            59.9927827764221
          ],
          [
            -0.005615963489598235,
            59.99279682303882
          ],
          [
            -0.005632976403257655,
            59.992809476568745
          ],
          [
            -0.00564883933107215,
            59.99282352227405
          ],
          [
            -0.005663422794616286,
            59.992838779240294
          ],
          [
            -0.005676524819384113,
            59.992854036206545
          ],
          [
            -0.005687973342111402,
            59.99286929317279
          ],
          [
            -0.005697633110640078,
            59.99288715129684
          ],
          [
            -0.005705480177541559,
            59.99290622250465
          ],
          [
            -0.005711625339161846,
            59.99292529371246
          ],
          [
            -0.005716354398495438,
            59.99294436492027
          ],
          [
            -0.005720027771927155,
            59.99296343612808
          ],
          [
            -0.005722885222395961,
            59.99298250733588
          ],
          [
            -0.005725283402390622,
            59.993004176967275
          ],
          [
            -0.005728022172480102,
            59.993027062416644
          ],
          [
            -0.005732148227982447,
            59.99304994786602
          ],
          [
            -0.005738420459339373,
            59.993070236258916
          ],
          [
            -0.005747183104891348,
            59.99309190406749
          ],
          [
            -0.005758573926561162,
            59.99311478951686
          ],
          [
            -0.005772746742212708,
            59.993135079276875
          ],
          [
            -0.0057897139617666266,
            59.993154150484685
          ],
          [
            -0.005809372742556329,
            59.993173221692494
          ],
          [
            -0.005831601720266827,
            59.99318969857805
          ],
          [
            -0.005856202626546354,
            59.99320754941084
          ],
          [
            -0.0058828685046614475,
            59.99322402720781
          ],
          [
            -0.0059112765055393274,
            59.993236691218925
          ],
          [
            -0.005941196600736885,
            59.99325072644304
          ],
          [
            -0.0059724428328053565,
            59.99326339136556
          ],
          [
            -0.006004958506551212,
            59.99327483409024
          ],
          [
            -0.006038832281524904,
            59.993283685682606
          ],
          [
            -0.006074077670359325,
            59.99329131416573
          ],
          [
            -0.006110604067861835,
            59.993298942648856
          ],
          [
            -0.006148338841385412,
            59.99330657113198
          ],
          [
            -0.0061872342978909565,
            59.99331419961511
          ],
          [
            -0.006227248444643202,
            59.99331923924443
          ],
          [
            -0.006268383439115391,
            59.99332305348599
          ],
          [
            -0.006310685002448055,
            59.993326867727546
          ],
          [
            -0.006354190026074068,
            59.99332809448242
          ],
          [
            -0.006398907657781708,
            59.99332809448242
          ],
          [
            -0.006444837100089131,
            59.99332809448242
          ],
          [
            -0.006491962750534121,
            59.99332809448242
          ],
          [
            -0.006540259109057217,
            59.99332809448242
          ],
          [
            -0.006589710853338377,
            59.99332550927425
          ],
          [
            -0.006640372574389464,
            59.99332169503269
          ],
          [
            -0.006692336713402296,
            59.99332046508789
          ],
          [
            -0.006745693800249331,
            59.99331788124683
          ],
          [
            -0.006800454866836219,
            59.993316650390625
          ],
          [
            -0.006856435084960956,
            59.99331406746097
          ],
          [
            -0.00691339616003896,
            59.993315418167306
          ],
          [
            -0.006971262701001623,
            59.993316650390625
          ],
          [
            -0.0070299890569108904,
            59.993316650390625
          ],
          [
            -0.0070896972282424,
            59.99331923149746
          ],
          [
            -0.007150501043453118,
            59.99332304573902
          ],
          [
            -0.00721234501225015,
            59.993326859980584
          ],
          [
            -0.007275135242721158,
            59.993333253961865
          ],
          [
            -0.007338786535817295,
            59.99334088244499
          ],
          [
            -0.007403119115852951,
            59.993348510928115
          ],
          [
            -0.007467943714962145,
            59.99335613941124
          ],
          [
            -0.007533248905335078,
            59.99336634581127
          ],
          [
            -0.007599069802427577,
            59.99337521107475
          ],
          [
            -0.007665405811410633,
            59.99338541656337
          ],
          [
            -0.007732211314166216,
            59.99339943583785
          ],
          [
            -0.007799443431250242,
            59.99341211671001
          ],
          [
            -0.007867045380800847,
            59.993426135073086
          ],
          [
            -0.007934941341801185,
            59.99344139203933
          ],
          [
            -0.008003022485019861,
            59.99345664900558
          ],
          [
            -0.008071104328482645,
            59.99347190597182
          ],
          [
            -0.008138913677707459,
            59.993489736753645
          ],
          [
            -0.008205821567981933,
            59.993508807961454
          ],
          [
            -0.00827070399698274,
            59.993527879169264
          ],
          [
            -0.008332707057170215,
            59.99354952282553
          ],
          [
            -0.00839143486068466,
            59.99356983628214
          ],
          [
            -0.008446920092820989,
            59.99358890748995
          ],
          [
            -0.00849961232660552,
            59.99361054977911
          ],
          [
            -0.008549915538307936,
            59.993630864602835
          ],
          [
            -0.008598067484312792,
            59.993652505980585
          ],
          [
            -0.00864406445156771,
            59.99367539142995
          ],
          [
            -0.008687654419800682,
            59.99369827687933
          ],
          [
            -0.008728804725411762,
            59.9937211623287
          ],
          [
            -0.008767715841620723,
            59.99374661612519
          ],
          [
            -0.008804468363710405,
            59.99377331581613
          ],
          [
            -0.008839008689733082,
            59.993800015507055
          ],
          [
            -0.008871338852889175,
            59.99382671519799
          ],
          [
            -0.008901519545460443,
            59.99385341488892
          ],
          [
            -0.008929455826948334,
            59.99388268064846
          ],
          [
            -0.008954841760056707,
            59.993913194580955
          ],
          [
            -0.008977315257338008,
            59.99394370851345
          ],
          [
            -0.008996637482336277,
            59.99397422244594
          ],
          [
            -0.009012678532185075,
            59.994004736378436
          ],
          [
            -0.009025428971722258,
            59.99403525031093
          ],
          [
            -0.009034955453760894,
            59.99406832757781
          ],
          [
            -0.009041202571116217,
            59.99410009287318
          ],
          [
            -0.009044272951619763,
            59.994130606805676
          ],
          [
            -0.009044239378614694,
            59.99416112073817
          ],
          [
            -0.009041161539520134,
            59.99419163467066
          ],
          [
            -0.009035324848268907,
            59.99422214860316
          ],
          [
            -0.009026928148182895,
            59.99425010193549
          ],
          [
            -0.009015622214101437,
            59.99427936177088
          ],
          [
            -0.009001119147192692,
            59.99430731601462
          ],
          [
            -0.008983818256210451,
            59.994334015705554
          ],
          [
            -0.00896382920168986,
            59.99436071539649
          ],
          [
            -0.008941031226327785,
            59.99438741508742
          ],
          [
            -0.00891549457260664,
            59.99441411477835
          ],
          [
            -0.008887332269777016,
            59.99443825705905
          ],
          [
            -0.008856578112354392,
            59.99446369946295
          ],
          [
            -0.008823372194795584,
            59.994487842655055
          ],
          [
            -0.008787921820649854,
            59.99450817206131
          ],
          [
            -0.008750341012014752,
            59.99452979885653
          ],
          [
            -0.008710637221362264,
            59.994550129174186
          ],
          [
            -0.008668817418870337,
            59.994571755058004
          ],
          [
            -0.008624974730009678,
            59.99459208628707
          ],
          [
            -0.008579149720882133,
            59.99460860373028
          ],
          [
            -0.008531370766842716,
            59.994626414005424
          ],
          [
            -0.008481676015068792,
            59.99464293236004
          ],
          [
            -0.008429993039237199,
            59.99465818932629
          ],
          [
            -0.008376348798861132,
            59.99467344629253
          ],
          [
            -0.008320920453278372,
            59.9946861517727
          ],
          [
            -0.008263929603636245,
            59.99469759449738
          ],
          [
            -0.008205854987676406,
            59.99471158779674
          ],
          [
            -0.008147373037300863,
            59.99472429464402
          ],
          [
            -0.00808889468037737,
            59.99473828703197
          ],
          [
            -0.008030527178209257,
            59.994753543998215
          ],
          [
            -0.007972332988374482,
            59.99477134971632
          ],
          [
            -0.007914479280326996,
            59.99479042092413
          ],
          [
            -0.007857205379937263,
            59.99480949213194
          ],
          [
            -0.007800546533164103,
            59.99482856333975
          ],
          [
            -0.007744432766430619,
            59.9948501814766
          ],
          [
            -0.007688940507598414,
            59.99487306692597
          ],
          [
            -0.007634190899583473,
            59.99489849839298
          ],
          [
            -0.007580391529081075,
            59.99492519808391
          ],
          [
            -0.007527820319502431,
            59.99495189777484
          ],
          [
            -0.007476763237499592,
            59.994981142116295
          ],
          [
            -0.0074275029916527615,
            59.99501165604879
          ],
          [
            -0.007380419639340269,
            59.99504216998128
          ],
          [
            -0.007335877790846871,
            59.99507522719719
          ],
          [
            -0.0072940955805881206,
            59.99510955537124
          ],
          [
            -0.00725528962194577,
            59.9951438835453
          ],
          [
            -0.007219820038590472,
            59.99518075363566
          ],
          [
            -0.007187939488234734,
            59.99521889605128
          ],
          [
            -0.0071598293530425365,
            59.99525703846689
          ],
          [
            -0.007135926723024513,
            59.9952977214317
          ],
          [
            -0.007116272377671098,
            59.99533713799539
          ],
          [
            -0.007100527867171503,
            59.99537528041101
          ],
          [
            -0.007088641263310919,
            59.99541342282663
          ],
          [
            -0.007080505351624874,
            59.99545156524224
          ],
          [
            -0.007075748744790853,
            59.99548716938719
          ],
          [
            -0.007073909544082575,
            59.99552149756125
          ],
          [
            -0.0070745552339953905,
            59.9955558257353
          ],
          [
            -0.007077612019314332,
            59.99559015390936
          ],
          [
            -0.0070832437577408895,
            59.99562194563556
          ],
          [
            -0.007091511298817001,
            59.995652459568056
          ],
          [
            -0.007102375468251424,
            59.99568297350055
          ],
          [
            -0.007115774839084496,
            59.995710952352304
          ],
          [
            -0.007131713394942545,
            59.99573765204323
          ],
          [
            -0.007150176254857293,
            59.99576435173417
          ],
          [
            -0.007171111008431188,
            59.9957910514251
          ],
          [
            -0.0071944818900847515,
            59.9958152178581
          ],
          [
            -0.007220159416608646,
            59.99583810330748
          ],
          [
            -0.007248025721181799,
            59.995858456410325
          ],
          [
            -0.007278092665901048,
            59.99588005950895
          ],
          [
            -0.007310301024447179,
            59.9958978820881
          ],
          [
            -0.0073444478986681334,
            59.99591567003375
          ],
          [
            -0.007380309134929599,
            59.99593221071786
          ],
          [
            -0.007417704117842768,
            59.99594493761611
          ],
          [
            -0.007456466214262487,
            59.99595890995309
          ],
          [
            -0.007496561371671185,
            59.99597163776274
          ],
          [
            -0.007537986529643269,
            59.99598055178654
          ],
          [
            -0.007580665183550543,
            59.99598818026966
          ],
          [
            -0.007624449554551319,
            59.99599580875279
          ],
          [
            -0.00766921262041517,
            59.996000909902136
          ],
          [
            -0.0077148390003327644,
            59.996004724143695
          ],
          [
            -0.00776113781578712,
            59.99600853838526
          ],
          [
            -0.007807877129129626,
            59.996009826660156
          ],
          [
            -0.007854747725022107,
            59.996009826660156
          ],
          [
            -0.007901560160592977,
            59.9960073016049
          ],
          [
            -0.00794840274449198,
            59.99600348736334
          ],
          [
            -0.007995307940948344,
            59.99599967312178
          ],
          [
            -0.008042201775736625,
            59.99599333519207
          ],
          [
            -0.008089042321651233,
            59.99598570670895
          ],
          [
            -0.008135939684584424,
            59.995978078225825
          ],
          [
            -0.008182942966408022,
            59.99596792742167
          ],
          [
            -0.008230047422728124,
            59.99595648469698
          ],
          [
            -0.00827728045441008,
            59.9959450419723
          ],
          [
            -0.00832454516029379,
            59.995933599247614
          ],
          [
            -0.008371819186412274,
            59.99591963602471
          ],
          [
            -0.008419151591915173,
            59.995904379058466
          ],
          [
            -0.008466519116879158,
            59.995889122092215
          ],
          [
            -0.008513941515889953,
            59.995871345994864
          ],
          [
            -0.008561458396246417,
            59.995854793462456
          ],
          [
            -0.008609054967820641,
            59.995834500056816
          ],
          [
            -0.008656668788833026,
            59.995814132371436
          ],
          [
            -0.008704188803711299,
            59.99579254385534
          ],
          [
            -0.00875151202704777,
            59.99576965840597
          ],
          [
            -0.008798510993925085,
            59.9957467729566
          ],
          [
            -0.008845133815846706,
            59.99572137156605
          ],
          [
            -0.008891439727198133,
            59.99569718736059
          ],
          [
            -0.008937623734421163,
            59.99567178688145
          ],
          [
            -0.008983920905514349,
            59.99564508719052
          ],
          [
            -0.009030469104366404,
            59.995615873381226
          ],
          [
            -0.009077413572351577,
            59.99558787311139
          ],
          [
            -0.009124952630000741,
            59.995558660213504
          ],
          [
            -0.00917320988632642,
            59.995530659032255
          ],
          [
            -0.009222321812962005,
            59.995501447045775
          ],
          [
            -0.009272580158302322,
            59.99547093311328
          ],
          [
            -0.009324346396107656,
            59.99544041918079
          ],
          [
            -0.009377959409196633,
            59.995409905248295
          ],
          [
            -0.00943365310739426,
            59.995381901788534
          ],
          [
            -0.009491545667981114,
            59.99535269208057
          ],
          [
            -0.009551697279583767,
            59.995324687709406
          ],
          [
            -0.009614120824292513,
            59.99529547891285
          ],
          [
            -0.009678835214709063,
            59.99526747363028
          ],
          [
            -0.009745865368579488,
            59.995240773939344
          ],
          [
            -0.009815270657578947,
            59.99521407424841
          ],
          [
            -0.00988692147956554,
            59.99518988184028
          ],
          [
            -0.009960619282596374,
            59.995166996390914
          ],
          [
            -0.01003540790200471,
            59.995144110941546
          ],
          [
            -0.010110039095188608,
            59.995123731407865
          ],
          [
            -0.01018377357759872,
            59.995107165660045
          ],
          [
            -0.01025643211030336,
            59.995091908693794
          ],
          [
            -0.01032795830083609,
            59.99507665172755
          ],
          [
            -0.010398315170428494,
            59.995063898854184
          ],
          [
            -0.010467510758871866,
            59.99505245612949
          ],
          [
            -0.010535564616931316,
            59.99504351658628
          ],
          [
            -0.010602498128422785,
            59.99503588810315
          ],
          [
            -0.010668270713782589,
            59.995028259620035
          ],
          [
            -0.010732765458484205,
            59.99502313295127
          ],
          [
            -0.010795912332098537,
            59.99502182006836
          ],
          [
            -0.010857735212797549,
            59.99502182006836
          ],
          [
            -0.010918299086225493,
            59.99502182006836
          ],
          [
            -0.0109776594487943,
            59.995024320059905
          ],
          [
            -0.011035832048544759,
            59.995028134301464
          ],
          [
            -0.011092747620265395,
            59.99503444762316
          ],
          [
            -0.011148262531230139,
            59.99504207610628
          ],
          [
            -0.011202139738871963,
            59.995049704589405
          ],
          [
            -0.0112541823338291,
            59.99505983078555
          ],
          [
            -0.01130423849906271,
            59.995073770767554
          ],
          [
            -0.011352094340450447,
            59.99508653093219
          ],
          [
            -0.011397579616319965,
            59.99510047000278
          ],
          [
            -0.011440530795728177,
            59.99511822285924
          ],
          [
            -0.011480822385656,
            59.99513479863254
          ],
          [
            -0.011518486410649988,
            59.99515255057759
          ],
          [
            -0.011553508600814407,
            59.995171621785396
          ],
          [
            -0.011585702438861154,
            59.9951931870606
          ],
          [
            -0.01161485319213282,
            59.99521357889828
          ],
          [
            -0.011640932381917643,
            59.99523514326207
          ],
          [
            -0.01166386878534685,
            59.99525802871145
          ],
          [
            -0.01168356835185724,
            59.99528340640539
          ],
          [
            -0.011700047965188998,
            59.99530761430745
          ],
          [
            -0.011713365135707074,
            59.99533299108999
          ],
          [
            -0.011723498168079103,
            59.99535719990346
          ],
          [
            -0.01173040171042254,
            59.99538257577459
          ],
          [
            -0.011734062554444901,
            59.99540927546552
          ],
          [
            -0.011734384346031086,
            59.995435975156454
          ],
          [
            -0.011731377985582542,
            59.99546267484739
          ],
          [
            -0.011725140864230012,
            59.99548688593937
          ],
          [
            -0.011715679333346444,
            59.995512259531985
          ],
          [
            -0.01170300947996899,
            59.99553895922291
          ],
          [
            -0.01168718182069845,
            59.995563171682015
          ],
          [
            -0.011668223598861818,
            59.995588543907516
          ],
          [
            -0.011646191270118808,
            59.995612757278025
          ],
          [
            -0.011621196134247988,
            59.99563564272739
          ],
          [
            -0.011593339968975148,
            59.99565852817676
          ],
          [
            -0.011562707860535875,
            59.99568141362613
          ],
          [
            -0.011529483681444729,
            59.995704299075506
          ],
          [
            -0.011494089196332788,
            59.995727184524874
          ],
          [
            -0.011456848978738169,
            59.99574758638804
          ],
          [
            -0.011417786322517191,
            59.995769140726345
          ],
          [
            -0.011376897490363849,
            59.99579202617572
          ],
          [
            -0.011334218228777202,
            59.99581491162509
          ],
          [
            -0.011289674528374842,
            59.99583779707446
          ],
          [
            -0.011243152968174268,
            59.99586068252383
          ],
          [
            -0.011194563533306617,
            59.9958835679732
          ],
          [
            -0.011143949323391281,
            59.995903973026294
          ],
          [
            -0.011091565829659995,
            59.99592552417467
          ],
          [
            -0.011037369217425918,
            59.99594840962405
          ],
          [
            -0.01098131976390649,
            59.995968816044254
          ],
          [
            -0.010923597471804786,
            59.99599036582552
          ],
          [
            -0.010864378358305855,
            59.99601077315714
          ],
          [
            -0.010803939756942755,
            59.996032322027
          ],
          [
            -0.010742531929700528,
            59.99605273027002
          ],
          [
            -0.010680247915715294,
            59.99607427822847
          ],
          [
            -0.010617097144586633,
            59.996097163677845
          ],
          [
            -0.01055308128381682,
            59.996120049127214
          ],
          [
            -0.010488206523680457,
            59.99614293457658
          ],
          [
            -0.010422484214942703,
            59.99616582002595
          ],
          [
            -0.01035595127896387,
            59.996188705475326
          ],
          [
            -0.010288651018071828,
            59.996214064941114
          ],
          [
            -0.010220623464785156,
            59.99623829107133
          ],
          [
            -0.010151892349416746,
            59.99626364962571
          ],
          [
            -0.010082464116349499,
            59.99628787666734
          ],
          [
            -0.01001234062756079,
            59.996313234310314
          ],
          [
            -0.00994161788348371,
            59.99633993400124
          ],
          [
            -0.009870352479292651,
            59.996366633692176
          ],
          [
            -0.009798481888319662,
            59.996390862556616
          ],
          [
            -0.009725959844381786,
            59.99641868874756
          ],
          [
            -0.00965278948889849,
            59.99644673276497
          ],
          [
            -0.009578966699841453,
            59.99647343245591
          ],
          [
            -0.00950448233465121,
            59.996500132146835
          ],
          [
            -0.009429347353918704,
            59.99652683183777
          ],
          [
            -0.00935358464964411,
            59.99655599962097
          ],
          [
            -0.009277209390781204,
            59.9965840459169
          ],
          [
            -0.009200229408850765,
            59.996613212788695
          ],
          [
            -0.009122651823002079,
            59.99664372672119
          ],
          [
            -0.009044485285378857,
            59.996671774384225
          ],
          [
            -0.008965736095842681,
            59.99670093988891
          ],
          [
            -0.008886414928277858,
            59.996731453821404
          ],
          [
            -0.008806654298728098,
            59.9967619677539
          ],
          [
            -0.008726455431897422,
            59.99679248168639
          ],
          [
            -0.008645745882437975,
            59.996822995618885
          ],
          [
            -0.008564522174717665,
            59.99685350955138
          ],
          [
            -0.00848279348100068,
            59.99688402348387
          ],
          [
            -0.00840056193472931,
            59.996914537416366
          ],
          [
            -0.008317839345598694,
            59.99694751351698
          ],
          [
            -0.008234634658355318,
            59.99697937997862
          ],
          [
            -0.008150953128836068,
            59.997012355167826
          ],
          [
            -0.00806680274609948,
            59.99704422254087
          ],
          [
            -0.007982188014672027,
            59.99707719681867
          ],
          [
            -0.007897113198767063,
            59.997109065103125
          ],
          [
            -0.007811584784989125,
            59.99714203846952
          ],
          [
            -0.007725603752389604,
            59.99717636664357
          ],
          [
            -0.0076391761766492865,
            59.99720823629514
          ],
          [
            -0.007552306763000083,
            59.99724120829442
          ],
          [
            -0.0074649957079195835,
            59.99727553646847
          ],
          [
            -0.007377246445207945,
            59.99730986464253
          ],
          [
            -0.007289061861787204,
            59.997344192816584
          ],
          [
            -0.007200444853312615,
            59.99737852099064
          ],
          [
            -0.007111403640422359,
            59.9974128491647
          ],
          [
            -0.0070219672126034995,
            59.99744963267131
          ],
          [
            -0.00693226547066439,
            59.997485320210075
          ],
          [
            -0.006842226587283205,
            59.99751964838413
          ],
          [
            -0.006751774028348573,
            59.99755397655819
          ],
          [
            -0.0066609143179029,
            59.997590758241984
          ],
          [
            -0.006569651141684821,
            59.99762644760356
          ],
          [
            -0.0064779828366422635,
            59.99766077577762
          ],
          [
            -0.006385885822602228,
            59.9976975560943
          ],
          [
            -0.006293286713659641,
            59.997733246822996
          ],
          [
            -0.006200137693170635,
            59.997770026228274
          ],
          [
            -0.006106465048774273,
            59.99780571786837
          ],
          [
            -0.00601231945394222,
            59.997842496362246
          ],
          [
            -0.005917730513406611,
            59.997878188913745
          ],
          [
            -0.00582272641494487,
            59.99791496649621
          ],
          [
            -0.005727338880487881,
            59.99795065995912
          ],
          [
            -0.005631588171558256,
            59.99798743663018
          ],
          [
            -0.005535488120816289,
            59.9980255790458
          ],
          [
            -0.005439062087258522,
            59.99806127387582
          ],
          [
            -0.0053423266839393874,
            59.99809804917977
          ],
          [
            -0.005245216721004696,
            59.998136191595385
          ],
          [
            -0.005147663954126499,
            59.998174334011004
          ],
          [
            -0.005049702443721826,
            59.99821003066384
          ],
          [
            -0.00495136535493193,
            59.99824680414497
          ],
          [
            -0.004852640736821823,
            59.99828494656059
          ],
          [
            -0.004753520997961402,
            59.99832308897621
          ],
          [
            -0.004654017212644751,
            59.998361231391826
          ],
          [
            -0.004554134505871921,
            59.998399373807445
          ],
          [
            -0.004453855675433035,
            59.998437516223056
          ],
          [
            -0.00435316568576951,
            59.998475658638675
          ],
          [
            -0.004252055692488136,
            59.998513801054294
          ],
          [
            -0.0041505219181192845,
            59.99855194346991
          ],
          [
            -0.004048567603656731,
            59.998590085885525
          ],
          [
            -0.003946200718578392,
            59.99862822830114
          ],
          [
            -0.0038434208914285045,
            59.99866637071676
          ],
          [
            -0.0037402290047443554,
            59.99870451313238
          ],
          [
            -0.003636667679939816,
            59.998742655548
          ],
          [
            -0.0035328092586725274,
            59.99878079796361
          ],
          [
            -0.0034287026509258116,
            59.99881894037923
          ],
          [
            -0.003324374210591433,
            59.99885708279485
          ],
          [
            -0.0032198289584786212,
            59.99889522521047
          ],
          [
            -0.003115155123800091,
            59.99893336762609
          ],
          [
            -0.00301043328651319,
            59.9989715100417
          ],
          [
            -0.002905664198484912,
            59.99900965245732
          ],
          [
            -0.0028007816913097686,
            59.999047794872936
          ],
          [
            -0.0026957389004712857,
            59.999085937288555
          ],
          [
            -0.0025905026140450307,
            59.999124079704174
          ],
          [
            -0.0024850580979760904,
            59.99916465648997
          ],
          [
            -0.0023793803554709486,
            59.99920417923267
          ],
          [
            -0.0022734625351726054,
            59.99924232164829
          ],
          [
            -0.002167314323959925,
            59.999282897066976
          ],
          [
            -0.0020609261558336583,
            59.999322421176785
          ],
          [
            -0.0019543034725253133,
            59.999360563592404
          ],
          [
            -0.0018475535905210375,
            59.99940113764398
          ],
          [
            -0.0017407859396249845,
            59.99944066312091
          ],
          [
            -0.001634046860951449,
            59.999481236261076
          ],
          [
            -0.0015273205823586804,
            59.999520762649404
          ],
          [
            -0.0014205646871156019,
            59.999561334878166
          ],
          [
            -0.001313736700665917,
            59.99960086217791
          ],
          [
            -0.0012068161289061079,
            59.999641433495256
          ],
          [
            -0.0010998125594748399,
            59.99968339015244
          ],
          [
            -0.0009927495970768368,
            59.99972534680962
          ],
          [
            -0.0008856098442761071,
            59.99976487593217
          ],
          [
            -0.0007783100710432982,
            59.99980544542671
          ],
          [
            -0.0006707353215589032,
            59.99984740208389
          ],
          [
            -0.0005628341182780587,
            59.99988935874107
          ],
          [
            -0.0004545991144112514,
            59.99993131539825
          ],
          [
            -0.00034602562080329985,
            59.99997327205543
          ],
          [
            -0.00023713173705724544,
            60.000015228712606
          ]
        ]
      }
    }
  ]
}