{
  "type": "FeatureCollection",
  "features": [
    {
      "type": "Feature",
      "properties": {
        "source_file": "Fuji Speedway_P_2026-08-13T21_40_16Z.duckdb",
        "track_name": "Fuji Speedway",
        "track_layout": "Fuji Speedway",
        "lap": 7
      },
      "geometry": {
        "type": "LineString",
        "coordinates": [
          [
            -0.0001881421079320571,
            60.00007700683849
          ],
          [
            -7.915808033805933e-05,
            60.000118965988335
          ],
          [
            3.0013910658968033e-05,
            60.00016092513819
          ],
          [
            0.0001393535901591273,
            60.00020288428804
          ],
          [
            0.0002488510735460332,
            60.0002448434379
          ],
          [
            0.0003585165985423774,
            60.00028680258775
          ],
          [
            0.00046836353835846486,
            60.0003287617376
          ],
          [
            0.0005783927965313965,
            60.00037072088745
          ],
          [
            0.0006885854753274875,
            60.00041268003731
          ],
          [
            0.0007989294647975994,
            60.00045463918716
          ],
          [
            0.0009094424869326536,
            60.00049874159848
          ],
          [
            0.00102014051547506,
            60.00054237218413
          ],
          [
            0.0011310108253793647,
            60.00058433133398
          ],
          [
            0.0012420523185783894,
            60.00062629048384
          ],
          [
            0.0013533010011076696,
            60.00066824963369
          ],
          [
            0.0014647840566192867,
            60.000710208783545
          ],
          [
            0.0015764979707457393,
            60.00075430982027
          ],
          [
            0.001688431412885714,
            60.00079794178051
          ],
          [
            0.0018005590237080782,
            60.000839900930366
          ],
          [
            0.0019128465546885461,
            60.00088186008022
          ],
          [
            0.0020252887938641754,
            60.00092596020056
          ],
          [
            0.0021378942456132624,
            60.000969593077194
          ],
          [
            0.0022506423402430175,
            60.00101155222704
          ],
          [
            0.002363510428950175,
            60.001053511376895
          ],
          [
            0.0024765186462546397,
            60.00109761058085
          ],
          [
            0.0025896618081437035,
            60.00114124437387
          ],
          [
            0.002702911503245111,
            60.00118320352372
          ],
          [
            0.002816299806416648,
            60.00122516267357
          ],
          [
            0.002929845969865597,
            60.00126926096114
          ],
          [
            0.003043501860187974,
            60.001312895670544
          ],
          [
            0.0031572449965683227,
            60.00135699349992
          ],
          [
            0.0032711341889285917,
            60.00140062866752
          ],
          [
            0.0033851634417329103,
            60.001442587817365
          ],
          [
            0.0034992600711263853,
            60.001486684959445
          ],
          [
            0.0036134342744336104,
            60.00153032081434
          ],
          [
            0.0037277262088263696,
            60.00157227996419
          ],
          [
            0.003842093502679123,
            60.00161637641898
          ],
          [
            0.003956504343912958,
            60.00166001296117
          ],
          [
            0.004070988639484759,
            60.00170410895776
          ],
          [
            0.004185573731897395,
            60.001747745958134
          ],
          [
            0.0043002416041334375,
            60.001791841496534
          ],
          [
            0.004414969669557953,
            60.00183547895511
          ],
          [
            0.004529749212438068,
            60.001879574035314
          ],
          [
            0.004644572187384971,
            60.001923211952075
          ],
          [
            0.004759443434580435,
            60.00196730657409
          ],
          [
            0.004874362175752434,
            60.00201308019211
          ],
          [
            0.004989326153851736,
            60.00205671879617
          ],
          [
            0.005104336581321806,
            60.00210081273089
          ],
          [
            0.005219387426798852,
            60.00214658634891
          ],
          [
            0.005334489961231306,
            60.002190225640256
          ],
          [
            0.005449678426943856,
            60.00223431888769
          ],
          [
            0.005564970257045225,
            60.00228009250571
          ],
          [
            0.005680359721546937,
            60.00232373248435
          ],
          [
            0.005795855067996509,
            60.00236782504448
          ],
          [
            0.0059114718185397635,
            60.00241359866251
          ],
          [
            0.006027202305503054,
            60.002459372280526
          ],
          [
            0.006143045679357251,
            60.002503013175556
          ],
          [
            0.006259004809074824,
            60.0025471048193
          ],
          [
            0.0063750487646616685,
            60.002592878437326
          ],
          [
            0.006491144646124589,
            60.002638652055346
          ],
          [
            0.006607271858291846,
            60.002684425673365
          ],
          [
            0.00672340976521045,
            60.00272806771388
          ],
          [
            0.006839528720601198,
            60.002772158212146
          ],
          [
            0.006955646369163216,
            60.002817931830165
          ],
          [
            0.007071801331349542,
            60.002863705448185
          ],
          [
            0.007187979966110167,
            60.002909479066204
          ],
          [
            0.007304173030260092,
            60.00295312225221
          ],
          [
            0.007420415075917202,
            60.002997211604985
          ],
          [
            0.007536759874396369,
            60.003042985223004
          ],
          [
            0.007653277950625624,
            60.003088758841024
          ],
          [
            0.007770003264004975,
            60.003132402943415
          ],
          [
            0.007886899545313216,
            60.003176491379804
          ],
          [
            0.008003891932234266,
            60.003222264997824
          ],
          [
            0.008120868143808755,
            60.00326590978751
          ],
          [
            0.008237708125042612,
            60.0033099975366
          ],
          [
            0.008353872684127437,
            60.003355771154624
          ],
          [
            0.00846765369209477,
            60.003399416631595
          ],
          [
            0.008577476601786416,
            60.00344137578145
          ],
          [
            0.008682915656480817,
            60.0034833349313
          ],
          [
            0.008784039150198052,
            60.003523166627396
          ],
          [
            0.008880971104974303,
            60.003561311309085
          ],
          [
            0.008973844317475192,
            60.003599455990766
          ],
          [
            0.009062749635991805,
            60.00363547390599
          ],
          [
            0.00914778739798875,
            60.003669804119504
          ],
          [
            0.009229094986046795,
            60.00370200802475
          ],
          [
            0.009306773785529174,
            60.0037325237701
          ],
          [
            0.00938094437352677,
            60.00376303951545
          ],
          [
            0.009451733603867743,
            60.00379142963981
          ],
          [
            0.009519277006191582,
            60.003818130917
          ],
          [
            0.00958370557763816,
            60.00384270703139
          ],
          [
            0.009645146114747151,
            60.0038655938404
          ],
          [
            0.009703731747118999,
            60.00388848064941
          ],
          [
            0.009759642641080174,
            60.00391136745842
          ],
          [
            0.009813102792392394,
            60.003932130021035
          ],
          [
            0.00986435424036045,
            60.00395120236188
          ],
          [
            0.009913662904105029,
            60.00397027470272
          ],
          [
            0.009961481407362187,
            60.003989347043564
          ],
          [
            0.010008505325911868,
            60.004008419384405
          ],
          [
            0.010055213823960244,
            60.00402536862434
          ],
          [
            0.010101631219060802,
            60.004040626497016
          ],
          [
            0.010147688956355155,
            60.004055884369684
          ],
          [
            0.010193487462868954,
            60.00407114224236
          ],
          [
            0.01023922675566023,
            60.00408427793052
          ],
          [
            0.010285168766392449,
            60.004093599379594
          ],
          [
            0.01033146973617335,
            60.00410335004226
          ],
          [
            0.01037807637006711,
            60.004112671949535
          ],
          [
            0.010424853436173786,
            60.00411817961774
          ],
          [
            0.01047164272384074,
            60.00412199408591
          ],
          [
            0.010518269380554533,
            60.00412580855408
          ],
          [
            0.010564563217266421,
            60.004127502441406
          ],
          [
            0.010610372878844466,
            60.004127502441406
          ],
          [
            0.010655557243308971,
            60.004127502441406
          ],
          [
            0.01069998098575922,
            60.004125382547855
          ],
          [
            0.010743507017075465,
            60.00412156807969
          ],
          [
            0.01078600218450158,
            60.004115634176166
          ],
          [
            0.010827300426163805,
            60.004110124446086
          ],
          [
            0.010867251517636201,
            60.004104191000756
          ],
          [
            0.01090569509673256,
            60.00409444331636
          ],
          [
            0.01094245982602357,
            60.00408299991185
          ],
          [
            0.010977377585802063,
            60.00407155650735
          ],
          [
            0.0110102845885544,
            60.004060113102845
          ],
          [
            0.011041259248022552,
            60.004046551866665
          ],
          [
            0.011070598062879786,
            60.00403129399399
          ],
          [
            0.011098430501282555,
            60.004016036121314
          ],
          [
            0.011124650062682742,
            60.00399866110426
          ],
          [
            0.011149013887757617,
            60.003981705678704
          ],
          [
            0.01117129469710761,
            60.003962214433656
          ],
          [
            0.01119133676727516,
            60.00394144408173
          ],
          [
            0.011208968590755944,
            60.0039202555129
          ],
          [
            0.011224023663128939,
            60.003899484702785
          ],
          [
            0.011236490611433067,
            60.00387829659214
          ],
          [
            0.011246482286937632,
            60.003855409783135
          ],
          [
            0.01125399632003047,
            60.00383040766252
          ],
          [
            0.011259163991146471,
            60.00380582146784
          ],
          [
            0.011262288993748808,
            60.00378081980543
          ],
          [
            0.01126329694965418,
            60.00375623315256
          ],
          [
            0.01126187828316415,
            60.003731231948336
          ],
          [
            0.011258540095155785,
            60.00370453067115
          ],
          [
            0.011253595712612197,
            60.00367782939397
          ],
          [
            0.011247091364364595,
            60.00365112811679
          ],
          [
            0.011239275224807204,
            60.003622313360786
          ],
          [
            0.01123031003221253,
            60.00359391086517
          ],
          [
            0.01122015012431184,
            60.00356509656736
          ],
          [
            0.011208643334177244,
            60.00353458082201
          ],
          [
            0.011195872293083935,
            60.00350406507666
          ],
          [
            0.011181892071540777,
            60.00347354933132
          ],
          [
            0.011166802221965866,
            60.00344303358597
          ],
          [
            0.011150933757773812,
            60.003410405965475
          ],
          [
            0.011134554466253811,
            60.003378187398006
          ],
          [
            0.011117594201521808,
            60.00334556023571
          ],
          [
            0.01109955442912337,
            60.00331123002219
          ],
          [
            0.011080189612162443,
            60.003276899808675
          ],
          [
            0.011059579756581284,
            60.00324256959516
          ],
          [
            0.011037665711119374,
            60.00320823938165
          ],
          [
            0.011014382469100177,
            60.00317390916813
          ],
          [
            0.01098969161222305,
            60.00313957895462
          ],
          [
            0.01096350701901836,
            60.00310313892783
          ],
          [
            0.010935764910557462,
            60.003064994246145
          ],
          [
            0.010906392408276046,
            60.003028958919536
          ],
          [
            0.01087532312978182,
            60.00299251958004
          ],
          [
            0.010842562048010736,
            60.00295437489835
          ],
          [
            0.01080807413861167,
            60.00291623021667
          ],
          [
            0.010771794279618437,
            60.00287808553499
          ],
          [
            0.0107336938530114,
            60.0028399408533
          ],
          [
            0.010693789746108464,
            60.00280179617162
          ],
          [
            0.010652155887819766,
            60.002763651489936
          ],
          [
            0.010608744534803257,
            60.00272550680825
          ],
          [
            0.010563521035060627,
            60.002687362126565
          ],
          [
            0.010516530949777671,
            60.002649217444876
          ],
          [
            0.010467776273752581,
            60.002611072763194
          ],
          [
            0.010417276247765284,
            60.00257292808151
          ],
          [
            0.010365069521073425,
            60.002534783399824
          ],
          [
            0.010311191449550682,
            60.00249663871814
          ],
          [
            0.010255662632647398,
            60.00245849403646
          ],
          [
            0.01019854880516179,
            60.00242034935477
          ],
          [
            0.01013995164842114,
            60.00238220467309
          ],
          [
            0.010079924895601874,
            60.0023440599914
          ],
          [
            0.01001850621523711,
            60.00230591530972
          ],
          [
            0.009955784011937968,
            60.00226777062804
          ],
          [
            0.009891857338678166,
            60.00222962594635
          ],
          [
            0.009826865676940001,
            60.00219148126467
          ],
          [
            0.009760909470976204,
            60.00215123249714
          ],
          [
            0.00969407492167973,
            60.00211137720403
          ],
          [
            0.00962645428972083,
            60.00207323252235
          ],
          [
            0.00955808345095818,
            60.00203508784066
          ],
          [
            0.00948899055828165,
            60.00199694315898
          ],
          [
            0.009419235352390474,
            60.0019587984773
          ],
          [
            0.009348886905415394,
            60.00191855108435
          ],
          [
            0.00927801530424632,
            60.00187869441666
          ],
          [
            0.00920668509893122,
            60.00183844748191
          ],
          [
            0.009134939937434399,
            60.001798590356024
          ],
          [
            0.009062807601747012,
            60.00175834387947
          ],
          [
            0.008990310952661312,
            60.00171638472962
          ],
          [
            0.008917482503436526,
            60.00167652691644
          ],
          [
            0.008844382299390934,
            60.001636281127176
          ],
          [
            0.008771047201163024,
            60.00159432197732
          ],
          [
            0.008697478274549766,
            60.001552362827475
          ],
          [
            0.008623680836412496,
            60.00151040367762
          ],
          [
            0.008549661445930654,
            60.00146844452777
          ],
          [
            0.008475537225559318,
            60.001424385415824
          ],
          [
            0.008401340733624925,
            60.00138071153079
          ],
          [
            0.008327001844057387,
            60.001338752380946
          ],
          [
            0.008252483122902004,
            60.00129469395629
          ],
          [
            0.00817774443673351,
            60.00125101938397
          ],
          [
            0.008102745839554195,
            60.00120696141751
          ],
          [
            0.008027481013293352,
            60.001163286387
          ],
          [
            0.007951972492534263,
            60.001119228878736
          ],
          [
            0.007876229120143085,
            60.00107555339003
          ],
          [
            0.007800257159062846,
            60.001031496339955
          ],
          [
            0.007724052861693195,
            60.000985722721936
          ],
          [
            0.00764761219895667,
            60.000939949103916
          ],
          [
            0.007570946925780499,
            60.0008941754859
          ],
          [
            0.007494099586423998,
            60.00084840186787
          ],
          [
            0.00741712742722512,
            60.00080262824985
          ],
          [
            0.007340445375315715,
            60.00075685463183
          ],
          [
            0.0072651341613000605,
            60.000713177310345
          ],
          [
            0.007192093820164971,
            60.00066912209305
          ],
          [
            0.007121612551361894,
            60.00062754015172
          ],
          [
            0.007053734697319876,
            60.00058729986079
          ],
          [
            0.006988424135191469,
            60.00054743609108
          ],
          [
            0.0069256545913369705,
            60.0005092914094
          ],
          [
            0.006865546815145657,
            60.00047324164967
          ],
          [
            0.006808418446350945,
            60.000436816743296
          ],
          [
            0.0067546852407445145,
            60.000400766525374
          ],
          [
            0.006704435805900259,
            60.0003643420772
          ],
          [
            0.00665775034492055,
            60.00032619739551
          ],
          [
            0.006614758824448224,
            60.00028805271383
          ],
          [
            0.006575493697993123,
            60.00024990803214
          ],
          [
            0.0065400485666411885,
            60.00021176335046
          ],
          [
            0.006508476777750245,
            60.000171525579596
          ],
          [
            0.00648085226648781,
            60.00013165928982
          ],
          [
            0.00645718703140657,
            60.00009142197715
          ],
          [
            0.006437473610096314,
            60.00005155522919
          ],
          [
            0.006421798894069542,
            60.00001131837472
          ],
          [
            0.006410194738049818,
            59.99996935922486
          ],
          [
            0.006402535699413625,
            59.99992740007501
          ],
          [
            0.0063986977518317835,
            59.999885440925155
          ],
          [
            0.006398629305054941,
            59.9998434817753
          ],
          [
            0.006402359641909708,
            59.99979943159815
          ],
          [
            0.006410174375939638,
            59.999755748778334
          ],
          [
            0.006422111891963158,
            59.99971378962848
          ],
          [
            0.006437961787991797,
            59.999671830478626
          ],
          [
            0.006457514303499424,
            59.99962987132877
          ],
          [
            0.006480496508067039,
            59.999587912178924
          ],
          [
            0.006506743531171162,
            59.999543863376346
          ],
          [
            0.006536119788295961,
            59.99950017918195
          ],
          [
            0.006568485552655783,
            59.999458220032096
          ],
          [
            0.006603694614415931,
            59.99941626088224
          ],
          [
            0.006641700245818325,
            59.999374301732395
          ],
          [
            0.006682416057591344,
            59.99933234258254
          ],
          [
            0.006725651458626533,
            59.99929038343269
          ],
          [
            0.006771099604004023,
            59.99924842428283
          ],
          [
            0.006818200192883466,
            59.99920646513298
          ],
          [
            0.0068661415573307355,
            59.99916450598313
          ],
          [
            0.006913939725751553,
            59.99912254683328
          ],
          [
            0.0069606644329293895,
            59.99907850055077
          ],
          [
            0.00700564171544792,
            59.999032726932754
          ],
          [
            0.0070487308014054425,
            59.99898695331473
          ],
          [
            0.007089919181730538,
            59.99894117969671
          ],
          [
            0.007129137019751979,
            59.99889540607869
          ],
          [
            0.007166389275555244,
            59.9988475464735
          ],
          [
            0.007201577939094146,
            59.998800044145376
          ],
          [
            0.007234604793199621,
            59.99875218499839
          ],
          [
            0.007265371026712426,
            59.99870051161233
          ],
          [
            0.007293684391890356,
            59.998649194128745
          ],
          [
            0.007319369728657252,
            59.99859752120087
          ],
          [
            0.007342280649475657,
            59.998546203259096
          ],
          [
            0.00736237174337901,
            59.99849453078942
          ],
          [
            0.007379486714145774,
            59.998441128235065
          ],
          [
            0.007393341079232024,
            59.99838772568071
          ],
          [
            0.007403789153269731,
            59.998332239430155
          ],
          [
            0.0074106041617219166,
            59.99827710587473
          ],
          [
            0.00741346496085252,
            59.99822162008237
          ],
          [
            0.0074121848922529925,
            59.99816648606874
          ],
          [
            0.007406699754799499,
            59.99811100073458
          ],
          [
            0.007396899121697131,
            59.99805586626276
          ],
          [
            0.007382702497018946,
            59.998000381386795
          ],
          [
            0.007364126358528395,
            59.99794524645678
          ],
          [
            0.007341193641568056,
            59.99788976203901
          ],
          [
            0.007313841529189473,
            59.9978346266508
          ],
          [
            0.007282011732658444,
            59.997779142691215
          ],
          [
            0.007245744306802005,
            59.99772400684481
          ],
          [
            0.007205165226282199,
            59.99767268523748
          ],
          [
            0.0071603719961777805,
            59.997621016433364
          ],
          [
            0.00711139047656775,
            59.99756969436784
          ],
          [
            0.007058310054493589,
            59.99752010628165
          ],
          [
            0.0070012298638767335,
            59.997472598226096
          ],
          [
            0.006940274745541085,
            59.99742682460808
          ],
          [
            0.006875626528522659,
            59.9973831305625
          ],
          [
            0.006807422834014401,
            59.99734117141264
          ],
          [
            0.006735808387606498,
            59.99730129137704
          ],
          [
            0.0066609624805493975,
            59.99726314669536
          ],
          [
            0.00658310055915757,
            59.997227080669724
          ],
          [
            0.006502479232451312,
            59.997192750456215
          ],
          [
            0.006419309927958785,
            59.99716049844056
          ],
          [
            0.006333815846446394,
            59.99713206066397
          ],
          [
            0.006246267783691046,
            59.997105359386794
          ],
          [
            0.00615690014536551,
            59.99708073562018
          ],
          [
            0.0060659379426129464,
            59.997057848811174
          ],
          [
            0.005973562595047326,
            59.99703703905453
          ],
          [
            0.00587986597099039,
            59.99701796671369
          ],
          [
            0.005784893427476453,
            59.99700304756121
          ],
          [
            0.0056886934817147,
            59.99698952779162
          ],
          [
            0.005591329363962645,
            59.99697842219092
          ],
          [
            0.005492898478928846,
            59.99697079325458
          ],
          [
            0.005393536496635242,
            59.996963164318245
          ],
          [
            0.005293414560119708,
            59.996957610830606
          ],
          [
            0.005192733990325371,
            59.99695587158203
          ],
          [
            0.005091701127282222,
            59.99695794657253
          ],
          [
            0.004990515253172327,
            59.9969617610407
          ],
          [
            0.004889371232583437,
            59.99696557550887
          ],
          [
            0.004788470979134479,
            59.99697146428024
          ],
          [
            0.004688006696185692,
            59.99698116729069
          ],
          [
            0.004588193325874288,
            59.996992610695195
          ],
          [
            0.004489258549274669,
            59.99700612771562
          ],
          [
            0.004391437873541364,
            59.997023458975114
          ],
          [
            0.0042949599437569035,
            59.997042531315955
          ],
          [
            0.0042000332070747685,
            59.99706367658542
          ],
          [
            0.0041068962700543735,
            59.99708656339443
          ],
          [
            0.004015775753776199,
            59.997111522673876
          ],
          [
            0.003926851729895074,
            59.997140296192384
          ],
          [
            0.0038402502796618834,
            59.9971687399255
          ],
          [
            0.0037560221313868926,
            59.99719958476896
          ],
          [
            0.0036741814509257753,
            59.99723391498247
          ],
          [
            0.0035948153988164104,
            59.99726824519598
          ],
          [
            0.003518025096850011,
            59.99730464650535
          ],
          [
            0.003443909155190978,
            59.99734279118703
          ],
          [
            0.0033724975285202227,
            59.99738093586872
          ],
          [
            0.0033038217341660515,
            59.99742115095896
          ],
          [
            0.0032379629188127325,
            59.99746518028827
          ],
          [
            0.0031749373090475506,
            59.99750888395593
          ],
          [
            0.0031147050844751866,
            59.99755291282705
          ],
          [
            0.003057201580956779,
            59.997598686445066
          ],
          [
            0.0030023492626125273,
            59.99764652932616
          ],
          [
            0.0029500643802905266,
            59.99769404837838
          ],
          [
            0.0029000136526168806,
            59.9977398219964
          ],
          [
            0.0028516809234258923,
            59.99778559561442
          ],
          [
            0.002804642046552555,
            59.99782930088576
          ],
          [
            0.002758586287311981,
            59.99786919191803
          ],
          [
            0.002713392616011919,
            59.99790733659971
          ],
          [
            0.0026690077370665243,
            59.997943413622004
          ],
          [
            0.002625261526832342,
            59.99797774383552
          ],
          [
            0.0025821029410115857,
            59.998012074049036
          ],
          [
            0.0025395767824998926,
            59.99804433729046
          ],
          [
            0.002497744426121104,
            59.9980748530358
          ],
          [
            0.002456667244769596,
            59.998103302267246
          ],
          [
            0.0024163643470930503,
            59.998130003544425
          ],
          [
            0.0023767885113146333,
            59.998156704821604
          ],
          [
            0.0023376469367007175,
            59.998181340272176
          ],
          [
            0.00229833063402889,
            59.998206292678695
          ],
          [
            0.0022581520956198135,
            59.99822886321904
          ],
          [
            0.002216590197993061,
            59.9982500006992
          ],
          [
            0.002173349490800521,
            59.998270822597995
          ],
          [
            0.0021283698363941473,
            59.998289894938836
          ],
          [
            0.0020817540800829163,
            59.99830896727968
          ],
          [
            0.0020336285175607724,
            59.998325975397584
          ],
          [
            0.0019841303700935914,
            59.99834123327026
          ],
          [
            0.0019334344629122109,
            59.998354427378196
          ],
          [
            0.0018816982134916317,
            59.9983658707827
          ],
          [
            0.0018290560267675675,
            59.99837525088066
          ],
          [
            0.0017757071109349874,
            59.998382879817
          ],
          [
            0.0017219385364156804,
            59.998388445904986
          ],
          [
            0.0016680606772035218,
            59.99839226037316
          ],
          [
            0.0016142919951603837,
            59.998396074841324
          ],
          [
            0.0015607397617038658,
            59.99839782714844
          ],
          [
            0.0015074576533636562,
            59.99839782714844
          ],
          [
            0.0014544673221503854,
            59.99839576544557
          ],
          [
            0.001401804533852348,
            59.99838988950364
          ],
          [
            0.0013495783875453373,
            59.998382260567304
          ],
          [
            0.0012979540086590345,
            59.998374631630966
          ],
          [
            0.0012471617160163323,
            59.99836494190816
          ],
          [
            0.0011974166417026708,
            59.998353498503654
          ],
          [
            0.001148851478252372,
            59.998339994770866
          ],
          [
            0.0011015398339981977,
            59.99832473689819
          ],
          [
            0.0010556038413266546,
            59.998309479025515
          ],
          [
            0.0010112541050004689,
            59.998292161511856
          ],
          [
            0.0009687805553712689,
            59.998273089171015
          ],
          [
            0.0009285031714066233,
            59.998251957647376
          ],
          [
            0.000890498488843112,
            59.99822907083837
          ],
          [
            0.0008547202940506465,
            59.99820618402936
          ],
          [
            0.0008212144200145257,
            59.99818123872485
          ],
          [
            0.0007899229366325519,
            59.99815453744767
          ],
          [
            0.000760774012481378,
            59.99812783617049
          ],
          [
            0.0007337229727810145,
            59.998101134893304
          ],
          [
            0.000708430942058954,
            59.998072376037015
          ],
          [
            0.0006846583518062382,
            59.998041860291664
          ],
          [
            0.0006623754808647152,
            59.99801134454632
          ],
          [
            0.0006414367907252667,
            59.99798082880097
          ],
          [
            0.0006217601813218361,
            59.9979482563929
          ],
          [
            0.0006033414665950742,
            59.997913926179386
          ],
          [
            0.0005862518165269594,
            59.99787959596587
          ],
          [
            0.000570459104401284,
            59.99784526575235
          ],
          [
            0.0005558566373619131,
            59.99781093553884
          ],
          [
            0.0005424770552332389,
            59.997774549808085
          ],
          [
            0.0005303952871472548,
            59.99773846041454
          ],
          [
            0.0005196901784849138,
            59.99770207514198
          ],
          [
            0.0005103724282467208,
            59.99766393046029
          ],
          [
            0.0005024142768422628,
            59.99762578577861
          ],
          [
            0.0004958618900071848,
            59.99758558672517
          ],
          [
            0.0004907472241231048,
            59.99754568171797
          ],
          [
            0.0004870682234630499,
            59.99750548312273
          ],
          [
            0.00048487957516749573,
            59.99746352397288
          ],
          [
            0.00048427126374491885,
            59.99742156482303
          ],
          [
            0.0004852726896284316,
            59.997379605673174
          ],
          [
            0.00048786465659190293,
            59.99733764652332
          ],
          [
            0.0004920429879101199,
            59.9972936346054
          ],
          [
            0.000497810372868515,
            59.99724991352635
          ],
          [
            0.0005051269002295646,
            59.99720590206662
          ],
          [
            0.0005139825960890623,
            59.99716218052938
          ],
          [
            0.0005243583161917116,
            59.997118169527845
          ],
          [
            0.0005360745763184137,
            59.99707239590982
          ],
          [
            0.0005488413207487813,
            59.9970266222918
          ],
          [
            0.0005623293875103717,
            59.99698084867378
          ],
          [
            0.000576208742127558,
            59.99693507505576
          ],
          [
            0.0005902079044247007,
            59.99688930143773
          ],
          [
            0.0006041163056059352,
            59.99684147734261
          ],
          [
            0.0006177932053588462,
            59.99679393950443
          ],
          [
            0.0006311503803469148,
            59.9967461158675
          ],
          [
            0.0006440653676965849,
            59.99669652778131
          ],
          [
            0.0006563736894696934,
            59.99664693969512
          ],
          [
            0.0006678499615550874,
            59.99659735160893
          ],
          [
            0.0006781548344143911,
            59.99654776352274
          ],
          [
            0.0006868903215934855,
            59.99649817543655
          ],
          [
            0.0006938926192353036,
            59.996448587350365
          ],
          [
            0.0006992165286168667,
            59.99639695084895
          ],
          [
            0.0007027912872780218,
            59.996345596480715
          ],
          [
            0.0007043326377256579,
            59.9962939604375
          ],
          [
            0.0007035628400519783,
            59.99624260561107
          ],
          [
            0.0007001061886727788,
            59.99619097002605
          ],
          [
            0.0006937223426363596,
            59.996137567471685
          ],
          [
            0.0006844542023075894,
            59.99608416491733
          ],
          [
            0.000672228655371242,
            59.99603076236297
          ],
          [
            0.000656833442316714,
            59.99597735980861
          ],
          [
            0.0006382516571246323,
            59.995923957254256
          ],
          [
            0.0006166618080962271,
            59.9958705546999
          ],
          [
            0.0005920650747931178,
            59.99581715214554
          ],
          [
            0.0005642652421914802,
            59.995763749591184
          ],
          [
            0.000533293481857932,
            59.995712392473784
          ],
          [
            0.0004994054152130297,
            59.99566075917973
          ],
          [
            0.00046275085926568253,
            59.99560735662537
          ],
          [
            0.00042353783515474547,
            59.99555395407101
          ],
          [
            0.0003818507828380885,
            59.99550259603723
          ],
          [
            0.0003377117948960157,
            59.995450963659565
          ],
          [
            0.0002913229294209271,
            59.99539756110521
          ],
          [
            0.00024282907140962435,
            59.99534620238413
          ],
          [
            0.00019232854105526937,
            59.99529457069375
          ],
          [
            0.0001399476006265198,
            59.995243211514484
          ],
          [
            8.575057992163756e-05,
            59.9951915802823
          ],
          [
            2.978399133601645e-05,
            59.99514022064484
          ],
          [
            -2.7891044499272825e-05,
            59.99509063255865
          ],
          [
            -8.722150485684612e-05,
            59.99504104447246
          ],
          [
            -0.0001482059184862447,
            59.99498941415667
          ],
          [
            -0.00021088361276245743,
            59.994938053602816
          ],
          [
            -0.0002752324502267005,
            59.994888465516624
          ],
          [
            -0.000340930238798584,
            59.99483887743043
          ],
          [
            -0.00040737906611895827,
            59.99478928934425
          ],
          [
            -0.00047428292393422624,
            59.994739701258055
          ],
          [
            -0.0005418179360534506,
            59.99469011317186
          ],
          [
            -0.0006102938895011341,
            59.994638484459756
          ],
          [
            -0.0006800219963038611,
            59.99458712230222
          ],
          [
            -0.0007513639393016208,
            59.99453753421603
          ],
          [
            -0.0008245855866908644,
            59.994487946129844
          ],
          [
            -0.0008997548849225109,
            59.99444039775319
          ],
          [
            -0.0009768213748454365,
            59.994392584654726
          ],
          [
            -0.0010557397899768441,
            59.99434299656854
          ],
          [
            -0.0011366207486879594,
            59.99429544750459
          ],
          [
            -0.0012194768773166745,
            59.99424967388657
          ],
          [
            -0.0013041742346238424,
            59.994201861704504
          ],
          [
            -0.0013906767897509072,
            59.99415635028821
          ],
          [
            -0.0014789720787970009,
            59.994112353032506
          ],
          [
            -0.001568867374483781,
            59.994066579414486
          ],
          [
            -0.0016600589834231895,
            59.99402080579646
          ],
          [
            -0.001752331495237062,
            59.993977069597
          ],
          [
            -0.001845562970545764,
            59.993933073257686
          ],
          [
            -0.0019396685521582528,
            59.99388933660003
          ],
          [
            -0.0020345523806407453,
            59.99384737745018
          ],
          [
            -0.0021301953002158345,
            59.99380338179815
          ],
          [
            -0.00222666905609047,
            59.993759644453206
          ],
          [
            -0.0023240439277209895,
            59.99371768530335
          ],
          [
            -0.0024223920401046173,
            59.99367369033862
          ],
          [
            -0.002521785303952378,
            59.993629952306385
          ],
          [
            -0.002622229394736655,
            59.99358799315653
          ],
          [
            -0.002723693638512868,
            59.99354806913426
          ],
          [
            -0.0028261502362759774,
            59.99350788955409
          ],
          [
            -0.0029295836744488843,
            59.993465930404234
          ],
          [
            -0.003034056550915403,
            59.99342600569468
          ],
          [
            -0.0031397248821464514,
            59.9933858268018
          ],
          [
            -0.003246659274576628,
            59.99334590163405
          ],
          [
            -0.003354474094660226,
            59.99330775695236
          ],
          [
            -0.0034618112218517487,
            59.99326961227068
          ],
          [
            -0.0035668164578873396,
            59.99323146758899
          ],
          [
            -0.0036683222472792816,
            59.99319535597302
          ],
          [
            -0.0037659553408566867,
            59.993161025759505
          ],
          [
            -0.003859644930116855,
            59.993128728153515
          ],
          [
            -0.003949540719088302,
            59.993098212408164
          ],
          [
            -0.004035881579227316,
            59.99306769666282
          ],
          [
            -0.004118758352899621,
            59.9930392128377
          ],
          [
            -0.004198176818177827,
            59.99301251156052
          ],
          [
            -0.004274159652110728,
            59.992985810283336
          ],
          [
            -0.004346773536025915,
            59.99295910900616
          ],
          [
            -0.004416056956761608,
            59.992934438732824
          ],
          [
            -0.0044820775052101915,
            59.992913582698556
          ],
          [
            -0.004544947123383586,
            59.99289247981206
          ],
          [
            -0.004604838319317359,
            59.9928716233196
          ],
          [
            -0.004661929204713637,
            59.99285255097876
          ],
          [
            -0.004716373747326584,
            59.99283347863792
          ],
          [
            -0.004768366879561232,
            59.992816435926336
          ],
          [
            -0.004818170552783156,
            59.99280117805366
          ],
          [
            -0.004866089896598676,
            59.992785920180985
          ],
          [
            -0.004912402105726218,
            59.99277269125027
          ],
          [
            -0.004957311777090969,
            59.99276124784577
          ],
          [
            -0.005000954792430977,
            59.99274980444127
          ],
          [
            -0.005043488804764567,
            59.992738361036764
          ],
          [
            -0.005085115970476104,
            59.99272894565783
          ],
          [
            -0.005126064800509471,
            59.99272334451798
          ],
          [
            -0.005166516609019126,
            59.992719530049804
          ],
          [
            -0.005206517661520638,
            59.99271571558164
          ],
          [
            -0.005245987052651352,
            59.992711901113466
          ],
          [
            -0.0052847534072418805,
            59.99271011352539
          ],
          [
            -0.00532260629802263,
            59.99271214017639
          ],
          [
            -0.005359327819750574,
            59.99271595464455
          ],
          [
            -0.005394711939881586,
            59.99271976911272
          ],
          [
            -0.005428569837294169,
            59.99272358358089
          ],
          [
            -0.00546072168137926,
            59.992729423783665
          ],
          [
            -0.005491011424672673,
            59.992739078225505
          ],
          [
            -0.005519290988269335,
            59.9927484963536
          ],
          [
            -0.0055455806272117,
            59.99275815033725
          ],
          [
            -0.005570087996300599,
            59.992769593741755
          ],
          [
            -0.005592842779513418,
            59.99278103714626
          ],
          [
            -0.005613774803629472,
            59.99279450491079
          ],
          [
            -0.005632772214072433,
            59.99280976278346
          ],
          [
            -0.005649776929028226,
            59.992825020656134
          ],
          [
            -0.005664737911652018,
            59.99284027852881
          ],
          [
            -0.005677574166642585,
            59.99285755984511
          ],
          [
            -0.005688209225409711,
            59.99287663218596
          ],
          [
            -0.0056966745203209865,
            59.99289368154136
          ],
          [
            -0.005703184410199382,
            59.99291096217038
          ],
          [
            -0.00570798713934704,
            59.99293205703846
          ],
          [
            -0.005711275747397518,
            59.992952921549325
          ],
          [
            -0.005713324432425058,
            59.99297401595922
          ],
          [
            -0.005714902247021849,
            59.99299488092828
          ],
          [
            -0.005717299998550279,
            59.993015974879974
          ],
          [
            -0.005721598100067916,
            59.99303886168899
          ],
          [
            -0.005728314709334523,
            59.99306174849799
          ],
          [
            -0.005737628516597974,
            59.99308463530701
          ],
          [
            -0.0057495808100472764,
            59.99310752211601
          ],
          [
            -0.005764270063033738,
            59.993130408925026
          ],
          [
            -0.0057817762303568766,
            59.993151275497766
          ],
          [
            -0.005802059636331221,
            59.99317236784578
          ],
          [
            -0.00582503932555605,
            59.99319121509864
          ],
          [
            -0.005850584187636521,
            59.99320849252029
          ],
          [
            -0.005878492872342093,
            59.99322554554125
          ],
          [
            -0.005908516516008414,
            59.993240803413926
          ],
          [
            -0.005940524652457597,
            59.99325404242491
          ],
          [
            -0.005974476676562431,
            59.993267504462004
          ],
          [
            -0.0060102565669156345,
            59.993278725527695
          ],
          [
            -0.006047729241340043,
            59.993288372638425
          ],
          [
            -0.006086713574549277,
            59.99329779809763
          ],
          [
            -0.006126992592273332,
            59.99330542703397
          ],
          [
            -0.006168388645668075,
            59.9933110384832
          ],
          [
            -0.006210805300331706,
            59.993314852951364
          ],
          [
            -0.006254195895547583,
            59.99331866741954
          ],
          [
            -0.006298512225710256,
            59.99332046508789
          ],
          [
            -0.006343776059513031,
            59.99332046508789
          ],
          [
            -0.00639015430869442,
            59.99332046508789
          ],
          [
            -0.006437784151795195,
            59.99332046508789
          ],
          [
            -0.006486654557102002,
            59.993318449204466
          ],
          [
            -0.006536734419637811,
            59.993314634736294
          ],
          [
            -0.0065880580612346865,
            59.99331283569336
          ],
          [
            -0.006640696495651583,
            59.99331082049723
          ],
          [
            -0.006694716036875878,
            59.993307006029056
          ],
          [
            -0.006750186722710097,
            59.99330319156089
          ],
          [
            -0.006807145017654749,
            59.99330139160156
          ],
          [
            -0.006865571496892884,
            59.99330139160156
          ],
          [
            -0.006925441672600476,
            59.99329937755091
          ],
          [
            -0.006986725818396682,
            59.9932975769043
          ],
          [
            -0.007049340376451831,
            59.9932975769043
          ],
          [
            -0.007113207668437973,
            59.993299590267654
          ],
          [
            -0.007178247896004116,
            59.99330340473582
          ],
          [
            -0.007244249223591654,
            59.99330721920399
          ],
          [
            -0.007310862875853235,
            59.99331103367216
          ],
          [
            -0.007377927834283361,
            59.99331484814033
          ],
          [
            -0.007445391886844436,
            59.993320674826364
          ],
          [
            -0.0075131446640996835,
            59.99333031575148
          ],
          [
            -0.00758114847928232,
            59.99334175915598
          ],
          [
            -0.007649425524161711,
            59.993353202560485
          ],
          [
            -0.0077179611128516306,
            59.993364645964995
          ],
          [
            -0.0077866401279657015,
            59.99337810044188
          ],
          [
            -0.007855292422900315,
            59.993393358314556
          ],
          [
            -0.007923775489920478,
            59.99340861618723
          ],
          [
            -0.00799198146650742,
            59.993425884444996
          ],
          [
            -0.008059820836514825,
            59.99344495678584
          ],
          [
            -0.008127308956795334,
            59.99346402912668
          ],
          [
            -0.008194495074504784,
            59.99348511116532
          ],
          [
            -0.00826124637933034,
            59.99350799797433
          ],
          [
            -0.008327481534722975,
            59.99353088478335
          ],
          [
            -0.00839317237309678,
            59.99355578060286
          ],
          [
            -0.008458123889524008,
            59.99358248188005
          ],
          [
            -0.008522106694712784,
            59.993609183157226
          ],
          [
            -0.008584644152636276,
            59.99363789275762
          ],
          [
            -0.00864489166246492,
            59.99366640040885
          ],
          [
            -0.008702097684690916,
            59.99369510955105
          ],
          [
            -0.008755929092861279,
            59.99372361766047
          ],
          [
            -0.008806362315652393,
            59.99375232634448
          ],
          [
            -0.008853267108307089,
            59.993780834912094
          ],
          [
            -0.008896566332862649,
            59.99380753618927
          ],
          [
            -0.008936433120247642,
            59.99383624418599
          ],
          [
            -0.00897300766632085,
            59.993864753440896
          ],
          [
            -0.00900626116204103,
            59.993891454718074
          ],
          [
            -0.009036048559342664,
            59.9939201620275
          ],
          [
            -0.009062213465179011,
            59.9939486719697
          ],
          [
            -0.00908468807911561,
            59.99397737882093
          ],
          [
            -0.009103490813356712,
            59.99400588922132
          ],
          [
            -0.009118706196430551,
            59.99403459561436
          ],
          [
            -0.009130488478659568,
            59.99406310647295
          ],
          [
            -0.009138964312405013,
            59.99408980775013
          ],
          [
            -0.0091442713314657,
            59.99411650902731
          ],
          [
            -0.00914657325869789,
            59.994143210304486
          ],
          [
            -0.00914600321767537,
            59.994169911581665
          ],
          [
            -0.00914266157064066,
            59.99419661285884
          ],
          [
            -0.009136870567691377,
            59.99422331413602
          ],
          [
            -0.009128839564616228,
            59.99424801213012
          ],
          [
            -0.009118478775327437,
            59.99427089893913
          ],
          [
            -0.009105846431396836,
            59.99429578857303
          ],
          [
            -0.009091155909643473,
            59.99431848465863
          ],
          [
            -0.009074585199984515,
            59.99433955936616
          ],
          [
            -0.00905625942660906,
            59.994362446175174
          ],
          [
            -0.009036317141858034,
            59.99438333107569
          ],
          [
            -0.009014963833771239,
            59.99440240341653
          ],
          [
            -0.008992399515197723,
            59.99441947430707
          ],
          [
            -0.008968799416177476,
            59.994436733400946
          ],
          [
            -0.008944369780838117,
            59.99445380474968
          ],
          [
            -0.008919324240530949,
            59.99446906262236
          ],
          [
            -0.008893873633310768,
            59.994482319961115
          ],
          [
            -0.008868223073801728,
            59.994495763670436
          ],
          [
            -0.008842568808438736,
            59.994509021467394
          ],
          [
            -0.008817105096325266,
            59.99451846502527
          ],
          [
            -0.008792031340246866,
            59.994528093579135
          ],
          [
            -0.008767562780352962,
            59.994537537595214
          ],
          [
            -0.008743919297269389,
            59.99454516653155
          ],
          [
            -0.008721337550404218,
            59.99455079653765
          ],
          [
            -0.008700032528786466,
            59.99455660970696
          ],
          [
            -0.008680190466741785,
            59.994562240171255
          ],
          [
            -0.008661993246909888,
            59.99456605463943
          ],
          [
            -0.008645591315402866,
            59.99456986910759
          ],
          [
            -0.008631124655719963,
            59.994571685791016
          ],
          [
            -0.008618703370509571,
            59.994573683346665
          ],
          [
            -0.008608323311649974,
            59.99457550048828
          ],
          [
            -0.00859984726585261,
            59.99457749758574
          ],
          [
            -0.008593053632836382,
            59.99457931518555
          ],
          [
            -0.008587558323951581,
            59.99457931518555
          ],
          [
            -0.008582922052864424,
            59.994577318775384
          ],
          [
            -0.008579064540908544,
            59.99457550048828
          ],
          [
            -0.008576142077013344,
            59.99457550048828
          ],
          [
            -0.00857426579328235,
            59.994573504765405
          ],
          [
            -0.008573530981854444,
            59.994571685791016
          ],
          [
            -0.008574011803421598,
            59.99456969052634
          ],
          [
            -0.008575744558533816,
            59.99456587605817
          ],
          [
            -0.008578739189790888,
            59.994564056396484
          ],
          [
            -0.008582977508730296,
            59.994562061819096
          ],
          [
            -0.008588405270258653,
            59.99456024169922
          ],
          [
            -0.008594936042484104,
            59.99456024169922
          ],
          [
            -0.008602427968425487,
            59.994558247809124
          ],
          [
            -0.008610679347571572,
            59.99455642700195
          ],
          [
            -0.008619438962145981,
            59.99455642700195
          ],
          [
            -0.008628393762546024,
            59.994558420204754
          ],
          [
            -0.008637183248784428,
            59.99456024169922
          ],
          [
            -0.008645435487324632,
            59.994562234443826
          ],
          [
            -0.008652790094098289,
            59.994566048912
          ],
          [
            -0.008658932503607593,
            59.994569863380164
          ],
          [
            -0.008663618469110337,
            59.99457367784834
          ],
          [
            -0.008666671589659575,
            59.9945774923165
          ],
          [
            -0.008668107547324135,
            59.99458130678467
          ],
          [
            -0.008668151524503632,
            59.99458512125284
          ],
          [
            -0.008667044827151216,
            59.99458694458008
          ],
          [
            -0.00866494714647968,
            59.99458893549191
          ],
          [
            -0.008662115696154393,
            59.994590759277344
          ],
          [
            -0.008658942373104345,
            59.994590759277344
          ],
          [
            -0.008655355810801051,
            59.994592749501884
          ],
          [
            -0.00865090662792437,
            59.99459457397461
          ],
          [
            -0.008645196371050613,
            59.99459457397461
          ],
          [
            -0.008638077546126962,
            59.994596563511855
          ],
          [
            -0.008629697700537332,
            59.99460037798003
          ],
          [
            -0.008620340197662729,
            59.99460220336914
          ],
          [
            -0.008610187068334468,
            59.9946041922191
          ],
          [
            -0.008599251276301602,
            59.994608006687265
          ],
          [
            -0.0085875264710108,
            59.99460983276367
          ],
          [
            -0.008575004470207908,
            59.99461182092634
          ],
          [
            -0.008561681063938488,
            59.9946156353945
          ],
          [
            -0.008547561787296253,
            59.994619449862675
          ],
          [
            -0.008532639218477609,
            59.99462326433084
          ],
          [
            -0.0085168854228392,
            59.99462707879901
          ],
          [
            -0.008500277316853813,
            59.99463089326718
          ],
          [
            -0.008482798217648628,
            59.99463470773535
          ],
          [
            -0.008464434681746394,
            59.994638522203516
          ],
          [
            -0.008445174604135013,
            59.99464233667169
          ],
          [
            -0.008425008789129702,
            59.994646151139854
          ],
          [
            -0.008403927324823304,
            59.99464996560802
          ],
          [
            -0.008381916690272917,
            59.99465378007619
          ],
          [
            -0.008358970673678289,
            59.99465957995786
          ],
          [
            -0.008335086813545086,
            59.994665223709795
          ],
          [
            -0.008310256130687059,
            59.994671023133264
          ],
          [
            -0.00828446845830126,
            59.9946766673434
          ],
          [
            -0.008257729950885655,
            59.994682466308674
          ],
          [
            -0.008230058224928791,
            59.994688110976995
          ],
          [
            -0.008201451187835418,
            59.994693909484084
          ],
          [
            -0.008171868906052931,
            59.99470153842042
          ],
          [
            -0.00814127115658096,
            59.99470916735675
          ],
          [
            -0.008109668034224098,
            59.99471679629309
          ],
          [
            -0.008077108777692438,
            59.99472640835196
          ],
          [
            -0.008043633690808032,
            59.99473586886303
          ],
          [
            -0.008009254882372412,
            59.9947454804637
          ],
          [
            -0.007973995547217302,
            59.99475494143297
          ],
          [
            -0.007937927517965997,
            59.99476455257545
          ],
          [
            -0.007901135501080096,
            59.99477797795699
          ],
          [
            -0.00786364326028906,
            59.994791254081726
          ],
          [
            -0.007825473885803971,
            59.99480467900508
          ],
          [
            -0.007786707106130729,
            59.99481993687775
          ],
          [
            -0.00774741568697705,
            59.99483519475042
          ],
          [
            -0.007707706383926614,
            59.9948504526231
          ],
          [
            -0.007667715563843164,
            59.99486769109823
          ],
          [
            -0.007627528140514115,
            59.99488676343907
          ],
          [
            -0.007587251522479577,
            59.99490583577992
          ],
          [
            -0.007547054469874462,
            59.99492490812076
          ],
          [
            -0.007507099519902884,
            59.99494596014767
          ],
          [
            -0.00746754591204343,
            59.99496884695668
          ],
          [
            -0.007428581407913086,
            59.99499371299356
          ],
          [
            -0.00739044282003351,
            59.99502041427074
          ],
          [
            -0.007353428031512146,
            59.995047115547926
          ],
          [
            -0.007317868035928634,
            59.995073816825105
          ],
          [
            -0.007284135687109611,
            59.995102496413764
          ],
          [
            -0.0072525941945039245,
            59.995133012159116
          ],
          [
            -0.0072235734463575035,
            59.99516352790446
          ],
          [
            -0.00719718482033606,
            59.995196021274005
          ],
          [
            -0.007173450753044036,
            59.99522837409242
          ],
          [
            -0.0071524633353003755,
            59.99526284416977
          ],
          [
            -0.007134381343411335,
            59.995299011914554
          ],
          [
            -0.007119369600512116,
            59.99533334212807
          ],
          [
            -0.007107450797725494,
            59.99536767234159
          ],
          [
            -0.007098509738640186,
            59.99540397880471
          ],
          [
            -0.0070922022595735655,
            59.995440147465885
          ],
          [
            -0.0070881172056526795,
            59.9954744776794
          ],
          [
            -0.007086089454059025,
            59.99550683233059
          ],
          [
            -0.007086130046706521,
            59.99553932340916
          ],
          [
            -0.007088159187369675,
            59.99557167851855
          ],
          [
            -0.007092015477296775,
            59.99560416913893
          ],
          [
            -0.007097570486658723,
            59.99563652470651
          ],
          [
            -0.007104772342162639,
            59.99566704045186
          ],
          [
            -0.007113637913088495,
            59.995695582009475
          ],
          [
            -0.007124245331623951,
            59.99572425724529
          ],
          [
            -0.0071367633690692794,
            59.9957527992611
          ],
          [
            -0.007151347667144522,
            59.995779500538276
          ],
          [
            -0.0071680782835919134,
            59.99580422854411
          ],
          [
            -0.007186963013469796,
            59.995827115353116
          ],
          [
            -0.0072079375262418905,
            59.99585000216213
          ],
          [
            -0.007231021880224068,
            59.995872888971135
          ],
          [
            -0.0072563318925041986,
            59.99589380342519
          ],
          [
            -0.007283841326972801,
            59.99591287576603
          ],
          [
            -0.007313360515796779,
            59.99593194810687
          ],
          [
            -0.00734466012652524,
            59.99594904878005
          ],
          [
            -0.007377567675571736,
            59.99596430665272
          ],
          [
            -0.007411977215065468,
            59.99597759331592
          ],
          [
            -0.007447791051849635,
            59.995989036720424
          ],
          [
            -0.007484851916011659,
            59.996000480124934
          ],
          [
            -0.007522950002727428,
            59.99600995300725
          ],
          [
            -0.0075619545363476565,
            59.99601758194359
          ],
          [
            -0.007601889914275534,
            59.99602521087993
          ],
          [
            -0.007642810395167956,
            59.996030869981375
          ],
          [
            -0.007684666701973357,
            59.99603468444954
          ],
          [
            -0.00772734942076828,
            59.99603849891771
          ],
          [
            -0.007770684226959773,
            59.99604034423828
          ],
          [
            -0.007814414161162984,
            59.99604034423828
          ],
          [
            -0.007858231174257643,
            59.99603837554888
          ],
          [
            -0.007901910929730633,
            59.996034561080705
          ],
          [
            -0.007945449970506337,
            59.99603074661254
          ],
          [
            -0.007988855352425729,
            59.99602496414226
          ],
          [
            -0.008032066989843363,
            59.99601733520592
          ],
          [
            -0.008075075829854707,
            59.99600970626958
          ],
          [
            -0.008117964552339778,
            59.99600011001843
          ],
          [
            -0.00816084903445748,
            59.99598866661392
          ],
          [
            -0.008203701137510701,
            59.995975256352786
          ],
          [
            -0.00824646410584541,
            59.99596196510765
          ],
          [
            -0.008289147499081509,
            59.99594855530471
          ],
          [
            -0.008331791072362694,
            59.99593329743203
          ],
          [
            -0.008374468838105512,
            59.99591607361912
          ],
          [
            -0.008417161255007776,
            59.99589700127828
          ],
          [
            -0.008459802027861146,
            59.99587792893744
          ],
          [
            -0.008502454383658004,
            59.99585885659659
          ],
          [
            -0.008545282658911735,
            59.9958378192319
          ],
          [
            -0.008588438293225522,
            59.99581493242289
          ],
          [
            -0.008632057064730456,
            59.99579204561388
          ],
          [
            -0.008676314926330734,
            59.99576915880487
          ],
          [
            -0.008721347681424792,
            59.9957443078884
          ],
          [
            -0.008767080341178462,
            59.995719570489584
          ],
          [
            -0.008813450177148779,
            59.9956947200313
          ],
          [
            -0.008860502331143801,
            59.995668018754124
          ],
          [
            -0.008908251249779882,
            59.995641317476945
          ],
          [
            -0.008956742982053132,
            59.99561461619977
          ],
          [
            -0.009006058222511725,
            59.99558791492259
          ],
          [
            -0.009056258201923548,
            59.99556121364541
          ],
          [
            -0.009107372953428056,
            59.99553451236823
          ],
          [
            -0.009159443506326272,
            59.995505849045465
          ],
          [
            -0.009212564924261184,
            59.99547729511661
          ],
          [
            -0.009266857059683546,
            59.995448632252035
          ],
          [
            -0.009322486266292026,
            59.995420077864985
          ],
          [
            -0.00937968429282487,
            59.995391415458606
          ],
          [
            -0.009438652973121003,
            59.99536286061336
          ],
          [
            -0.009499567252456965,
            59.99533419866518
          ],
          [
            -0.009562576960309276,
            59.99530564336174
          ],
          [
            -0.009627767436093514,
            59.99527894208456
          ],
          [
            -0.009695218422941685,
            59.995252240807375
          ],
          [
            -0.009765019481088384,
            59.995227499284816
          ],
          [
            -0.009837122982746964,
            59.99520265295028
          ],
          [
            -0.00991147086079938,
            59.995177910969524
          ],
          [
            -0.009988077653115173,
            59.99515502416052
          ],
          [
            -0.010066277587481147,
            59.99513409618973
          ],
          [
            -0.010144574240893395,
            59.99511502384889
          ],
          [
            -0.01022183674070902,
            59.99509790988808
          ],
          [
            -0.010297731027152772,
            59.995082652015405
          ],
          [
            -0.010372177747539577,
            59.99506935206457
          ],
          [
            -0.010445164419540376,
            59.995057908660065
          ],
          [
            -0.010516749671494073,
            59.995046465255555
          ],
          [
            -0.010586962123098363,
            59.9950369790856
          ],
          [
            -0.010655813154026032,
            59.99502935014926
          ],
          [
            -0.010723237800850136,
            59.99502367798927
          ],
          [
            -0.010789112232262107,
            59.99502182006836
          ],
          [
            -0.010853389063597299,
            59.9950198637502
          ],
          [
            -0.010916055616415498,
            59.995018005371094
          ],
          [
            -0.010977089877377,
            59.99501996123106
          ],
          [
            -0.011036458158708212,
            59.995023775699224
          ],
          [
            -0.011094130446006741,
            59.995027590167396
          ],
          [
            -0.011150053794946135,
            59.99503335980823
          ],
          [
            -0.011204083309609657,
            59.99504098874457
          ],
          [
            -0.01125607421973157,
            59.995050572395385
          ],
          [
            -0.011305949063685301,
            59.99506201579989
          ],
          [
            -0.011353571116705652,
            59.99507345920439
          ],
          [
            -0.011398783207523012,
            59.995086856636085
          ],
          [
            -0.011441461695374992,
            59.995102114508754
          ],
          [
            -0.011481479648156708,
            59.99511737238143
          ],
          [
            -0.01151879897191685,
            59.995132630254105
          ],
          [
            -0.011553446831801194,
            59.99514984123758
          ],
          [
            -0.011585367563177929,
            59.99516891357842
          ],
          [
            -0.011614441113947226,
            59.99518798591926
          ],
          [
            -0.011640599731859972,
            59.9952070582601
          ],
          [
            -0.01166392301960327,
            59.99522808279535
          ],
          [
            -0.011684464989551674,
            59.99525096960436
          ],
          [
            -0.011702174191949851,
            59.99527385641337
          ],
          [
            -0.011717034929151944,
            59.99529674322238
          ],
          [
            -0.01172900172828871,
            59.99531963003139
          ],
          [
            -0.011737999681962942,
            59.9953425168404
          ],
          [
            -0.011743971904157267,
            59.99536735446924
          ],
          [
            -0.011746805009564305,
            59.99539210515569
          ],
          [
            -0.011746340352730568,
            59.99541694232633
          ],
          [
            -0.011742545700294264,
            59.99544364360351
          ],
          [
            -0.011735470104488503,
            59.99546839497725
          ],
          [
            -0.011725176518420968,
            59.9954932314606
          ],
          [
            -0.011711722030596599,
            59.99551798329254
          ],
          [
            -0.01169512311141681,
            59.99554087010155
          ],
          [
            -0.011675436802963055,
            59.995565705897604
          ],
          [
            -0.011652763459213858,
            59.995590458416835
          ],
          [
            -0.011627326611779887,
            59.99561334522585
          ],
          [
            -0.011599430183696928,
            59.99563623203486
          ],
          [
            -0.011569293615448527,
            59.99565911884387
          ],
          [
            -0.011537010429221638,
            59.99568200565288
          ],
          [
            -0.011502636633475522,
            59.99570489246189
          ],
          [
            -0.011466243195384742,
            59.99572972665427
          ],
          [
            -0.011427756146830977,
            59.99575448077718
          ],
          [
            -0.011386969129823172,
            59.995777367586186
          ],
          [
            -0.011343820006251844,
            59.9958002543952
          ],
          [
            -0.011298479601587204,
            59.99582314120421
          ],
          [
            -0.011251134591499871,
            59.99584602801322
          ],
          [
            -0.011202013911855496,
            59.99586891482223
          ],
          [
            -0.011151189147960285,
            59.995893747410925
          ],
          [
            -0.011098648751492681,
            59.99591850313752
          ],
          [
            -0.011044547368982773,
            59.99594138994653
          ],
          [
            -0.010988966366819182,
            59.99596427675554
          ],
          [
            -0.010931907971218655,
            59.99598716356455
          ],
          [
            -0.010873354196262135,
            59.99601005037356
          ],
          [
            -0.01081331802352703,
            59.99603293718257
          ],
          [
            -0.010751838691317907,
            59.99605582399158
          ],
          [
            -0.010689022550914697,
            59.99607871080059
          ],
          [
            -0.010625057238968458,
            59.9961015976096
          ],
          [
            -0.010560157419879247,
            59.996124484418615
          ],
          [
            -0.010494510670003537,
            59.99614737122762
          ],
          [
            -0.010428185085054234,
            59.996172201067154
          ],
          [
            -0.01036118252734101,
            59.99619695954291
          ],
          [
            -0.010293500590826066,
            59.996221788924245
          ],
          [
            -0.010225133705835688,
            59.996248490201424
          ],
          [
            -0.010156040232977358,
            59.9962751914786
          ],
          [
            -0.01008616279831132,
            59.99630189275578
          ],
          [
            -0.010015583629913616,
            59.99632859403296
          ],
          [
            -0.009944255067529106,
            59.99635529531014
          ],
          [
            -0.009872039568541977,
            59.996381996587324
          ],
          [
            -0.009798936102294627,
            59.9964086978645
          ],
          [
            -0.009724949996037551,
            59.99643539914168
          ],
          [
            -0.009650107959463012,
            59.99646210041886
          ],
          [
            -0.009574451518323954,
            59.99648880169604
          ],
          [
            -0.009498031966814974,
            59.996517443025475
          ],
          [
            -0.009420908962940004,
            59.99654601894766
          ],
          [
            -0.009343135881015987,
            59.99657272022484
          ],
          [
            -0.009264775424428556,
            59.99660136086698
          ],
          [
            -0.009185898661784863,
            59.99662993747646
          ],
          [
            -0.009106535807150155,
            59.99665857766041
          ],
          [
            -0.009026677867634926,
            59.99668909340576
          ],
          [
            -0.008946432563620573,
            59.99671960915111
          ],
          [
            -0.00886578810134232,
            59.99675012489646
          ],
          [
            -0.008784613614359482,
            59.9967806406418
          ],
          [
            -0.008702921733304461,
            59.99681115638715
          ],
          [
            -0.008620742962697155,
            59.9968416721325
          ],
          [
            -0.008538088860605092,
            59.99687218787785
          ],
          [
            -0.008454964053438043,
            59.99690270362319
          ],
          [
            -0.008371366606035156,
            59.99693321936854
          ],
          [
            -0.008287291418732709,
            59.99696567172969
          ],
          [
            -0.008202733348659702,
            59.996998065556504
          ],
          [
            -0.008117687295816625,
            59.99703051745945
          ],
          [
            -0.008032151426139694,
            59.997062911744464
          ],
          [
            -0.007946136136451955,
            59.99709536318922
          ],
          [
            -0.007859662384685426,
            59.997127757932425
          ],
          [
            -0.007772744027864122,
            59.997160208918984
          ],
          [
            -0.0076853840409582385,
            59.9971945391325
          ],
          [
            -0.007597584320186213,
            59.99722886934602
          ],
          [
            -0.007509343860409357,
            59.997263199559534
          ],
          [
            -0.0074206629844597305,
            59.99729752977305
          ],
          [
            -0.0073315524601429505,
            59.997331859986566
          ],
          [
            -0.0072420340318986925,
            59.99736619020008
          ],
          [
            -0.0071522201300945505,
            59.9974005204136
          ],
          [
            -0.007062098626213108,
            59.997434850627116
          ],
          [
            -0.006971569079679117,
            59.99746918084063
          ],
          [
            -0.0068806459994032515,
            59.99750351105414
          ],
          [
            -0.006789345630367004,
            59.997539773988805
          ],
          [
            -0.006697683373958948,
            59.99757598617844
          ],
          [
            -0.006605672198514587,
            59.997610316391956
          ],
          [
            -0.006513314358594057,
            59.997646578639326
          ],
          [
            -0.006420589144770964,
            59.997682791516254
          ],
          [
            -0.006327452950575391,
            59.99771905330543
          ],
          [
            -0.006233890610015601,
            59.99775526664055
          ],
          [
            -0.0061399233451273,
            59.997791527971536
          ],
          [
            -0.006045574187413948,
            59.99782774176485
          ],
          [
            -0.005950865019012959,
            59.99786400263764
          ],
          [
            -0.00585580900307742,
            59.99790214731932
          ],
          [
            -0.005760407261077661,
            59.99793836179993
          ],
          [
            -0.005664660056641894,
            59.99797462198543
          ],
          [
            -0.005568569240977137,
            59.99801276666711
          ],
          [
            -0.005472139749356242,
            59.99805091134879
          ],
          [
            -0.005375373598006173,
            59.99808905603048
          ],
          [
            -0.005278260715103567,
            59.99812527165657
          ],
          [
            -0.005180795861050104,
            59.998161530696585
          ],
          [
            -0.005082981337374751,
            59.99819967537827
          ],
          [
            -0.0049848192626463115,
            59.99823782005995
          ],
          [
            -0.004886299469579209,
            59.99827596474164
          ],
          [
            -0.004787377744199184,
            59.99831410942332
          ],
          [
            -0.004688006068349744,
            59.998352254105
          ],
          [
            -0.004588173027232713,
            59.99839039878669
          ],
          [
            -0.004487895931123493,
            59.99843047069118
          ],
          [
            -0.004387217092897763,
            59.998470502847326
          ],
          [
            -0.004286195640884153,
            59.99850864752901
          ],
          [
            -0.004184889057201618,
            59.99854679221069
          ],
          [
            -0.004083409881040208,
            59.99858493689238
          ],
          [
            -0.00398181074345871,
            59.99862308157406
          ],
          [
            -0.003880010784206765,
            59.99866122625574
          ],
          [
            -0.0037779652678113953,
            59.99870129655656
          ],
          [
            -0.003675694425876172,
            59.99874133031638
          ],
          [
            -0.003573216067882786,
            59.99877947499807
          ],
          [
            -0.003470527201910042,
            59.99881954461159
          ],
          [
            -0.0033676287582979155,
            59.998859579058696
          ],
          [
            -0.0032645276631324957,
            59.998897723740384
          ],
          [
            -0.003161209816512506,
            59.99893779266662
          ],
          [
            -0.0030576576240913195,
            59.99897782780101
          ],
          [
            -0.002953875372345384,
            59.99901789626906
          ],
          [
            -0.002849874787805644,
            59.99905793186165
          ],
          [
            -0.002745653920489417,
            59.999097999871495
          ],
          [
            -0.00264120195652781,
            59.999138035922286
          ],
          [
            -0.002536510525210967,
            59.99917810347394
          ],
          [
            -0.0024315571547603044,
            59.99922006262379
          ],
          [
            -0.0023263408572883476,
            59.99926009936187
          ],
          [
            -0.0022208809474436085,
            59.99930016622623
          ],
          [
            -0.002115168478892951,
            59.99934212537608
          ],
          [
            -0.0020091768759920386,
            59.99938216280145
          ],
          [
            -0.001902891424492077,
            59.999422228978524
          ],
          [
            -0.001796312287233333,
            59.99946418812838
          ],
          [
            -0.0016894516685772077,
            59.99950422624104
          ],
          [
            -0.0015823419163974448,
            59.999544291730814
          ],
          [
            -0.0014750080732824989,
            59.99958625088067
          ],
          [
            -0.0013674538695129664,
            59.99962628968062
          ],
          [
            -0.0012596852490464588,
            59.99966635448311
          ],
          [
            -0.0011517255434509953,
            59.99970831363296
          ],
          [
            -0.0010436068845195452,
            59.99975027278281
          ],
          [
            -0.0009353604823295621,
            59.999792231932666
          ],
          [
            -0.0008269997670177358,
            59.999832271878105
          ],
          [
            -0.0007185094383770782,
            59.99987233553511
          ],
          [
            -0.0006098676826044363,
            59.999914294684956
          ],
          [
            -0.0005010471339069603,
            59.99995625383481
          ],
          [
            -0.0003920260120692482,
            59.999998212984664
          ],
          [
            -0.00028280810492104804,
            60.00004017213452
          ]
        ]
      }
    }
  ]
}